id,station_name,line_name,name,lat,lon,wheelchair,baby_chair,ostomate,opening_hours,notes
8102e036-048c-5d8d-baad-ab009fe50a13,東京,JR山手線,東京駅付近のトイレ,35.6854873,139.7703224,,,,始発〜終電,OSMデータ
ad37e103-0f46-536d-a736-8ae4ef88f7c7,東京,JR山手線,西河岸橋際公衆便所,35.6840389,139.7728679,,,,始発〜終電,OSMデータ
1009bfef-f1dc-5a38-bc69-f17efac76c12,東京,JR山手線,東京駅付近のトイレ,35.688005,139.7699,,,,始発〜終電,OSMデータ
57df130c-9efe-5082-9bbe-aa6d67dd6058,東京,JR山手線,東京駅付近のトイレ,35.678077,139.7595972,,,,始発〜終電,OSMデータ
e4f575ac-37ac-52c6-93f3-81c256b82df4,東京,JR山手線,東京駅付近のトイレ,35.6831894,139.7585259,○,,,始発〜終電,OSMデータ
7aeb1a71-de83-5b16-8772-6d107bc77879,東京,JR山手線,東京駅付近のトイレ,35.6832972,139.7613617,○,,,始発〜終電,OSMデータ
56f3c695-7165-5bf1-811f-a7082ae74133,東京,JR山手線,東京駅付近のトイレ,35.6791648,139.7601037,○,,,始発〜終電,OSMデータ
570be394-d202-5d65-971f-7fe1c96ed577,東京,JR山手線,東京駅付近のトイレ,35.6822174,139.7600563,,,,始発〜終電,OSMデータ
43c04437-632c-5ebb-a84d-ac3df5a4e2d9,東京,JR山手線,東京駅付近のトイレ,35.6863054,139.7594843,,,,始発〜終電,OSMデータ
e2721531-7705-5b10-b86f-9f60eac1d48c,東京,JR山手線,東京駅付近のトイレ (-2階),35.6836413,139.7625484,○,,,始発〜終電,OSMデータ
271a61d4-6d88-5b15-85e8-2e490be72940,東京,JR山手線,東京駅付近のトイレ,35.6759855,139.7622371,○,○,,始発〜終電,OSMデータ
26f66432-33b1-50ee-97ec-b50806205b7e,東京,JR山手線,東京駅付近のトイレ (-1階),35.6857488,139.7633789,○,○,,始発〜終電,OSMデータ
b054cea4-6af4-5237-93d7-aed2fd2a5335,東京,JR山手線,東京駅付近のトイレ (-3階),35.6778056,139.7643496,,,,始発〜終電,OSMデータ
fb29ccc6-aed7-5d60-948a-51c2b2340785,東京,JR山手線,東京駅付近のトイレ (-3階),35.6777091,139.7650001,,,,始発〜終電,OSMデータ
1f173c4f-db0a-5765-a014-912865eb1f2b,東京,JR山手線,東京駅付近のトイレ (-1階),35.6823758,139.7662055,○,,,始発〜終電,OSMデータ
5b18202d-22a0-5472-9ef0-d13ee258bb04,東京,JR山手線,東京駅付近のトイレ,35.6788694,139.7687705,○,,,始発〜終電,OSMデータ
053258b4-bd24-521e-bdc7-a018e3ae435f,東京,JR山手線,東京駅付近のトイレ,35.6789364,139.7685775,,,,始発〜終電,OSMデータ
f3435c85-bef8-562a-8e6c-63fdb0bdf473,東京,JR山手線,東京駅付近のトイレ,35.6789827,139.7685837,,,,始発〜終電,OSMデータ
fcfc6c70-51a6-5c47-8d68-888614e13c89,東京,JR山手線,東京駅付近のトイレ,35.6833173,139.7680082,○,,,始発〜終電,OSMデータ
59f55c16-44cf-5d56-9b39-e534efc4ca7c,東京,JR山手線,東京駅付近のトイレ,35.6803922,139.7659595,,,,始発〜終電,OSMデータ
f0ffd387-8f7e-5d3f-aea4-ebcc2dd3e50b,東京,JR山手線,東京駅付近のトイレ,35.6803598,139.765851,,,,始発〜終電,OSMデータ
ab64e2fb-7bb0-586e-9921-2dafee102cce,東京,JR山手線,東京駅付近のトイレ,35.6829637,139.7651416,,,,始発〜終電,OSMデータ
5a7295d1-d77f-55fe-ab53-169a5a120bb7,東京,JR山手線,東京駅付近のトイレ (-1階),35.6823068,139.7661871,○,,,始発〜終電,OSMデータ
36f40165-0c5f-563a-a810-3a1a9205cd0b,東京,JR山手線,東京駅付近のトイレ,35.6808287,139.7667492,,,,始発〜終電,OSMデータ
4942e9b9-f9ad-5fa9-a554-a1ae93c56a3a,東京,JR山手線,東京駅付近のトイレ,35.6843896,139.7590989,,,,始発〜終電,OSMデータ
6b814840-af4c-5000-9cee-a213eec341c5,東京,JR山手線,東京駅付近のトイレ,35.6816694,139.7666481,,,,始発〜終電,OSMデータ
d3d82297-2385-5247-9915-98adef66b1a1,東京,JR山手線,東京駅付近のトイレ,35.681672,139.7666364,,,,始発〜終電,OSMデータ
f880c66a-869c-5c8d-bf09-3dea7ca66fd5,東京,JR山手線,東京駅付近のトイレ,35.6816754,139.7666241,○,,,始発〜終電,OSMデータ
3f6ba4cf-fb95-5f2e-99b3-c0515f46cc35,東京,JR山手線,東京駅付近のトイレ,35.6800198,139.7701845,,,,始発〜終電,OSMデータ
9b04e19c-f4fb-5e5f-b4c7-86c4e1d92ff1,東京,JR山手線,東京駅付近のトイレ,35.6800199,139.7701851,,,,始発〜終電,OSMデータ
729eebcd-be00-5d77-af72-1ea9d93ad705,東京,JR山手線,東京駅付近のトイレ,35.679928,139.7676889,,,,始発〜終電,OSMデータ
8b40eff8-5884-5128-a5d4-ed9e4c629ec8,東京,JR山手線,東京駅付近のトイレ,35.6871081,139.7589672,,,,始発〜終電,OSMデータ
adbf6082-a47d-51f8-966c-36df5e547eb5,東京,JR山手線,東京駅付近のトイレ,35.6765469,139.7643554,,,,始発〜終電,OSMデータ
88ed9c21-c95f-593c-b672-c591877d76ff,東京,JR山手線,東京駅付近のトイレ,35.6865037,139.7588715,,,,始発〜終電,OSMデータ
2adc8bb8-a2a9-5389-9408-dbfbd954fd6f,東京,JR山手線,東京駅付近のトイレ,35.6765247,139.7662687,,,,始発〜終電,OSMデータ
eba13a1a-d200-5398-ab7a-2baf620aedf6,東京,JR山手線,東京駅付近のトイレ,35.6864232,139.7595301,○,○,,始発〜終電,OSMデータ
8655078f-9dc5-5c8f-98b9-9ed1b28ae76e,有楽町,JR山手線,有楽町駅付近のトイレ,35.6750042,139.768721,,,,始発〜終電,OSMデータ
05756277-d5a3-577f-93f9-3502ba5e9b2e,有楽町,JR山手線,有楽町イトシア,35.6744429,139.7638905,○,,,始発〜終電,OSMデータ
7c2dd7c0-0de9-5541-8ddb-6d6e3e0a1a7c,有楽町,JR山手線,有楽町駅付近のトイレ,35.674306,139.7698707,○,,,始発〜終電,OSMデータ
9733eb8d-303c-5c79-80a1-037547509967,有楽町,JR山手線,有楽町駅付近のトイレ,35.6722893,139.7679658,,,,始発〜終電,OSMデータ
047aade0-dc6e-5be4-8ce2-27f5728be088,有楽町,JR山手線,有楽町駅付近のトイレ,35.6724048,139.7621051,,,,始発〜終電,OSMデータ
002a0bd2-4dd9-56ee-891e-6e9a50484e4f,有楽町,JR山手線,有楽町駅付近のトイレ,35.6742907,139.756867,○,,,始発〜終電,OSMデータ
dcf055ac-8c7e-5d32-9928-d1f968164cf1,有楽町,JR山手線,有楽町駅付近のトイレ,35.6721707,139.7555641,○,,,始発〜終電,OSMデータ
d9378935-add6-51a8-b39f-f33365bfad5f,有楽町,JR山手線,有楽町駅付近のトイレ,35.6779071,139.7555162,○,,,始発〜終電,OSMデータ
8656246b-1eaf-5160-a5ba-ece24f8f4566,有楽町,JR山手線,有楽町駅付近のトイレ (-2階),35.674702,139.7595844,,,,始発〜終電,OSMデータ
c84e4726-77bd-5bf9-b5db-68303fcc6204,有楽町,JR山手線,有楽町駅付近のトイレ,35.6736126,139.7581839,,,,始発〜終電,OSMデータ
afb47641-a90a-5164-aa15-7c742cd07d48,有楽町,JR山手線,有楽町駅付近のトイレ,35.6734644,139.7580752,,,,始発〜終電,OSMデータ
7b8e95bc-8f59-5f15-aa06-47d6665c44d0,有楽町,JR山手線,有楽町駅付近のトイレ,35.6734283,139.7580411,○,,,始発〜終電,OSMデータ
aed1f12c-5cb8-59ae-81a4-7e9e55b83397,有楽町,JR山手線,有楽町駅付近のトイレ (1階),35.6741928,139.7600286,,,,始発〜終電,OSMデータ
2ca6fb41-3a32-52de-841d-df873a243ca0,有楽町,JR山手線,有楽町駅付近のトイレ (-2階),35.6715965,139.7645677,○,○,,始発〜終電,OSMデータ
b0cb28a8-01a3-5f0f-a8c5-f5b0a4eae6d9,有楽町,JR山手線,有楽町駅付近のトイレ,35.6737532,139.7679244,○,○,,始発〜終電,OSMデータ
ee5804c6-0016-526e-b369-fb9cfd3aca73,有楽町,JR山手線,有楽町駅付近のトイレ,35.6778758,139.7556144,,,,始発〜終電,OSMデータ
5ca95b69-017b-599d-b63c-05b894d421e9,有楽町,JR山手線,有楽町駅付近のトイレ,35.6771526,139.7591634,,,,始発〜終電,OSMデータ
7a2c90bf-ba1a-53b3-9035-b8d61d11a011,有楽町,JR山手線,有楽町駅付近のトイレ,35.6746414,139.7626383,,,,始発〜終電,OSMデータ
f01eb754-3e42-5d25-a912-09155f595dd2,有楽町,JR山手線,有楽町駅付近のトイレ,35.674881,139.7556654,○,,,始発〜終電,OSMデータ
43d1b15e-6645-50c2-b6fd-14eb05730716,有楽町,JR山手線,有楽町駅付近のトイレ,35.6740204,139.7544283,○,,,始発〜終電,OSMデータ
c1d72699-4995-5d9c-90a1-cca32c35244b,有楽町,JR山手線,有楽町駅付近のトイレ,35.6757336,139.7571229,○,,,始発〜終電,OSMデータ
fa828c7a-d4b2-5568-80c9-ddefd6f780f3,有楽町,JR山手線,有楽町駅付近のトイレ,35.6745438,139.7567812,○,,,始発〜終電,OSMデータ
7a540aa5-746f-539b-991c-8cd38542a03b,新橋,JR山手線,新橋駅付近のトイレ,35.66619,139.7522984,,,,始発〜終電,OSMデータ
263692c1-2884-5bb6-a71c-9949fdf64a33,新橋,JR山手線,元木挽橋際公衆便所,35.6692603,139.7653832,,,,始発〜終電,OSMデータ
002c4f49-31d6-5505-8d06-5c8814239fc7,新橋,JR山手線,新橋駅付近のトイレ,35.6650924,139.7565184,○,○,,始発〜終電,OSMデータ
a2af9ef9-0556-59d4-9080-998e9e546ea0,新橋,JR山手線,元八通八橋際公衆便所,35.6672335,139.7621148,,,,始発〜終電,OSMデータ
19e8d037-31f9-5a14-9a84-825bbbd686e2,新橋,JR山手線,新橋駅付近のトイレ,35.6664609,139.759926,,,,始発〜終電,OSMデータ
cef1129f-75bf-5262-bc88-58019c0e3ad2,新橋,JR山手線,新橋駅付近のトイレ,35.6665188,139.7567022,,,,始発〜終電,OSMデータ
e1fe5ed4-c071-5a34-a49e-523e4408cbca,新橋,JR山手線,新橋駅付近のトイレ,35.6623157,139.7630863,○,,,始発〜終電,OSMデータ
996f23d4-4aba-524e-a84b-bc0cf7fe82e8,浜松町,JR山手線,浜松町駅付近のトイレ,35.6530231,139.7544518,,,,始発〜終電,OSMデータ
e093a4b4-6b5b-5012-8938-cff8d369407f,浜松町,JR山手線,浜松町駅付近のトイレ,35.6559938,139.7582143,○,,,始発〜終電,OSMデータ
dbd37fa4-b1fb-5095-b64e-4a867f6d27bb,浜松町,JR山手線,浜松町駅付近のトイレ,35.659264,139.7509235,○,,,始発〜終電,OSMデータ
7deb319e-e3d5-51f4-a315-653ca60190dc,浜松町,JR山手線,浜松町駅付近のトイレ (-1階),35.6572049,139.7527513,,,,始発〜終電,OSMデータ
74e7aff2-746b-5ad8-b01f-ce4eb2cdb335,浜松町,JR山手線,浜松町駅付近のトイレ,35.654342,139.750285,○,,,始発〜終電,OSMデータ
8eb251ac-f54e-5728-9ef3-66e93213e8db,浜松町,JR山手線,浜松町駅付近のトイレ,35.6504312,139.7601903,,,,始発〜終電,OSMデータ
4bb0b766-d745-52a7-9e51-3e79cddd1a0b,浜松町,JR山手線,浜松町駅付近のトイレ,35.6509026,139.7603594,,,,始発〜終電,OSMデータ
bf07cbb5-e9da-5cdd-b617-847245d61879,浜松町,JR山手線,浜松町駅付近のトイレ,35.6559941,139.7494492,○,○,,始発〜終電,OSMデータ
b760b9e3-138f-563c-a28f-ccefe6b0c395,浜松町,JR山手線,浜松町駅付近のトイレ,35.6545569,139.7632691,,,,始発〜終電,OSMデータ
f5e0390b-7665-5d01-89d4-b4a149d10577,浜松町,JR山手線,浜松町駅付近のトイレ,35.6563211,139.7574696,○,,,始発〜終電,OSMデータ
257f90a8-ef4f-5c96-869b-3c7e1a22c7e6,浜松町,JR山手線,浜松町駅付近のトイレ,35.6563228,139.7572948,○,,,始発〜終電,OSMデータ
af2f4f6b-2468-5ed7-bfd0-1fb542cea886,浜松町,JR山手線,浜松町駅付近のトイレ,35.6574459,139.7630111,,,,始発〜終電,OSMデータ
e9af9cf1-9732-5158-a5b6-646ae47fabe4,浜松町,JR山手線,浜松町駅付近のトイレ,35.6592059,139.7635033,○,,,始発〜終電,OSMデータ
612ce96c-9df4-5524-82f1-52fd0f6cd6be,浜松町,JR山手線,浜松町駅付近のトイレ,35.6604002,139.7622701,○,,,始発〜終電,OSMデータ
db58efe8-91d1-52bc-8ee2-a5e91a9af6c1,浜松町,JR山手線,浜松町駅付近のトイレ,35.6528339,139.7494774,,,,始発〜終電,OSMデータ
52541081-951b-55ac-a541-e0d9e3902b5b,田町,JR山手線,田町駅付近のトイレ (0階),35.6471422,139.7450199,,,,始発〜終電,OSMデータ
6c85ba0c-2df3-58cc-bc98-2403fbb557ae,田町,JR山手線,田町駅付近のトイレ,35.6480265,139.7480996,,,,始発〜終電,OSMデータ
b015dc76-d2f3-5822-95a4-248b591f3dc1,田町,JR山手線,田町駅付近のトイレ,35.644737,139.751621,,,,始発〜終電,OSMデータ
43a879e4-13ef-507a-b378-66ed97cbf8d7,田町,JR山手線,田町駅付近のトイレ,35.6471307,139.7501065,○,,,始発〜終電,OSMデータ
9481c57b-cf25-5521-b391-6795fbdcc9cd,田町,JR山手線,田町駅付近のトイレ,35.6448654,139.7558704,,,,始発〜終電,OSMデータ
977cea84-0bbb-5a2e-b7ea-adb086e34f11,田町,JR山手線,田町駅付近のトイレ,35.6404625,139.752094,○,,,始発〜終電,OSMデータ
398976a7-5696-5c9c-b89c-70c0e78d3337,田町,JR山手線,田町駅付近のトイレ,35.6419397,139.7551443,,,,始発〜終電,OSMデータ
f89c4960-2463-5cc9-abc0-8cc9f5365fe5,田町,JR山手線,田町駅付近のトイレ,35.643923,139.748775,,,,始発〜終電,OSMデータ
fdf630f6-96ca-595a-a7ec-d8c7ae6c0eb3,田町,JR山手線,田町駅付近のトイレ (-1階),35.6471539,139.7450371,,,,始発〜終電,OSMデータ
3d95166d-48cd-59c3-b161-23bc3402e76e,田町,JR山手線,田町駅付近のトイレ,35.6459738,139.7504671,○,,,始発〜終電,OSMデータ
525e1f9c-1f91-5d99-8906-040cd2a02a8a,田町,JR山手線,田町駅付近のトイレ,35.6485658,139.7494609,○,,,始発〜終電,OSMデータ
e5e02f64-eb7b-5a0c-aa65-65518a17ee96,田町,JR山手線,田町駅付近のトイレ,35.6437449,139.7407577,○,,,始発〜終電,OSMデータ
388340fb-c48f-55b0-bf9f-4ce1dbe26c96,高輪ゲートウェイ,JR山手線,高輪ゲートウェイ駅付近のトイレ,35.6331194,139.7361147,,,,始発〜終電,OSMデータ
79176c76-1946-5d7b-b332-61d1555c73d7,高輪ゲートウェイ,JR山手線,高輪ゲートウェイ駅付近のトイレ,35.6397103,139.7342409,,,,始発〜終電,OSMデータ
35629d6f-eb12-5f47-85cf-aabf7014eef8,高輪ゲートウェイ,JR山手線,高輪ゲートウェイ駅付近のトイレ,35.6307364,139.7352961,○,,,始発〜終電,OSMデータ
992b2945-d49e-52de-8423-6e5d941dbbcb,高輪ゲートウェイ,JR山手線,高輪ゲートウェイ駅付近のトイレ,35.6355052,139.7434292,,,,始発〜終電,OSMデータ
86789a8d-a979-59f1-ab66-5e786d09227a,高輪ゲートウェイ,JR山手線,高輪ゲートウェイ駅付近のトイレ,35.6348892,139.7405448,,,,始発〜終電,OSMデータ
821a2925-9302-5b9e-8ed7-caac5c2b2f3a,高輪ゲートウェイ,JR山手線,高輪ゲートウェイ駅付近のトイレ,35.6372851,139.7376094,○,,,始発〜終電,OSMデータ
a406a2be-faca-55f2-ae64-2f3b72ee52c5,高輪ゲートウェイ,JR山手線,高輪ゲートウェイ駅付近のトイレ,35.6346862,139.7427631,,,,始発〜終電,OSMデータ
cd62fcc5-0ce1-5b88-8b39-19a6ef35603d,品川,JR山手線,品川駅付近のトイレ,35.6237567,139.7391532,○,○,,始発〜終電,OSMデータ
76d15dbe-903f-5921-8177-21f35bb4c324,品川,JR山手線,品川駅付近のトイレ,35.6305354,139.7484983,,,,始発〜終電,OSMデータ
83debc91-8a33-53e0-933e-bd9aa4f93f0c,品川,JR山手線,品川駅付近のトイレ,35.6288191,139.7465284,○,○,,始発〜終電,OSMデータ
c01a5fec-b0fc-5bb2-a327-f6072fa5209e,品川,JR山手線,品川駅付近のトイレ,35.6245976,139.7433655,,,,始発〜終電,OSMデータ
6a1bc035-3b3c-5155-bc52-e36bfbb9a35e,大崎,JR山手線,大崎駅付近のトイレ,35.620057,139.727988,○,,,始発〜終電,OSMデータ
1747d777-4938-5914-89af-0c648625453f,大崎,JR山手線,大崎駅付近のトイレ,35.6139749,139.7293626,,,,始発〜終電,OSMデータ
b2eef973-639d-5d47-a74c-04b7cf2e2b2e,大崎,JR山手線,大崎駅付近のトイレ,35.6222881,139.7289913,,,,始発〜終電,OSMデータ
a6096e3f-b3e8-554c-b23d-0abdd8178984,大崎,JR山手線,大崎駅付近のトイレ (0階),35.6246307,139.7242334,○,○,,始発〜終電,OSMデータ
9e5cc8fe-435b-50f5-b543-113ca473b761,大崎,JR山手線,大崎駅付近のトイレ,35.6175993,139.728995,,,,始発〜終電,OSMデータ
778765b0-b753-57e0-857d-90758e858956,大崎,JR山手線,居木橋公衆便所,35.6181383,139.7331355,,,,始発〜終電,OSMデータ
17e6a833-0b1f-5c62-9d4e-467ed45887e2,大崎,JR山手線,大崎駅付近のトイレ,35.6195015,139.7315928,,,,始発〜終電,OSMデータ
a22e0220-4a48-5cb4-874e-48ed392f41a3,大崎,JR山手線,大崎駅付近のトイレ,35.6194615,139.7332375,○,,,始発〜終電,OSMデータ
3ffc84c2-fe3f-53e5-a2cf-a822c27f4309,大崎,JR山手線,大崎駅付近のトイレ,35.6154852,139.7216342,,,,始発〜終電,OSMデータ
afea073f-811b-5796-9b18-98beb1322800,大崎,JR山手線,大崎駅付近のトイレ,35.6161986,139.7236509,,,,始発〜終電,OSMデータ
4cc59226-e0ac-5e09-92ca-5af12f0bda67,大崎,JR山手線,大崎駅付近のトイレ,35.6155828,139.7244756,,,,始発〜終電,OSMデータ
b6d7404f-7265-5c17-9af8-b7db5ce12375,五反田,JR山手線,五反田駅付近のトイレ,35.6325501,139.7231985,,,,始発〜終電,OSMデータ
393a600a-97a4-52f6-901e-02b4b225b874,五反田,JR山手線,五反田駅付近のトイレ,35.6295203,139.7293992,,,,始発〜終電,OSMデータ
c66f9710-159f-5335-b909-e4622c6cd3fb,五反田,JR山手線,五反田駅付近のトイレ,35.6325804,139.7231983,,,,始発〜終電,OSMデータ
680a403f-b03c-5692-b2ba-b42a27d312a3,目黒,JR山手線,目黒駅付近のトイレ,35.6337858,139.7110758,○,○,,始発〜終電,OSMデータ
4ef249c7-dce4-50ae-af2b-0fc7b52c1ba6,目黒,JR山手線,目黒駅付近のトイレ,35.6324235,139.7082728,,,,始発〜終電,OSMデータ
d2972c80-7931-5cad-ae58-c7776c02eba4,目黒,JR山手線,目黒駅付近のトイレ,35.6345004,139.7088821,,,,始発〜終電,OSMデータ
08eb45c1-adda-56bc-b203-1eaf2ccbe78c,目黒,JR山手線,目黒駅付近のトイレ,35.6361571,139.7214166,,,,始発〜終電,OSMデータ
af75e12e-58cc-5d86-b2a0-088c5f2a0101,目黒,JR山手線,目黒駅付近のトイレ (-3階),35.6330674,139.7156707,○,○,,始発〜終電,OSMデータ
76035a5e-5366-59a0-804a-12ef5bb8ed27,目黒,JR山手線,目黒駅付近のトイレ,35.6384929,139.7173095,,,,始発〜終電,OSMデータ
46454ee4-c1ea-5f50-9ff3-32a2d43456a0,目黒,JR山手線,目黒駅付近のトイレ,35.6389702,139.7188461,,,,始発〜終電,OSMデータ
3bd4b518-8dd7-5af5-a633-957d6427d21c,目黒,JR山手線,不動前公衆便所,35.6258955,139.7139984,,,,始発〜終電,OSMデータ
01d6c7a1-c5cc-59c7-b304-dfa7ce0444c2,目黒,JR山手線,目黒駅付近のトイレ,35.6288785,139.7116669,,,,始発〜終電,OSMデータ
62486794-70ec-5783-8a4d-52f5fe371e93,目黒,JR山手線,目黒駅付近のトイレ,35.6307562,139.7123086,,,,始発〜終電,OSMデータ
51ed59cd-7f8e-5c4e-91ff-59e11a2951c7,目黒,JR山手線,目黒駅付近のトイレ,35.6364035,139.7083432,,,,始発〜終電,OSMデータ
32fbdc08-88ac-551e-9173-9812765e5438,目黒,JR山手線,目黒駅付近のトイレ,35.6345302,139.7084838,,,,始発〜終電,OSMデータ
e4a28286-6ad7-54e7-86be-64575905d20c,目黒,JR山手線,目黒駅付近のトイレ,35.6387934,139.7122952,,,,始発〜終電,OSMデータ
fd5206b6-ca25-54b8-b9ae-e6a2c3dd5140,目黒,JR山手線,目黒駅付近のトイレ,35.6365643,139.722575,,,,始発〜終電,OSMデータ
16ab295d-1c44-5940-bae2-bab7aebb76d3,恵比寿,JR山手線,代官山公園,35.6487424,139.7036635,○,,,始発〜終電,OSMデータ
308e6efe-38c0-560a-b48a-be76c91bac1d,恵比寿,JR山手線,恵比寿駅付近のトイレ,35.6413075,139.7050028,,,,始発〜終電,OSMデータ
83fe68ef-e597-58a5-b7f3-cdda628ef194,恵比寿,JR山手線,あれどめ ひび セーフ,35.649022,139.70129,,,,始発〜終電,OSMデータ
6d0e13e8-f6c4-5a38-b623-40d1d429a177,恵比寿,JR山手線,恵比寿駅付近のトイレ,35.6477282,139.7008567,○,,,始発〜終電,OSMデータ
5efc7d74-be77-551a-9a18-2fc62261e85d,恵比寿,JR山手線,恵比寿駅付近のトイレ,35.647014,139.70709,○,,○,始発〜終電,OSMデータ
18347268-3fc9-57a6-9ef0-95ee38b21834,恵比寿,JR山手線,恵比寿南一公園,35.6425837,139.7117018,○,,○,始発〜終電,OSMデータ
03fb9e09-2ef2-5856-acb8-d889d24be3e2,恵比寿,JR山手線,景丘公園,35.6438365,139.7135387,○,,,始発〜終電,OSMデータ
8f46639e-4078-58b3-ae02-11d8199e88d0,恵比寿,JR山手線,恵比寿駅付近のトイレ,35.6486139,139.7036092,,,,始発〜終電,OSMデータ
ba53ccb6-8d45-59df-bf83-ccdfd17a79a5,恵比寿,JR山手線,恵比寿駅付近のトイレ (0階),35.6481905,139.7033201,,,,始発〜終電,OSMデータ
291da17d-596b-5c6d-a37b-fa215f88d5b3,恵比寿,JR山手線,恵比寿駅付近のトイレ,35.6455091,139.7030487,,,,始発〜終電,OSMデータ
e4ee8d8b-d700-590b-9826-d32d178c51ba,恵比寿,JR山手線,恵比寿駅西口公衆便所,35.647432,139.7094583,○,○,,始発〜終電,OSMデータ
5050ae1c-680d-538f-b165-ef7665fe770d,恵比寿,JR山手線,恵比寿駅東口公園,35.6466075,139.7107237,,,,始発〜終電,OSMデータ
d4a5fc7c-ac0e-5aa6-a9d3-f7286ed2e0da,恵比寿,JR山手線,恵比寿東公園,35.6481689,139.7112019,○,○,○,始発〜終電,OSMデータ
1e5318e6-3756-53bd-b9b1-3b5ce6ce6074,恵比寿,JR山手線,東三丁目公衆便所,35.6489829,139.7091316,○,,○,始発〜終電,OSMデータ
c768ca65-900e-5385-9326-34423fdf2805,渋谷,JR山手線,鉢山公園,35.6530295,139.6989983,,,,始発〜終電,OSMデータ
e4fb1e28-2a4d-5a06-be1c-fd537b531108,渋谷,JR山手線,神宮通公園,35.6641929,139.7020557,○,○,○,始発〜終電,OSMデータ
61ad01b7-9407-57d2-a3ce-0d4dc0f196a7,渋谷,JR山手線,渋谷区役所前公衆便所,35.6648489,139.6992523,○,○,,始発〜終電,OSMデータ
af2cafce-ab49-5d7f-b1b3-3065c422f969,渋谷,JR山手線,渋谷駅付近のトイレ,35.6587734,139.6997126,○,○,,始発〜終電,OSMデータ
e8fb3922-d97b-5a4b-9d31-ded7fa09654d,渋谷,JR山手線,渋谷駅付近のトイレ (-2階),35.6595192,139.7000994,○,,,始発〜終電,OSMデータ
e42eacb3-a0dc-5889-9f60-e9c28cb3a59e,渋谷,JR山手線,渋谷駅付近のトイレ (0階),35.6609649,139.6958408,,,,始発〜終電,OSMデータ
4c0e4d14-7a8c-5c60-b7ea-587b2489e966,渋谷,JR山手線,渋谷駅付近のトイレ,35.6601668,139.7015599,,,,始発〜終電,OSMデータ
479f38c5-ef22-5b0b-b983-6c5841c95b63,渋谷,JR山手線,渋谷駅付近のトイレ,35.6598184,139.7015406,,,,始発〜終電,OSMデータ
07c0b58c-5d0e-577c-897b-eb1084b13571,渋谷,JR山手線,渋谷駅付近のトイレ (2階),35.6591691,139.7034339,○,,,始発〜終電,OSMデータ
7a462972-b1a9-58de-b60c-6cc697f6ba2c,渋谷,JR山手線,美竹公園,35.6619843,139.7030484,,,,始発〜終電,OSMデータ
e76a3d78-b2d9-5ee9-8960-69b7e3a98dc9,渋谷,JR山手線,並木橋公衆便所,35.6550068,139.7065918,○,,,始発〜終電,OSMデータ
7771a18c-8ad9-5931-99ba-579405e9fdd7,渋谷,JR山手線,鶯谷児童遊園地,35.6536821,139.7033323,,,,始発〜終電,OSMデータ
e66a72e5-c885-55c0-ba31-3fb93b4b6abb,渋谷,JR山手線,神泉児童遊園地,35.6552115,139.6930187,○,,,始発〜終電,OSMデータ
43cf8309-cb94-59b0-b6b8-12cd2cc366a2,渋谷,JR山手線,円山児童遊園地,35.6586576,139.6944086,,,,始発〜終電,OSMデータ
73c43d19-21fb-58e1-b798-ba82bc741aeb,渋谷,JR山手線,鍋島松濤公園,35.6596253,139.6915361,○,○,,始発〜終電,OSMデータ
df672f4d-2d00-5a02-90ea-a0bca5afb81c,渋谷,JR山手線,渋谷駅付近のトイレ (1階),35.6590941,139.7014254,,,,始発〜終電,OSMデータ
e720c32f-9f98-50df-9653-f39b2e62d77c,渋谷,JR山手線,渋谷駅付近のトイレ (1階),35.6591347,139.7014186,,,,始発〜終電,OSMデータ
0db55739-f5df-5df7-9e18-4db19b5b676f,渋谷,JR山手線,南改札 (1階),35.6578211,139.7016873,,,,始発〜終電,OSMデータ
903292e7-97bb-5a97-9340-5eecebe0ab40,渋谷,JR山手線,南改札 (1階),35.6577788,139.7015649,,,,始発〜終電,OSMデータ
f9569624-8c86-551c-bcbf-e136b6b6f20c,渋谷,JR山手線,渋谷駅付近のトイレ (2階),35.6591755,139.7030244,,,,始発〜終電,OSMデータ
c4ba9ab6-cc28-52fe-a9c7-95bf47f99e20,渋谷,JR山手線,渋谷駅付近のトイレ (1階),35.6582746,139.6983222,○,,,始発〜終電,OSMデータ
511e6a33-ed09-5ead-8350-da27fb42f242,原宿,JR山手線,原宿駅付近のトイレ,35.6728332,139.702708,○,,,始発〜終電,OSMデータ
eca4d8ee-d204-5447-ab4d-e2d48dd1fa30,原宿,JR山手線,原宿駅付近のトイレ,35.6742215,139.7004241,,,,始発〜終電,OSMデータ
8337cb0b-6673-5925-bf2b-efe0bc792b91,原宿,JR山手線,神宮前公衆便所,35.672463,139.7080278,,○,,始発〜終電,OSMデータ
339f963a-4efc-55e5-8ed7-765e7476621f,原宿,JR山手線,原宿駅付近のトイレ,35.6771341,139.7029472,,,,始発〜終電,OSMデータ
a0550087-3f70-5bc3-870e-0945e3548c2f,原宿,JR山手線,原宿駅付近のトイレ,35.6750108,139.7015256,,,,始発〜終電,OSMデータ
953cfd4a-c547-5e04-a0ac-54f84af7c627,原宿,JR山手線,原宿駅付近のトイレ,35.6756725,139.6982972,,,,始発〜終電,OSMデータ
84f486a8-4ebd-5ea0-bee6-0f3c14b69141,原宿,JR山手線,表参道ヒルズ公衆便所,35.6667135,139.7097194,○,,,始発〜終電,OSMデータ
89936906-1cbe-55df-99d9-9109e6c3f30e,原宿,JR山手線,原宿駅付近のトイレ (-4階),35.6682346,139.7051422,,○,,始発〜終電,OSMデータ
2242d92e-22de-57d0-a17d-f2d7bf074265,原宿,JR山手線,原宿駅付近のトイレ,35.6704528,139.6983633,,,,始発〜終電,OSMデータ
77895f20-556e-554c-8a49-dd781d62669f,原宿,JR山手線,千原児童遊園地,35.6734399,139.7096353,,,,始発〜終電,OSMデータ
470ff333-a268-5067-910b-0ae4a6b0e792,原宿,JR山手線,原宿駅付近のトイレ,35.6702419,139.7023102,,,,始発〜終電,OSMデータ
8004049c-24a7-5f19-b879-033bd996a8e2,原宿,JR山手線,原宿駅付近のトイレ,35.6670664,139.6971022,,,,始発〜終電,OSMデータ
7b108942-4263-5ebe-97c9-a1985901d34a,原宿,JR山手線,原宿駅付近のトイレ,35.668971,139.7001025,,,,始発〜終電,OSMデータ
338307c9-f7a0-5fa9-9785-8f77d74b82e9,原宿,JR山手線,原宿駅付近のトイレ (0階),35.6662569,139.7007244,○,,,始発〜終電,OSMデータ
93d1c36e-7a7d-5944-b442-d6164052d72f,原宿,JR山手線,原宿駅付近のトイレ,35.6677843,139.6949121,,,,始発〜終電,OSMデータ
fbc07767-dc95-5e33-96cc-acc1bc50f3dd,原宿,JR山手線,原宿駅付近のトイレ,35.6717371,139.6964769,,,,始発〜終電,OSMデータ
509e8fc6-6e8c-5964-95d9-057ad25db3d5,原宿,JR山手線,原宿駅付近のトイレ,35.6689625,139.7001154,,○,,始発〜終電,OSMデータ
f88ca4a8-d489-56bc-8fd8-1e499e70bd06,原宿,JR山手線,原宿駅付近のトイレ,35.6732204,139.6986141,,,,始発〜終電,OSMデータ
2af30a29-f544-526b-9249-d3ef376660fa,原宿,JR山手線,原宿駅付近のトイレ,35.6728729,139.7027021,,,,始発〜終電,OSMデータ
bbf47fb0-3b91-5371-bf7e-6d08dfce321c,代々木,JR山手線,代々木二丁目あおい公園,35.6870625,139.6963374,○,,○,始発〜終電,OSMデータ
ff7142c5-7185-5c27-9551-f71083054a85,代々木,JR山手線,代々木駅付近のトイレ,35.6828,139.709856,○,,,始発〜終電,OSMデータ
9032ca46-f6c3-50cf-a325-33969a34e4e4,代々木,JR山手線,代々木駅付近のトイレ,35.682401,139.709047,○,,,始発〜終電,OSMデータ
d8fe2d48-8794-5fc6-bab8-d96295d85bb9,代々木,JR山手線,代々木駅付近のトイレ,35.6849034,139.705213,,,,始発〜終電,OSMデータ
fb9f312a-aef8-501f-87b5-f11d0c0ba55a,代々木,JR山手線,代々木駅付近のトイレ,35.6794445,139.6976225,,,,始発〜終電,OSMデータ
b75317fb-8a42-59d8-b7ab-8129b91cb9a3,代々木,JR山手線,千鳩児童遊園地,35.6826168,139.7054073,,,,始発〜終電,OSMデータ
2bb0a6c9-c42e-5249-9198-c0e0ac0ddf4e,代々木,JR山手線,代々木駅付近のトイレ (0階),35.6895587,139.7015356,,,,始発〜終電,OSMデータ
2f6fb929-10d3-5b73-b0c7-b191c0b295be,代々木,JR山手線,代々木駅付近のトイレ (-1階),35.6899011,139.7015691,,,,始発〜終電,OSMデータ
799d8406-e102-5540-b592-164a5ccfe4c3,代々木,JR山手線,代々木駅付近のトイレ (1階),35.6812298,139.6982374,○,○,,始発〜終電,OSMデータ
e4b7d647-a851-5f21-b7a2-5f6c893fb120,代々木,JR山手線,代々木駅付近のトイレ (0階),35.6813407,139.6981927,○,○,,始発〜終電,OSMデータ
1fdfeb93-dbc6-5a7e-bbe9-a0a145147081,代々木,JR山手線,代々木駅付近のトイレ,35.6902055,139.704468,○,○,,始発〜終電,OSMデータ
83701f63-aa5a-5d19-b916-8970fdde9487,代々木,JR山手線,代々木駅付近のトイレ (-1階),35.6880927,139.6976779,,,,始発〜終電,OSMデータ
51c78771-c63b-55a7-8209-dcd4a9b356da,代々木,JR山手線,代々木駅付近のトイレ (-1階),35.6874127,139.7022483,,○,,始発〜終電,OSMデータ
ba5bc063-b323-5b3e-b852-f995ca330721,代々木,JR山手線,代々木駅付近のトイレ,35.6848958,139.7040254,,,,始発〜終電,OSMデータ
1073917f-b400-5ff8-8c04-c6c7b9ce1ef7,代々木,JR山手線,代々木駅付近のトイレ,35.6884949,139.7078862,,,,始発〜終電,OSMデータ
e9ccc27c-1070-55a8-bd5b-c6307fcf89af,代々木,JR山手線,代々木駅付近のトイレ (0階),35.6831099,139.7023149,,,,始発〜終電,OSMデータ
1fb7a1df-71bb-513b-b05e-36e0c41e3d47,代々木,JR山手線,代々木駅付近のトイレ,35.6857521,139.7084436,,,,始発〜終電,OSMデータ
004db108-573c-58f8-addf-4ee45e6b3f0b,代々木,JR山手線,代々木駅付近のトイレ,35.6805783,139.7040487,,,,始発〜終電,OSMデータ
83320e8e-b027-558b-b64f-cce79d1f1fe4,代々木,JR山手線,代々木駅付近のトイレ (-1階),35.6878704,139.6973328,,,,始発〜終電,OSMデータ
1da4278f-248d-5e64-b79d-ef6244f7e71e,代々木,JR山手線,代々木駅付近のトイレ,35.6886984,139.7004606,,,,始発〜終電,OSMデータ
b3ab230f-e03c-5773-b32d-b6d055d1b983,代々木,JR山手線,代々木駅付近のトイレ,35.6904483,139.6989463,,,,始発〜終電,OSMデータ
f43a3b3f-17ba-5092-89d7-72de396430c2,代々木,JR山手線,代々木駅付近のトイレ,35.6869228,139.7078786,,○,,始発〜終電,OSMデータ
38bb5331-ee70-5e59-af23-29aef96660aa,代々木,JR山手線,代々木駅付近のトイレ,35.6869639,139.7066487,○,○,,始発〜終電,OSMデータ
68a6d5c9-1938-5ccd-98f6-d90fb0de878b,代々木,JR山手線,代々木駅付近のトイレ,35.6841636,139.7089659,,○,,始発〜終電,OSMデータ
4129394a-efd0-5c87-a180-406ac50e9f94,代々木,JR山手線,代々木駅付近のトイレ,35.6853893,139.709633,,○,,始発〜終電,OSMデータ
3cdee7cb-1b82-58b0-a012-9874ede8fb91,代々木,JR山手線,代々木駅付近のトイレ (1階),35.6894982,139.6998854,,,,始発〜終電,OSMデータ
49d3d4c8-f09b-505d-8f8e-43035354e8d9,代々木,JR山手線,代々木駅付近のトイレ (1階),35.6895286,139.6998775,,,,始発〜終電,OSMデータ
a089a28f-978c-5598-a789-96d2de665a76,代々木,JR山手線,代々木駅付近のトイレ (1階),35.6898727,139.7008515,,,,始発〜終電,OSMデータ
f9154ecb-40ed-5a6a-9849-f94b5e53cb4b,代々木,JR山手線,代々木駅付近のトイレ (1階),35.6898727,139.7009078,,,,始発〜終電,OSMデータ
d74de009-f8d7-54ed-8772-184c40383e7f,代々木,JR山手線,代々木駅付近のトイレ (-1階),35.6904462,139.699419,,,,始発〜終電,OSMデータ
47fb43c6-d869-57bb-b89f-97f2bdd8a198,代々木,JR山手線,代々木駅付近のトイレ (1階),35.6887251,139.7003428,,,,始発〜終電,OSMデータ
192973aa-2c54-5b6d-9d9f-161488b88b39,代々木,JR山手線,代々木駅付近のトイレ (1階),35.6887124,139.7004574,○,,,始発〜終電,OSMデータ
d5a6ed46-e7d3-5412-a6e9-8f41b7697672,代々木,JR山手線,代々木駅付近のトイレ (1階),35.688768,139.7004726,,,,始発〜終電,OSMデータ
3c5c309d-96cf-5758-b1aa-ad3e46b937f4,代々木,JR山手線,代々木駅付近のトイレ,35.6882198,139.7079644,○,,,始発〜終電,OSMデータ
fb4f49de-db04-53f1-b418-905959f2b0df,代々木,JR山手線,代々木駅付近のトイレ,35.6881866,139.7080349,○,,,始発〜終電,OSMデータ
50200049-0c0e-5d7c-bb35-03c4e3b5f490,代々木,JR山手線,代々木駅付近のトイレ (-3階),35.6904524,139.6989524,,,,始発〜終電,OSMデータ
76843e15-795f-5a93-9f3b-063844b49aee,代々木,JR山手線,代々木駅付近のトイレ (-3階),35.6904931,139.6989464,,,,始発〜終電,OSMデータ
8437634c-64d1-5bfb-a5f9-562ffbe340f3,代々木,JR山手線,代々木駅付近のトイレ (-3階),35.6905313,139.6989429,,,,始発〜終電,OSMデータ
46ea5fec-9f44-50b1-8e62-c9475f823411,代々木,JR山手線,裏参道公衆便所,35.680419,139.7038213,○,○,,始発〜終電,OSMデータ
f47fed6a-c1a2-5ea6-8380-690d183be925,代々木,JR山手線,代々木みどり公園,35.683176,139.7006093,○,,○,始発〜終電,OSMデータ
cc7e0e7a-2f6a-5744-90e4-9145a291e984,新宿,JR山手線,新宿駅付近のトイレ (-2階),35.6906576,139.693235,,,,始発〜終電,OSMデータ
16135150-473f-5600-ac92-27773d37acb8,新宿,JR山手線,新宿駅付近のトイレ (-2階),35.6906739,139.6932307,,,,始発〜終電,OSMデータ
104f4834-14c4-5244-a97b-883a67735fa1,新宿,JR山手線,新宿駅付近のトイレ (-1階),35.6907767,139.7065859,○,○,,始発〜終電,OSMデータ
607b9ad1-bc94-5654-add5-ff2875b02266,新宿,JR山手線,新宿駅付近のトイレ (-1階),35.69218,139.6988158,○,○,,始発〜終電,OSMデータ
7eb84aa9-9cf5-5cfa-9b2a-4fc15d2b004c,新宿,JR山手線,新宿駅付近のトイレ,35.6954481,139.7001309,,,,始発〜終電,OSMデータ
79054c25-3ecb-5221-91ec-76389a77401f,新宿,JR山手線,新宿駅付近のトイレ,35.6890919,139.6926439,,,,始発〜終電,OSMデータ
5c58e2ff-a6b7-591c-be54-70d54aa1b00e,新宿,JR山手線,新宿駅付近のトイレ,35.6901698,139.6923753,,,,始発〜終電,OSMデータ
330376e3-53a8-5e66-b4a3-9e56e912c32b,新宿,JR山手線,新宿駅付近のトイレ (7階),35.6914688,139.704429,,,,始発〜終電,OSMデータ
456e3c71-2492-597a-b1a7-da9b665919d1,新宿,JR山手線,新宿駅付近のトイレ,35.6934947,139.7040978,,,,始発〜終電,OSMデータ
20a1535a-ce55-5afc-84d0-e591c0f8f666,新宿,JR山手線,だれでもトイレ,35.6889443,139.6906383,○,,,始発〜終電,OSMデータ
25be7111-506c-5c4d-9bcc-b6f244756519,新大久保,JR山手線,新大久保駅付近のトイレ,35.7035461,139.7040896,,,,始発〜終電,OSMデータ
750cabc1-f518-5372-84a9-609b3a1a6857,新大久保,JR山手線,新大久保駅付近のトイレ,35.6995934,139.7022693,,,,始発〜終電,OSMデータ
c0641aea-e94c-5dbb-a4c1-f5acbe85c585,新大久保,JR山手線,新大久保駅付近のトイレ,35.7057902,139.6960169,,,,始発〜終電,OSMデータ
ee2cb781-3532-5909-9257-d3cb3225ccf7,新大久保,JR山手線,新大久保駅付近のトイレ,35.7006351,139.6930297,,,,始発〜終電,OSMデータ
31b517bc-b45c-5366-9682-14b505cd92ac,新大久保,JR山手線,新大久保駅付近のトイレ,35.7070176,139.7002839,,,,始発〜終電,OSMデータ
554f9705-c8dc-5cfb-be1a-65b702f963d4,新大久保,JR山手線,新大久保駅付近のトイレ,35.7075734,139.6986029,,,,始発〜終電,OSMデータ
5334f4b0-195f-57c3-ab50-c8064d99302b,新大久保,JR山手線,新大久保駅付近のトイレ,35.7076587,139.7042137,,,,始発〜終電,OSMデータ
5ea58f90-15bc-5fa7-aeb1-87725977fa69,新大久保,JR山手線,新大久保駅付近のトイレ,35.702839,139.6959542,,,,始発〜終電,OSMデータ
84d8a51e-d973-5ee9-adbb-8f1149d038f1,新大久保,JR山手線,新大久保駅付近のトイレ,35.7012032,139.7000457,,,,始発〜終電,OSMデータ
4db59f0f-28d2-5547-b27d-da8d26d10fce,新大久保,JR山手線,新大久保駅付近のトイレ,35.702736,139.7077944,,,,始発〜終電,OSMデータ
bbd0b945-1aab-5131-8e61-5b6df0d253ae,新大久保,JR山手線,新大久保駅付近のトイレ,35.7051758,139.7042661,,,,始発〜終電,OSMデータ
dba0aefe-c3f9-5e96-9133-08bc9bb4f829,新大久保,JR山手線,新大久保駅付近のトイレ,35.6972736,139.7015349,○,,,始発〜終電,OSMデータ
d1466526-2a66-5d64-8547-9d2dc9f7c3f8,高田馬場,JR山手線,高田馬場駅トイレ(代表),35.7134826,139.7044742,○,○,,始発〜終電,駅中心座標(詳細位置不明)
e4fe3227-536e-5ef3-8b07-0d244f27edc4,目白,JR山手線,目白駅付近のトイレ,35.7177894,139.7029355,,,,始発〜終電,OSMデータ
3c282810-f118-525c-b063-9463a72f46ae,目白,JR山手線,目白駅付近のトイレ,35.7178221,139.7022568,,,,始発〜終電,OSMデータ
52233832-f676-522d-a16e-8274d1dab071,目白,JR山手線,目白駅付近のトイレ,35.7186886,139.7010232,,,,始発〜終電,OSMデータ
bc7ab21e-1019-5b5b-b8b7-5a288058b53e,目白,JR山手線,目白駅付近のトイレ,35.7265497,139.7049969,,,,始発〜終電,OSMデータ
24a7bab2-1149-5cb7-84a5-3a720c43d672,目白,JR山手線,目白駅付近のトイレ,35.7231049,139.6991263,○,,,始発〜終電,OSMデータ
88a28db8-df12-50a5-8f4d-1ee06748fccf,目白,JR山手線,目白駅付近のトイレ,35.7161093,139.7040892,,,,始発〜終電,OSMデータ
a89be9f1-26fb-5043-839a-dd66605cf13c,目白,JR山手線,目白駅付近のトイレ (1階),35.7215926,139.7076067,○,○,,始発〜終電,OSMデータ
b4ca922f-854c-5d41-8f18-cab7872fa5b8,目白,JR山手線,目白駅付近のトイレ,35.7212865,139.7068196,,,,始発〜終電,OSMデータ
4f27f1a1-cf97-5d83-be6d-d9f22876beb6,池袋,JR山手線,池袋駅付近のトイレ,35.7316989,139.7113138,,,,始発〜終電,OSMデータ
b88038b2-bd7e-51b0-9265-46263068adca,池袋,JR山手線,池袋駅付近のトイレ (-1階),35.7296265,139.7100045,,,,始発〜終電,OSMデータ
91d27467-9d3e-5c86-8c1d-5b1037ed6f3b,池袋,JR山手線,池袋駅付近のトイレ (-2階),35.7311162,139.7090217,,,,始発〜終電,OSMデータ
b9a728ed-73e1-569d-aed9-0e19947ffa76,池袋,JR山手線,池袋駅付近のトイレ,35.7300461,139.7092373,,○,,始発〜終電,OSMデータ
b34a4a6f-3a70-5ddc-922e-ac701724918c,池袋,JR山手線,池袋駅付近のトイレ,35.7304826,139.705526,○,,,始発〜終電,OSMデータ
16b1313a-953a-5224-a1b9-bc3cb27e3142,池袋,JR山手線,池袋駅付近のトイレ (-1階),35.7309078,139.7123174,,,,始発〜終電,OSMデータ
023d63e9-3f4f-59d8-884f-3fd325e480f1,池袋,JR山手線,池袋駅付近のトイレ (-1階),35.730751,139.7126037,,,,始発〜終電,OSMデータ
6a541157-aa20-5f82-bac1-e5746f0dda23,池袋,JR山手線,池袋駅付近のトイレ (-1階),35.7306149,139.7125346,,,,始発〜終電,OSMデータ
8bc29cb4-1d58-55bf-b542-91b33aba0c0d,池袋,JR山手線,池袋駅付近のトイレ (-1階),35.7310199,139.7127078,,,,始発〜終電,OSMデータ
53af699c-2036-5d87-a9f4-f0df9d50f6a4,池袋,JR山手線,池袋駅付近のトイレ (-1階),35.7310224,139.7126963,,,,始発〜終電,OSMデータ
9e64cc93-b112-5052-8ca7-879d49e53050,大塚,JR山手線,区立公衆便所,35.7359939,139.7356405,,,,始発〜終電,OSMデータ
4042de06-d85a-5ddd-be8a-b1c7a66ebd5f,大塚,JR山手線,大塚駅付近のトイレ,35.7361041,139.7354997,○,,,始発〜終電,OSMデータ
5d58c246-e91a-5b42-a1c2-116a7b939b01,大塚,JR山手線,大塚駅付近のトイレ,35.727814,139.7313777,,,,始発〜終電,OSMデータ
4958dd0a-420e-5b5f-b253-ff5a7d70646e,大塚,JR山手線,大塚駅付近のトイレ,35.7376303,139.7319319,,,,始発〜終電,OSMデータ
09822d9f-496e-5d82-96a8-6e4f7f53d2a2,大塚,JR山手線,大塚駅付近のトイレ,35.730247,139.7258508,,,,始発〜終電,OSMデータ
8ce906cc-6029-5143-994d-8f865ac21486,大塚,JR山手線,大塚駅付近のトイレ,35.7287991,139.7301126,,,,始発〜終電,OSMデータ
301aee51-b7f1-5df6-8a21-9732fe79dc12,大塚,JR山手線,大塚駅付近のトイレ,35.7331048,139.737278,,,,始発〜終電,OSMデータ
b22a7a61-f59a-5565-88f3-0d989da81395,大塚,JR山手線,大塚駅付近のトイレ,35.732467,139.7310844,,,,始発〜終電,OSMデータ
13ee1f4f-acf1-5869-8baf-9d6aef375e6e,大塚,JR山手線,大塚駅付近のトイレ,35.7354232,139.7359973,○,,,始発〜終電,OSMデータ
e0ec1f40-976e-5c7e-bd2a-5c819ecefc4f,大塚,JR山手線,大塚駅付近のトイレ,35.73178,139.72936,,,,始発〜終電,OSMデータ
8268f24b-04b1-5d2d-8dfc-2903e74e021d,巣鴨,JR山手線,巣鴨駅付近のトイレ,35.7298109,139.7458481,,,,始発〜終電,OSMデータ
19f52174-0c64-5c38-a79b-a1c1cf4a7719,巣鴨,JR山手線,巣鴨駅付近のトイレ,35.732057,139.7473403,,,,始発〜終電,OSMデータ
220425bb-3523-5c5f-8444-00c396c42019,巣鴨,JR山手線,巣鴨駅付近のトイレ,35.7350361,139.7425767,○,,,始発〜終電,OSMデータ
c6191d22-1544-5acf-9d82-98dd3a14b638,巣鴨,JR山手線,巣鴨駅付近のトイレ,35.7299203,139.738925,,,,始発〜終電,OSMデータ
630ca9ff-420d-5bf1-91d6-c45986977a72,巣鴨,JR山手線,巣鴨駅付近のトイレ (-1階),35.7305475,139.7473591,,,,始発〜終電,OSMデータ
2d010522-227a-5618-8320-33752e03353c,巣鴨,JR山手線,巣鴨駅付近のトイレ,35.7377903,139.7410714,,,,始発〜終電,OSMデータ
0c39b3c3-327a-5814-baef-96a887466bf8,巣鴨,JR山手線,巣鴨駅付近のトイレ (0階),35.7366822,139.7471297,,,,始発〜終電,OSMデータ
17e14c5c-b5da-529d-a7bd-f6816a9b9ddf,巣鴨,JR山手線,巣鴨駅付近のトイレ,35.7320875,139.7415679,,,,始発〜終電,OSMデータ
6a8c1708-8e20-51f9-ba68-726951829b5f,巣鴨,JR山手線,巣鴨駅付近のトイレ,35.7335773,139.7395473,,,,始発〜終電,OSMデータ
7846a729-82aa-5c9f-8863-2c77bfa9f560,巣鴨,JR山手線,巣鴨駅付近のトイレ,35.7328951,139.7452502,,,,始発〜終電,OSMデータ
11a6932e-fe14-5199-b661-944ccc02c16c,巣鴨,JR山手線,巣鴨駅付近のトイレ,35.7328312,139.7481835,,,,始発〜終電,OSMデータ
442b2cd1-145a-5cf1-b8e0-888122711323,巣鴨,JR山手線,巣鴨駅付近のトイレ,35.7348959,139.746724,,,,始発〜終電,OSMデータ
796beceb-ed40-5103-a5fa-75823066007b,巣鴨,JR山手線,巣鴨駅付近のトイレ,35.7384465,139.74177,,,,始発〜終電,OSMデータ
270ba0cb-134b-5081-b8b4-7ebe0546c7af,巣鴨,JR山手線,巣鴨駅前公衆便所,35.7330892,139.7393457,,,,始発〜終電,OSMデータ
9ebb14f2-0b2b-5d09-b339-5046f075d0d8,巣鴨,JR山手線,巣鴨駅付近のトイレ,35.7386215,139.7383853,,,,始発〜終電,OSMデータ
08d0e6c1-4777-596c-94b4-2f2a2a8c2292,駒込,JR山手線,駒込駅付近のトイレ,35.737535,139.747199,,,,始発〜終電,OSMデータ
45357906-7552-5160-90f1-4faf97c20053,駒込,JR山手線,駒込駅付近のトイレ,35.735506,139.7497305,,,,始発〜終電,OSMデータ
28cae988-3921-5422-a745-46e7ffadee13,駒込,JR山手線,駒込駅付近のトイレ,35.736831,139.7552873,,,,始発〜終電,OSMデータ
c463d9ec-27e5-5fc6-ac73-eacaed1d9099,駒込,JR山手線,駒込駅付近のトイレ (-2階),35.7373378,139.7490447,,,,始発〜終電,OSMデータ
57082abd-0dfa-507e-914d-0ef14278bfa4,駒込,JR山手線,駒込駅付近のトイレ,35.7400969,139.743444,,,,始発〜終電,OSMデータ
5f4b8e10-34e5-50a0-87fd-6eda2e15275f,駒込,JR山手線,駒込駅付近のトイレ (1階),35.7405523,139.7437179,,,,始発〜終電,OSMデータ
c10677a9-f90e-5a68-9024-df8e3a57709d,駒込,JR山手線,駒込駅付近のトイレ,35.7326742,139.7483504,○,,,始発〜終電,OSMデータ
c264717d-7ce5-5759-b0d5-f7644acb94ba,駒込,JR山手線,駒込駅付近のトイレ,35.7417872,139.7453695,,,,始発〜終電,OSMデータ
79894384-8f10-5426-9beb-8fc17cf9b367,駒込,JR山手線,駒込駅付近のトイレ,35.7428614,139.7468183,○,,,始発〜終電,OSMデータ
36197613-5710-5982-9197-2c4fe8248ec7,駒込,JR山手線,駒込駅付近のトイレ,35.7369835,139.7516153,,,,始発〜終電,OSMデータ
ec37d3d0-edac-59dc-9689-50edd357c93c,駒込,JR山手線,駒込駅付近のトイレ,35.7394178,139.7493178,,,,始発〜終電,OSMデータ
ce346edd-175f-5167-be88-074280a11e11,田端,JR山手線,田端駅付近のトイレ,35.7438323,139.7657734,,,,始発〜終電,OSMデータ
b6f3df65-9e25-5ec6-bec5-34d0ba9f9def,田端,JR山手線,田端駅付近のトイレ,35.7445921,139.7612062,,,,始発〜終電,OSMデータ
ab4fd81d-629d-5b00-b79c-fbe94669135f,田端,JR山手線,田端駅付近のトイレ,35.7403131,139.763234,○,,,始発〜終電,OSMデータ
7bfe3b97-5a50-55ab-882c-9560e7dd40c5,田端,JR山手線,田端駅付近のトイレ,35.742251,139.7603422,,,,始発〜終電,OSMデータ
84b9d8ca-9309-5314-b04c-4b287aac6fde,田端,JR山手線,田端駅付近のトイレ,35.7331632,139.7552346,,,,始発〜終電,OSMデータ
b73faa01-b49c-55ea-887a-a4b85e002ee1,田端,JR山手線,田端駅付近のトイレ,35.7418677,139.7667213,,,,始発〜終電,OSMデータ
64a6d37f-0b61-5ea7-8528-57e6f72853f4,田端,JR山手線,田端駅付近のトイレ,35.7446485,139.7597467,,,,始発〜終電,OSMデータ
30bc8cf9-34c5-516c-be5b-15c19ca2fdac,田端,JR山手線,田端駅付近のトイレ,35.7381315,139.7687538,,,,始発〜終電,OSMデータ
4aa0f812-d60d-5750-8be8-3ca66d5adcd9,田端,JR山手線,田端駅付近のトイレ,35.7348324,139.7640032,,,,始発〜終電,OSMデータ
3f63fb8c-ff4d-5237-8427-71f5614924bf,田端,JR山手線,田端駅付近のトイレ,35.7390186,139.7619922,,,,始発〜終電,OSMデータ
fcf1f802-8c37-543d-921c-e9366b0cc978,田端,JR山手線,田端駅付近のトイレ,35.7320023,139.7564061,,,,始発〜終電,OSMデータ
6ad94ef6-1638-5fe9-91b2-ea50b4acbe50,西日暮里,JR山手線,西日暮里駅付近のトイレ,35.7289,139.7707428,,,,始発〜終電,OSMデータ
a8f4b329-879e-5840-b603-72e5995c0b69,西日暮里,JR山手線,西日暮里駅付近のトイレ,35.7262612,139.7662139,,,,始発〜終電,OSMデータ
f93d5cb2-293e-5abd-a0d4-9f116a3d3368,西日暮里,JR山手線,西日暮里駅付近のトイレ,35.7313501,139.7666654,,,,始発〜終電,OSMデータ
55b1f0de-ad34-5efc-bff8-9d84beea014e,西日暮里,JR山手線,西日暮里駅付近のトイレ,35.7368054,139.7722044,,,,始発〜終電,OSMデータ
670552b5-db7a-5a05-9c7d-d356e95ea96a,西日暮里,JR山手線,西日暮里駅付近のトイレ,35.7324096,139.766732,,,,始発〜終電,OSMデータ
8bc4146b-ced6-55cd-9009-330181f27b89,西日暮里,JR山手線,諏訪台トイレ,35.7302012,139.7671947,,,,始発〜終電,OSMデータ
c81e89b2-d990-51b1-9a60-c51c7fbe4d32,西日暮里,JR山手線,西日暮里駅付近のトイレ (1階),35.7285704,139.7708025,,○,,始発〜終電,OSMデータ
db0a2d5b-7f01-542c-b32f-ea3a819b8a35,西日暮里,JR山手線,西日暮里駅付近のトイレ,35.7267001,139.7657864,,,,始発〜終電,OSMデータ
0960ad3d-164a-5638-bfd2-fd38cd7bdbff,西日暮里,JR山手線,西日暮里駅付近のトイレ,35.7261261,139.7625754,○,,,始発〜終電,OSMデータ
25474980-aa95-5c4a-a935-3390980c6860,西日暮里,JR山手線,西日暮里駅付近のトイレ,35.7280584,139.7700737,,,,始発〜終電,OSMデータ
82351867-ef2d-5e4f-b8c0-e2cb0f4e72d2,西日暮里,JR山手線,西日暮里駅付近のトイレ,35.726282,139.7713232,,,,始発〜終電,OSMデータ
c607a3be-e53a-56b5-b6fd-8bcb5d80ab8a,西日暮里,JR山手線,西日暮里駅付近のトイレ,35.7327279,139.7743668,,,,始発〜終電,OSMデータ
e107cc4f-8bf6-51c8-9ee2-d47407f55993,日暮里,JR山手線,寛永寺前公衆トイレ,35.7223874,139.7738145,,,,始発〜終電,OSMデータ
64b9be0a-cca1-59c2-aa5e-08c0e3e209a8,日暮里,JR山手線,日暮里駅付近のトイレ,35.7338896,139.7760098,,,,始発〜終電,OSMデータ
a032ab1c-7f71-5a9e-a287-f57bec5a6bb6,日暮里,JR山手線,日暮里駅付近のトイレ,35.7240891,139.7704495,,,,始発〜終電,OSMデータ
45b33e37-4a55-5c8f-a928-030ec8ad6452,日暮里,JR山手線,谷中墓地入口 公衆トイレ,35.7229349,139.770246,,,,始発〜終電,OSMデータ
4786dfa3-b630-5f0e-93b2-cfb8c44a3221,日暮里,JR山手線,日暮里駅付近のトイレ,35.7265526,139.7773298,,,,始発〜終電,OSMデータ
29cae5df-fded-5d97-aade-bb43620ad33d,日暮里,JR山手線,日暮里駅付近のトイレ,35.7251342,139.7708553,,,,始発〜終電,OSMデータ
83655406-21b4-584f-b4a8-4e5bc47ac5e1,鶯谷,JR山手線,鶯谷駅付近のトイレ,35.7172591,139.7744461,○,,,始発〜終電,OSMデータ
645a31b1-701e-5b9a-af09-a82ace33f130,鶯谷,JR山手線,鶯谷駅付近のトイレ,35.7161866,139.7737445,○,,,始発〜終電,OSMデータ
e2a84f7e-ec0c-5fac-9c92-f37354913b69,鶯谷,JR山手線,鶯谷駅付近のトイレ,35.718342,139.773216,,,,始発〜終電,OSMデータ
ee0aed9d-343f-5c2b-a9a4-df415b6edad3,鶯谷,JR山手線,鶯谷駅付近のトイレ,35.7190741,139.77514,,,,始発〜終電,OSMデータ
4e554c83-c8a7-5e4c-b326-1aec393c20a5,鶯谷,JR山手線,鶯谷駅付近のトイレ,35.7211112,139.7877101,,,,始発〜終電,OSMデータ
4d98b1ff-be34-51e9-b45d-ffa57a1a8bf5,鶯谷,JR山手線,鶯谷駅付近のトイレ,35.7202847,139.776544,,,,始発〜終電,OSMデータ
44841875-b574-522a-93a2-4bc44238e2f7,鶯谷,JR山手線,鶯谷駅付近のトイレ,35.7161215,139.7778918,,,,始発〜終電,OSMデータ
55968f65-e58d-5b2e-9049-5f279dfc502b,鶯谷,JR山手線,鶯谷駅付近のトイレ,35.7158231,139.7725063,,,,始発〜終電,OSMデータ
62e8c083-dac1-5f20-9521-6a4382467312,鶯谷,JR山手線,鶯谷駅付近のトイレ,35.724106,139.7860186,,,,始発〜終電,OSMデータ
491fc8cc-6785-500b-9ef7-48f257c90e6e,鶯谷,JR山手線,鶯谷駅付近のトイレ,35.7205137,139.778791,,,,始発〜終電,OSMデータ
b8c0b3d4-e0f9-5c06-8f3e-13d62d3f3467,鶯谷,JR山手線,鶯谷駅付近のトイレ,35.7136298,139.7759152,,,,始発〜終電,OSMデータ
883f3f0f-850f-5888-a098-ac7bfcddb285,鶯谷,JR山手線,鶯谷駅付近のトイレ,35.7175451,139.776007,○,,,始発〜終電,OSMデータ
308207de-c8c7-5687-bebe-42e7f6931462,鶯谷,JR山手線,北上野一丁目 公衆トイレ,35.7189843,139.7836028,,,,始発〜終電,OSMデータ
92a3923c-21d4-56c4-b052-e0a26d270f4f,鶯谷,JR山手線,鶯谷駅付近のトイレ,35.7187438,139.7743251,,,,始発〜終電,OSMデータ
a2025765-ba84-5e32-823e-15494aa425e2,鶯谷,JR山手線,鶯谷駅付近のトイレ,35.7150826,139.7741847,○,○,,始発〜終電,OSMデータ
cb1b17d8-dc1f-5066-adb6-ae725952e3b5,鶯谷,JR山手線,鶯谷駅付近のトイレ,35.7149342,139.7748887,○,○,,始発〜終電,OSMデータ
698531ac-8a11-5c38-8958-c54c084dd437,鶯谷,JR山手線,鶯谷駅付近のトイレ (3階),35.7144067,139.7766231,,,,始発〜終電,OSMデータ
914b76b6-b719-5977-8ded-c10dff5dc13d,鶯谷,JR山手線,鶯谷駅付近のトイレ,35.7168789,139.7721259,,,,始発〜終電,OSMデータ
776e5c3a-6513-50c7-8c7a-59923a8a4839,鶯谷,JR山手線,鶯谷駅付近のトイレ,35.7167829,139.7720981,,,,始発〜終電,OSMデータ
bcf80ea7-5dd7-5d5a-bb88-d81ca6210d7a,鶯谷,JR山手線,鶯谷駅付近のトイレ,35.7161055,139.7750808,○,,,始発〜終電,OSMデータ
0e317790-ec4e-5a8e-885f-a6a61a408453,鶯谷,JR山手線,鶯谷駅付近のトイレ,35.7171559,139.7712394,○,○,,始発〜終電,OSMデータ
e5fb6263-8dde-5afe-bc3d-9319473c82bd,鶯谷,JR山手線,鶯谷駅付近のトイレ,35.7234431,139.7786123,,,,始発〜終電,OSMデータ
f0e7933a-bf42-5435-88fe-5ca27010dd26,鶯谷,JR山手線,鶯谷駅付近のトイレ,35.7212144,139.77949,,,,始発〜終電,OSMデータ
d2d478aa-9df1-5e98-812f-e6ee32ade054,鶯谷,JR山手線,鶯谷駅付近のトイレ,35.7170399,139.7855986,○,,,始発〜終電,OSMデータ
5f7ee084-a1c0-51fd-9494-058d88ee6dc5,上野,JR山手線,上野駅付近のトイレ,35.7120431,139.773704,○,,,始発〜終電,OSMデータ
2ec3a7c1-2908-5c86-bbe5-ca93cdd277ab,上野,JR山手線,上野駅付近のトイレ,35.7144121,139.7737452,○,○,,始発〜終電,OSMデータ
e0075c0d-c27c-58a5-9bfa-630a063e9ff0,上野,JR山手線,上野駅付近のトイレ,35.709653,139.77092,,,,始発〜終電,OSMデータ
bee016ac-2c0e-586c-873e-eca267034336,上野,JR山手線,上野駅付近のトイレ,35.709748,139.770343,,,,始発〜終電,OSMデータ
3e070c50-ea46-589e-8c79-9c733bc158ca,上野,JR山手線,上野駅付近のトイレ,35.712453,139.782223,,,,始発〜終電,OSMデータ
d4748cd0-3310-5432-92a1-38a005c11ef1,上野,JR山手線,西郷銅像下公衆トイレ,35.7109761,139.7738619,○,,,始発〜終電,OSMデータ
8ee2cda7-b73e-50fd-abc6-78ed3de0fcac,上野,JR山手線,上野駅付近のトイレ,35.7128698,139.776515,,,,始発〜終電,OSMデータ
d9a7922e-a7d7-5725-9cba-d9cf827e7a13,上野,JR山手線,上野駅付近のトイレ,35.7154969,139.7724556,,,,始発〜終電,OSMデータ
1d36a247-06cf-55e7-83fb-a27253015d3f,上野,JR山手線,上野駅付近のトイレ,35.7142069,139.7698044,,,,始発〜終電,OSMデータ
cbcb4b4f-1dd8-55f8-93b7-742a3d451b2e,上野,JR山手線,上野駅付近のトイレ,35.7157362,139.7701836,,,,始発〜終電,OSMデータ
84f77771-5839-5c1c-b0a0-ac802851c2c6,上野,JR山手線,上野駅付近のトイレ,35.7179894,139.7702784,○,○,,始発〜終電,OSMデータ
e7a9a075-640b-5977-840d-ab6991215bfc,上野,JR山手線,上野駅付近のトイレ,35.7140299,139.7712693,,,,始発〜終電,OSMデータ
3ed8e300-22a2-510d-b6e6-1f2ac091db31,上野,JR山手線,上野駅付近のトイレ,35.7144972,139.7688419,○,○,,始発〜終電,OSMデータ
b50fa9da-87f1-51f6-be0e-d27397a1f3ed,上野,JR山手線,上野駅付近のトイレ,35.7130941,139.7721239,,,,始発〜終電,OSMデータ
e1e553ba-31bd-5f87-a519-2457077239e1,上野,JR山手線,上野駅付近のトイレ (-1階),35.7112985,139.7825664,○,○,,始発〜終電,OSMデータ
f77d84ea-089f-582e-ad41-cc0d96343a0d,上野,JR山手線,上野駅付近のトイレ (-1階),35.7077711,139.7729984,,,,始発〜終電,OSMデータ
e4813f3a-7651-59bd-88fc-374aa03a13d3,上野,JR山手線,上野駅付近のトイレ,35.711886,139.7762665,,,,始発〜終電,OSMデータ
40d67d6b-b1b0-565a-b4f9-1daf66deea84,上野,JR山手線,上野駅付近のトイレ (-1階),35.7115553,139.7772361,,,,始発〜終電,OSMデータ
b64f0f8a-d402-5c79-b74e-2c4b49546af3,上野,JR山手線,上野駅付近のトイレ (-1階),35.7114643,139.7771119,,,,始発〜終電,OSMデータ
f1fee373-da67-5553-af90-d7624660c1e1,上野,JR山手線,上野駅付近のトイレ (-1階),35.7115134,139.7771753,,○,,始発〜終電,OSMデータ
1c288464-174a-5751-9acf-6ff74b9b125d,上野,JR山手線,上野駅付近のトイレ (0階),35.711028,139.7736849,○,○,,始発〜終電,OSMデータ
57b090d2-81cf-565f-b88c-23ace3438634,上野,JR山手線,上野駅付近のトイレ (0階),35.7112229,139.7735602,,○,,始発〜終電,OSMデータ
3eb55f44-e034-5396-992e-55b1c08300c9,上野,JR山手線,上野駅付近のトイレ (-1階),35.7126203,139.7766789,○,,,始発〜終電,OSMデータ
5167760e-feac-536f-a478-f15b3e32fccf,上野,JR山手線,上野駅付近のトイレ,35.7120795,139.7727882,,,,始発〜終電,OSMデータ
6fee0d3f-f402-57a6-adde-664657fb8035,上野,JR山手線,上野駅付近のトイレ,35.709922,139.7722538,○,,,始発〜終電,OSMデータ
b257b53f-9b12-5923-b30b-a5cdc9c911a1,上野,JR山手線,上野駅付近のトイレ,35.7130851,139.7687633,,,,始発〜終電,OSMデータ
98750261-aa44-5a53-b56f-93e62e6a43bf,上野,JR山手線,上野駅付近のトイレ,35.713925,139.768481,○,○,,始発〜終電,OSMデータ
b83cc387-4048-5e00-98fc-1da5acc8d11a,上野,JR山手線,上野駅付近のトイレ,35.7091608,139.7798623,○,,,始発〜終電,OSMデータ
3016bc64-5370-5c60-b6a3-1ff4fe3891d1,上野,JR山手線,上野駅付近のトイレ (1階),35.7130983,139.7760018,,,,始発〜終電,OSMデータ
62a9fbd9-ee19-58b0-9803-dd2137d6a5d5,上野,JR山手線,上野駅付近のトイレ,35.7139861,139.7713838,,,,始発〜終電,OSMデータ
ac8ad70b-9b0e-56b8-86eb-0221ee33a71f,上野,JR山手線,上野駅付近のトイレ,35.7155632,139.7701378,○,○,,始発〜終電,OSMデータ
4d7d4607-902c-5dcc-98c2-d91a7663ce7a,御徒町,JR山手線,御徒町駅付近のトイレ,35.7069587,139.7665751,,○,,始発〜終電,OSMデータ
4dfdffe4-4fdb-5b5e-a16e-d6d7f22fb7cc,御徒町,JR山手線,御徒町駅付近のトイレ,35.7038134,139.7740682,,,,始発〜終電,OSMデータ
db174adf-5dd8-58a2-812b-10cc6999fa2c,御徒町,JR山手線,御徒町駅付近のトイレ,35.7071288,139.7681938,○,,,始発〜終電,OSMデータ
ae81bd2b-de06-5549-8d10-51c30f2235dd,御徒町,JR山手線,御徒町駅付近のトイレ (-1階),35.7058507,139.7700079,,,,始発〜終電,OSMデータ
830dd093-0d2e-5eb6-a8bd-46aa2efe381a,御徒町,JR山手線,御徒町駅付近のトイレ,35.7084724,139.7698191,○,,,始発〜終電,OSMデータ
6abe0881-3405-5164-baeb-c9893cab55e7,御徒町,JR山手線,御徒町駅付近のトイレ,35.7033047,139.773969,,,,始発〜終電,OSMデータ
708472e6-547e-5ca9-a24e-e90c0232ac12,御徒町,JR山手線,御徒町駅付近のトイレ,35.7038753,139.7742698,,,,始発〜終電,OSMデータ
58f090db-45f5-54ad-8490-f7527d106fe9,御徒町,JR山手線,御徒町駅付近のトイレ,35.7101262,139.7669902,,,,始発〜終電,OSMデータ
92677639-d02c-5c68-959c-49dc191077aa,御徒町,JR山手線,御徒町駅付近のトイレ,35.7066195,139.7721994,○,○,,始発〜終電,OSMデータ
b21e1ede-bf09-553b-b991-62e126f557ad,御徒町,JR山手線,御徒町駅付近のトイレ (1階),35.7009355,139.7727278,○,○,,始発〜終電,OSMデータ
11cf96b3-1163-56ad-ae86-fffb0b7e333f,御徒町,JR山手線,御徒町駅付近のトイレ (0階),35.7000589,139.7726048,○,,,始発〜終電,OSMデータ
3e0fe781-d0a5-53f7-af04-5a0b92dce908,御徒町,JR山手線,御徒町駅付近のトイレ (0階),35.7003094,139.7732795,,○,,始発〜終電,OSMデータ
7627ddbe-38b2-5637-8d1f-a38aaae8d3a2,御徒町,JR山手線,御徒町駅付近のトイレ,35.703734,139.7709865,○,,,始発〜終電,OSMデータ
50ed5306-f44a-521c-8cef-4193e5359a47,御徒町,JR山手線,御徒町駅付近のトイレ,35.7092733,139.7691812,,,,始発〜終電,OSMデータ
f6a21d57-82ff-50f7-9698-8684fd2d9099,御徒町,JR山手線,御徒町駅付近のトイレ,35.7018987,139.7697493,○,,,始発〜終電,OSMデータ
d14d5b39-6e9d-5ece-a565-842c15abb059,御徒町,JR山手線,御徒町駅付近のトイレ,35.7066203,139.772245,○,○,,始発〜終電,OSMデータ
282e33fe-c7b5-5a88-8011-7f9a9e2e3d80,御徒町,JR山手線,御徒町駅付近のトイレ,35.7068594,139.7665937,○,○,,始発〜終電,OSMデータ
248e79dc-7e7a-5327-b416-87ec7c9aae8d,御徒町,JR山手線,御徒町駅付近のトイレ,35.7072051,139.7694008,,,,始発〜終電,OSMデータ
e31c1167-bf4e-5db9-b448-119d62807066,御徒町,JR山手線,御徒町駅付近のトイレ,35.7062346,139.7778611,○,,,始発〜終電,OSMデータ
647ecc6b-e549-5754-8fbe-7bea279c78a1,御徒町,JR山手線,御徒町駅付近のトイレ,35.7055767,139.7804545,○,,,始発〜終電,OSMデータ
48e58115-9cbe-597e-97d6-a6a8f6a233dc,御徒町,JR山手線,台東一丁目公衆トイレ,35.7007121,139.7770823,,,,始発〜終電,OSMデータ
ea384faf-84dc-5608-8b4f-b88f1bc761ee,秋葉原,JR山手線,秋葉原駅付近のトイレ,35.6965257,139.7798467,○,,,始発〜終電,OSMデータ
9b501aef-f3ca-590e-a294-e4a414254673,秋葉原,JR山手線,秋葉原駅付近のトイレ,35.6932171,139.7797262,,,,始発〜終電,OSMデータ
b8cb05ed-913f-5d03-b3bf-8a80b17d5284,秋葉原,JR山手線,秋葉原駅付近のトイレ,35.6964059,139.7828383,○,,,始発〜終電,OSMデータ
38c3fad1-83b4-561e-94f4-cbad7d717e66,秋葉原,JR山手線,秋葉原駅付近のトイレ,35.6980831,139.7689209,,,,始発〜終電,OSMデータ
3e75272f-221a-57f6-aae2-fdb045dcd628,秋葉原,JR山手線,オアシスakiba,35.6985679,139.7735701,○,,,始発〜終電,OSMデータ
ad626da8-3d2c-5254-be8d-60cee35f8460,秋葉原,JR山手線,秋葉原駅付近のトイレ,35.6911376,139.777744,,,,始発〜終電,OSMデータ
eb64cbcc-e3b2-5266-a9f9-c7f0e937ecd4,秋葉原,JR山手線,秋葉原駅付近のトイレ,35.6908685,139.774847,,,,始発〜終電,OSMデータ
88fa9120-4d10-517c-9b27-579eda40ad6a,秋葉原,JR山手線,秋葉原駅付近のトイレ,35.700402,139.767326,,,,始発〜終電,OSMデータ
c3ea965a-2e68-5a4c-afe3-b23e3c777396,秋葉原,JR山手線,秋葉原駅付近のトイレ,35.6971484,139.772828,,,,始発〜終電,OSMデータ
0342dbe4-5577-59eb-80ee-af8139ca1830,秋葉原,JR山手線,秋葉原駅付近のトイレ,35.6974476,139.7669106,,,,始発〜終電,OSMデータ
1992c4f4-199f-5f89-af7b-40d76a2f495f,秋葉原,JR山手線,秋葉原駅付近のトイレ,35.6976303,139.7676627,,,,始発〜終電,OSMデータ
7c1c9162-cfed-5f87-819b-c019d278df77,秋葉原,JR山手線,秋葉原駅付近のトイレ,35.6974257,139.7697172,,,,始発〜終電,OSMデータ
229ec4e2-68b9-5412-baa0-4bd9c5565a81,秋葉原,JR山手線,秋葉原駅付近のトイレ,35.6954035,139.7674149,,,,始発〜終電,OSMデータ
e004bad2-3e62-58b4-8929-566c15e46077,秋葉原,JR山手線,秋葉原駅付近のトイレ (-1階),35.6975798,139.7754852,,,,始発〜終電,OSMデータ
ee62312f-f0f5-5d3c-badd-2f7af6faf006,秋葉原,JR山手線,秋葉原駅付近のトイレ,35.6971991,139.7699716,,,,始発〜終電,OSMデータ
515bceb5-963c-575c-998e-0bf985c3273f,秋葉原,JR山手線,秋葉原駅付近のトイレ (1階),35.6979763,139.7737982,,,,始発〜終電,OSMデータ
2d643d31-cc84-56bd-a865-80d4fc7f3ec2,秋葉原,JR山手線,秋葉原駅付近のトイレ,35.6983286,139.7719985,,,,始発〜終電,OSMデータ
26bb2aa6-54f3-57aa-9c6b-1ad2f0fbfe4a,秋葉原,JR山手線,秋葉原駅付近のトイレ,35.698338,139.7720001,,,,始発〜終電,OSMデータ
4de0326c-474b-5dd9-bc9f-b1a21d66347b,秋葉原,JR山手線,秋葉原駅付近のトイレ,35.6984837,139.7726991,,,,始発〜終電,OSMデータ
c6b8876f-cf4d-5abe-a194-e1d9dd268d6b,秋葉原,JR山手線,秋葉原駅付近のトイレ,35.6984782,139.7727653,,,,始発〜終電,OSMデータ
7f2b9839-e4fb-5d2b-ae9c-0bc1720c7952,秋葉原,JR山手線,秋葉原駅付近のトイレ,35.6984312,139.773285,,,,始発〜終電,OSMデータ
9f8fdcb2-8281-59db-8afd-597849f41941,秋葉原,JR山手線,秋葉原駅付近のトイレ,35.6988151,139.7743416,,,,始発〜終電,OSMデータ
546e772e-5b58-5db7-a303-f916f4935f00,秋葉原,JR山手線,秋葉原駅付近のトイレ,35.6982542,139.7744472,,,,始発〜終電,OSMデータ
606ba7c8-8a1a-5067-8792-4ea0372f7a68,秋葉原,JR山手線,秋葉原駅付近のトイレ,35.6923182,139.7709825,,,,始発〜終電,OSMデータ
88d989a4-10f0-5d1f-af27-e5a8beed5ed0,秋葉原,JR山手線,秋葉原駅付近のトイレ,35.6923132,139.7709774,,,,始発〜終電,OSMデータ
97a77247-f0fc-5cbe-a3c2-805f17ada035,秋葉原,JR山手線,秋葉原駅付近のトイレ,35.6922965,139.7709676,,,,始発〜終電,OSMデータ
f57fabea-91a4-5fce-a74b-5f1b433eb7a1,秋葉原,JR山手線,秋葉原駅付近のトイレ,35.6918792,139.7707776,,,,始発〜終電,OSMデータ
040ad241-2acd-5aa2-8ceb-ba14aae92845,秋葉原,JR山手線,秋葉原駅付近のトイレ,35.6968837,139.7711951,,,,始発〜終電,OSMデータ
66f24b72-344b-5839-8a83-90217d34c060,秋葉原,JR山手線,和泉橋公衆便所,35.6972023,139.7751558,,,,始発〜終電,OSMデータ
2db0f36d-33ec-5041-b597-cc81ad98dde7,秋葉原,JR山手線,秋葉原駅付近のトイレ,35.6997146,139.7831183,○,,,始発〜終電,OSMデータ
88bd89d7-697e-5517-993d-15d8cf4ad29b,秋葉原,JR山手線,秋葉原駅付近のトイレ,35.6988173,139.7790945,,,,始発〜終電,OSMデータ
0a94f736-a7b0-552d-bbfa-370457999dc1,秋葉原,JR山手線,秋葉原駅付近のトイレ,35.6988364,139.7790225,○,○,,始発〜終電,OSMデータ
cb52ae90-b9cb-584b-b986-74ea8ab624e9,秋葉原,JR山手線,秋葉原駅付近のトイレ,35.6976448,139.7794923,○,,,始発〜終電,OSMデータ
5156f400-c956-59be-88de-490b583f70b3,秋葉原,JR山手線,和泉橋公衆便所,35.6972549,139.775191,,,,始発〜終電,OSMデータ
2657131e-d19e-5e2e-a4cc-c62a4c6d987a,神田,JR山手線,神田駅付近のトイレ,35.6951886,139.7625686,○,○,,始発〜終電,OSMデータ
dde1fac5-6350-507a-8c06-e5f1c2fdc69a,神田,JR山手線,神田駅付近のトイレ,35.6897478,139.7640606,,,,始発〜終電,OSMデータ
4da6e56e-449b-5aad-8b74-8f64eb9b70fa,神田,JR山手線,神田駅付近のトイレ (-1階),35.6946593,139.7656255,,,,始発〜終電,OSMデータ
f4c1c094-5213-55bf-9961-5ba08af928dd,神田,JR山手線,神田駅付近のトイレ (-1階),35.6945421,139.7675158,,,,始発〜終電,OSMデータ
14cf987d-ffe4-5d6d-bc2e-5b2e5a9a7aca,神田,JR山手線,神田駅付近のトイレ (-2階),35.6947979,139.7658809,,,,始発〜終電,OSMデータ
074dad26-30b8-5bca-b6ce-abceb0379ab1,神田,JR山手線,神田駅付近のトイレ,35.6996156,139.7645613,,○,,始発〜終電,OSMデータ
915e3411-93a0-59c8-936a-efe18a9636be,神田,JR山手線,神田駅付近のトイレ (-1階),35.6991123,139.7651656,,,,始発〜終電,OSMデータ
5a75b648-3810-5ebf-884d-7d028a9e0d93,神田,JR山手線,神田駅付近のトイレ,35.6876124,139.7723802,,,,始発〜終電,OSMデータ
b9f01761-2d5c-5d90-8bac-344e5846a466,神田,JR山手線,神田駅付近のトイレ,35.6876625,139.7723578,,,,始発〜終電,OSMデータ
cbc045e7-efad-58a4-b3bd-f9f89d8ce4e4,神田,JR山手線,神田駅付近のトイレ,35.6901774,139.7660375,○,○,,始発〜終電,OSMデータ
38afaea3-a0dd-51d5-aaac-e21d5ce6833a,神田,JR山手線,神田駅付近のトイレ,35.6930633,139.7680584,,,,始発〜終電,OSMデータ
337d8605-698b-5b99-972b-3defdf39d2bf,御茶ノ水,JR中央線,御茶ノ水駅付近のトイレ,35.7007764,139.7631354,,,,始発〜終電,OSMデータ
21c8b860-bf04-5ca0-9473-fde9fd7bf434,御茶ノ水,JR中央線,御茶ノ水駅付近のトイレ (-1階),35.6959286,139.7580016,,,,始発〜終電,OSMデータ
c57b7979-4454-5931-81ac-88c7919f42e3,御茶ノ水,JR中央線,御茶ノ水駅付近のトイレ (0階),35.7065938,139.76003,,,,始発〜終電,OSMデータ
2c3ca9dc-1a76-5b13-8303-be674b2215cd,御茶ノ水,JR中央線,御茶ノ水駅付近のトイレ,35.7019142,139.7671921,,,,始発〜終電,OSMデータ
ef314d3f-1053-5bdb-be42-6984cff71d2c,御茶ノ水,JR中央線,御茶ノ水駅付近のトイレ,35.70299,139.7595326,○,,,始発〜終電,OSMデータ
45c1b08f-84c2-5b23-b9d6-aa5f1a387e20,御茶ノ水,JR中央線,御茶ノ水駅付近のトイレ,35.7023256,139.7671179,,,,始発〜終電,OSMデータ
ab6eedc1-83ce-5480-b13e-5f35a57c77ff,御茶ノ水,JR中央線,文京区お茶の水公園便所,35.7008513,139.766028,○,○,,始発〜終電,OSMデータ
8637d33d-00d6-5530-972b-21ce5c07ae46,御茶ノ水,JR中央線,御茶ノ水駅付近のトイレ,35.6975576,139.7607139,,,,始発〜終電,OSMデータ
1f9d1396-434b-5ffe-b896-20399346f19a,御茶ノ水,JR中央線,御茶ノ水駅付近のトイレ,35.7022658,139.7582706,,,,始発〜終電,OSMデータ
28b36889-877f-50b1-b8b7-04afb93cd318,水道橋,JR中央線,水道橋駅付近のトイレ,35.7051994,139.7507687,,,,始発〜終電,OSMデータ
44c60b9a-ad33-5047-828d-c3613d2bff8d,水道橋,JR中央線,水道橋駅付近のトイレ,35.7065415,139.7514334,,,,始発〜終電,OSMデータ
b5764da1-6a48-5520-9dfa-d6033c415c32,水道橋,JR中央線,水道橋駅付近のトイレ,35.6987992,139.7479684,,,,始発〜終電,OSMデータ
9bdd482a-550a-5f49-8d43-07a55b77257d,水道橋,JR中央線,水道橋駅付近のトイレ,35.7068565,139.7488559,,,,始発〜終電,OSMデータ
b38ff9a1-45cc-5da2-acca-54c804905630,水道橋,JR中央線,水道橋駅付近のトイレ,35.7081465,139.751626,,,,始発〜終電,OSMデータ
b14692ed-1ab9-5fc6-9757-07e75c8eee27,水道橋,JR中央線,水道橋駅付近のトイレ,35.698571,139.755141,,,,始発〜終電,OSMデータ
0939722b-025a-5bfe-ac20-75944c1a5dbf,水道橋,JR中央線,水道橋駅付近のトイレ,35.7027622,139.7517234,,,,始発〜終電,OSMデータ
5614a0d1-27ed-5a65-b27c-cdc352e865fd,水道橋,JR中央線,水道橋駅付近のトイレ,35.70447,139.752703,,,,始発〜終電,OSMデータ
eb316782-0dd4-5d6b-85c7-adc907fb8be2,水道橋,JR中央線,水道橋駅付近のトイレ,35.7047249,139.7530602,,,,始発〜終電,OSMデータ
53aa666a-a121-5b2c-9a5c-e724f5a680e1,水道橋,JR中央線,水道橋駅付近のトイレ,35.7047912,139.7534422,,,,始発〜終電,OSMデータ
d295b0d7-03c7-5a4e-97af-7ca09b0e8720,水道橋,JR中央線,水道橋駅付近のトイレ (-1階),35.7077128,139.7518055,○,○,,始発〜終電,OSMデータ
62e1a196-c6e0-5855-a17e-f52546f74243,水道橋,JR中央線,水道橋駅付近のトイレ,35.7073848,139.7514192,○,○,,始発〜終電,OSMデータ
9ef1ae04-5106-5ffa-89c4-9264a07da12e,水道橋,JR中央線,水道橋駅付近のトイレ,35.7085242,139.7522513,○,○,,始発〜終電,OSMデータ
07795736-a7a6-547a-9470-846fdfa7153a,水道橋,JR中央線,水道橋駅付近のトイレ,35.7079391,139.7552594,○,○,,始発〜終電,OSMデータ
925bee59-29f6-5195-bfce-f52a56cd6b21,水道橋,JR中央線,水道橋駅付近のトイレ,35.7020609,139.7505798,,,,始発〜終電,OSMデータ
8d115bc6-dcae-5c54-8f15-0f1c60e6064e,水道橋,JR中央線,水道橋駅付近のトイレ (2階),35.7072205,139.7513026,,,,始発〜終電,OSMデータ
e975c6fd-01b6-53e7-85ee-de812cb47e51,水道橋,JR中央線,水道橋駅付近のトイレ (0階),35.7063487,139.7535398,,,,始発〜終電,OSMデータ
affefa8d-f661-5714-bc26-dee51101443f,水道橋,JR中央線,水道橋駅付近のトイレ (1階),35.7070243,139.7531171,,,,始発〜終電,OSMデータ
4c682be9-d1bc-5f89-a24a-910802c04c87,水道橋,JR中央線,水道橋駅付近のトイレ (3階),35.7072371,139.7513305,,,,始発〜終電,OSMデータ
300ae673-8ec9-57f3-99d4-9e75a0dbd464,水道橋,JR中央線,Exit 5 Station Toilet Without Gate (-2階),35.6955993,139.7519247,,,,始発〜終電,OSMデータ
4ad90d87-0776-5a4b-a3e1-a80bacdb7838,水道橋,JR中央線,水道橋駅付近のトイレ,35.704791,139.751438,,,,始発〜終電,OSMデータ
2dbd9fe7-0390-5ba1-a0df-40f9b8ccb4ac,水道橋,JR中央線,水道橋駅付近のトイレ,35.7020107,139.7510038,,,,始発〜終電,OSMデータ
a6cd91e5-fb9f-5fed-9591-bb3b7e2810d8,水道橋,JR中央線,水道橋駅付近のトイレ,35.6977921,139.752107,,,,始発〜終電,OSMデータ
0accbb12-9680-590f-835e-679925553197,水道橋,JR中央線,水道橋駅付近のトイレ,35.7061026,139.7485409,○,○,,始発〜終電,OSMデータ
931671b6-ecdc-5b61-a1d3-ae044627e064,水道橋,JR中央線,水道橋駅付近のトイレ,35.7045999,139.7488498,,,,始発〜終電,OSMデータ
cb72e86a-b2d4-5e36-b92c-2eac4d8cf6df,水道橋,JR中央線,水道橋駅付近のトイレ,35.6969355,139.7564242,,,,始発〜終電,OSMデータ
4728bd55-d299-576f-9be9-29bb856ce24a,水道橋,JR中央線,水道橋駅付近のトイレ,35.7039733,139.7511169,○,,,始発〜終電,OSMデータ
8c9577ef-25d9-52c7-88de-c86d11137be1,水道橋,JR中央線,水道橋駅付近のトイレ,35.7067844,139.7489019,○,,,始発〜終電,OSMデータ
9c34ea2c-b10e-5dcb-af9a-dca401d89636,飯田橋,JR中央線,飯田橋駅付近のトイレ,35.6946004,139.7466086,,,,始発〜終電,OSMデータ
388c4940-d9e1-56b2-bd1f-7e96a30bdb4b,飯田橋,JR中央線,飯田橋駅付近のトイレ,35.6947641,139.7452776,,,,始発〜終電,OSMデータ
2c1e11b5-5e02-5d7f-abde-8d93f3dfacec,飯田橋,JR中央線,飯田橋駅付近のトイレ,35.6996391,139.7436573,○,,,始発〜終電,OSMデータ
6b887f47-b67c-51e4-a6a5-e24c9e6b29e3,飯田橋,JR中央線,飯田橋駅付近のトイレ,35.7001899,139.7427286,,,,始発〜終電,OSMデータ
03c07246-ef8f-50ce-ab48-f829d5dd0bac,飯田橋,JR中央線,飯田橋駅付近のトイレ,35.6946128,139.7481662,,,,始発〜終電,OSMデータ
fc91388d-7b1a-51f1-b646-90264e93cfe3,飯田橋,JR中央線,飯田橋駅付近のトイレ,35.6965711,139.7411716,,,,始発〜終電,OSMデータ
efa631c9-be29-56b7-924a-13c2e579fb56,飯田橋,JR中央線,飯田橋駅付近のトイレ,35.7031407,139.7452715,,,,始発〜終電,OSMデータ
0d108885-f34e-59ec-9bec-d9cdb3ecac51,飯田橋,JR中央線,飯田橋駅付近のトイレ,35.7047993,139.7421676,○,○,,始発〜終電,OSMデータ
b9c25a03-572f-5df4-a363-4018ec14d114,飯田橋,JR中央線,飯田橋駅付近のトイレ (0階),35.7013251,139.7441768,,,,始発〜終電,OSMデータ
b630f591-e871-52a3-984c-1dc1fa4f1fcf,飯田橋,JR中央線,飯田橋駅付近のトイレ,35.7011031,139.7439656,,○,,始発〜終電,OSMデータ
9bfbc5e8-aee6-5171-a458-92e86f720bba,飯田橋,JR中央線,飯田橋駅付近のトイレ,35.7023964,139.7456172,,○,,始発〜終電,OSMデータ
261f0380-7aa8-5c2f-88fc-75a68c2bba38,飯田橋,JR中央線,飯田橋駅付近のトイレ (-2階),35.6954655,139.7510008,,,,始発〜終電,OSMデータ
c03afa8b-be65-532f-b7c5-0d775f834760,飯田橋,JR中央線,飯田橋駅付近のトイレ (-1階),35.7009443,139.743372,○,○,,始発〜終電,OSMデータ
10dd8e9b-1ca2-5066-8b5c-3a4b9f4958ae,飯田橋,JR中央線,飯田橋駅付近のトイレ (-1階),35.7027462,139.7441402,○,○,,始発〜終電,OSMデータ
5218b737-95fc-5a30-858a-e9ef4e881abc,飯田橋,JR中央線,飯田橋駅付近のトイレ,35.7055791,139.7435051,○,,,始発〜終電,OSMデータ
004880dc-9053-57b1-833d-9ebdc158d82c,飯田橋,JR中央線,飯田橋駅付近のトイレ (0階),35.7019825,139.7451003,,○,,始発〜終電,OSMデータ
02cd569d-81ba-53d5-9751-e7469d8e275b,飯田橋,JR中央線,飯田橋駅付近のトイレ,35.699539,139.7409663,,,,始発〜終電,OSMデータ
a48b761b-c3cb-52f1-b530-e58c7e971afe,飯田橋,JR中央線,飯田橋駅付近のトイレ,35.7016711,139.7393131,,,,始発〜終電,OSMデータ
e299478a-ad0d-5cff-a758-fa795d8d3eaf,飯田橋,JR中央線,飯田橋駅付近のトイレ (1階),35.6990266,139.7436997,,○,,始発〜終電,OSMデータ
8c20ef03-c63a-51a5-9415-c338e893fbfe,飯田橋,JR中央線,飯田橋駅付近のトイレ (1階),35.701347,139.7442054,,,,始発〜終電,OSMデータ
e525683a-993b-55b8-a53f-6aac2fcff006,飯田橋,JR中央線,飯田橋駅付近のトイレ,35.6977972,139.7402706,,,,始発〜終電,OSMデータ
bf20e54c-ee35-5ea1-9f7d-e9d358135fce,飯田橋,JR中央線,飯田橋駅付近のトイレ (0階),35.699895,139.7424794,,○,,始発〜終電,OSMデータ
115d1766-b9f9-57f7-9b5b-2b0093e158cf,飯田橋,JR中央線,飯田橋駅付近のトイレ,35.6950306,139.7438686,,,,始発〜終電,OSMデータ
a4344f20-f535-5e8a-bb98-c6c06d214696,飯田橋,JR中央線,飯田橋駅付近のトイレ,35.6943029,139.7452944,,,,始発〜終電,OSMデータ
2f76a25b-32ec-52af-9615-77f37efebb7a,飯田橋,JR中央線,飯田橋駅付近のトイレ,35.6950412,139.7438461,,,,始発〜終電,OSMデータ
101b5bc5-137b-54b5-81f8-a963967e2d49,市ケ谷,JR中央線,市ケ谷駅付近のトイレ,35.689957,139.7400672,,,,始発〜終電,OSMデータ
b57f4f30-8cd4-59f8-a228-166e6f343f34,市ケ谷,JR中央線,市ケ谷駅付近のトイレ,35.6914571,139.7362693,,,,始発〜終電,OSMデータ
e29f1d1b-e339-55c9-84fe-c992d7bcb596,市ケ谷,JR中央線,市ケ谷駅付近のトイレ,35.6920656,139.7339796,,,,始発〜終電,OSMデータ
cd0c1408-6025-58bc-a702-e2d90b2bd175,市ケ谷,JR中央線,市ケ谷駅付近のトイレ,35.6915944,139.7343536,,,,始発〜終電,OSMデータ
41213276-27dc-5ac1-b3cd-5b9c9b3dd38f,市ケ谷,JR中央線,市ケ谷駅付近のトイレ (-1階),35.6864874,139.7417609,,,,始発〜終電,OSMデータ
9a7766f9-3c36-5d1c-b992-dce8ae3d9e40,市ケ谷,JR中央線,市ケ谷駅付近のトイレ (-3階),35.6931756,139.7367206,○,○,,始発〜終電,OSMデータ
06189142-6165-5482-b8d6-bc2989c411e3,市ケ谷,JR中央線,市ケ谷駅付近のトイレ,35.6935634,139.7375495,○,○,,始発〜終電,OSMデータ
7a98c2b2-718b-53f3-9fcc-e2d45e824a8d,市ケ谷,JR中央線,市ケ谷駅付近のトイレ,35.6974158,139.7322815,,,,始発〜終電,OSMデータ
96152854-4be0-5c55-96db-ed087dadb62b,市ケ谷,JR中央線,市ケ谷駅付近のトイレ,35.6947982,139.7428242,,,,始発〜終電,OSMデータ
1773f24a-47b2-528d-89b3-7eeb287e6715,市ケ谷,JR中央線,市ケ谷駅付近のトイレ,35.6946532,139.7431717,,,,始発〜終電,OSMデータ
9c9e2534-468d-5a4f-ac5c-baff392ab6a7,市ケ谷,JR中央線,市ケ谷駅付近のトイレ,35.6947539,139.7427112,,,,始発〜終電,OSMデータ
2eb241d7-aa0f-518f-907a-97ce7d2a2f2d,市ケ谷,JR中央線,市ケ谷駅付近のトイレ,35.6946002,139.743108,,,,始発〜終電,OSMデータ
a8ef46b6-d3f2-5092-9cb1-9dd2a1870c38,市ケ谷,JR中央線,市ケ谷駅付近のトイレ,35.6858613,139.7313797,,,,始発〜終電,OSMデータ
7114d096-0c04-5855-a0f9-438528c62b30,四ツ谷,JR中央線,四ツ谷駅付近のトイレ,35.6916674,139.725349,,,,始発〜終電,OSMデータ
28c19079-b8d6-5bd1-934c-cb7efa9075dd,四ツ谷,JR中央線,四ツ谷駅付近のトイレ,35.6834369,139.7221788,,,,始発〜終電,OSMデータ
cbd288bd-9d98-599e-96b5-82ce5d16b773,四ツ谷,JR中央線,四ツ谷駅付近のトイレ,35.680845,139.7259179,,,,始発〜終電,OSMデータ
dd48534e-1652-587f-a6e1-a48cd52cdbe2,四ツ谷,JR中央線,四ツ谷駅付近のトイレ,35.688687,139.7248364,,,,始発〜終電,OSMデータ
aa1460c4-1bcd-5e6d-9915-7e4af4cfda59,四ツ谷,JR中央線,四ツ谷駅付近のトイレ (-2階),35.6861818,139.7296995,,,,始発〜終電,OSMデータ
e76989ed-048d-5e69-997a-6fa6644806f5,四ツ谷,JR中央線,四ツ谷駅付近のトイレ,35.6849943,139.7299432,,,,始発〜終電,OSMデータ
3691cbc4-7710-51ec-8b34-c8a30951404a,四ツ谷,JR中央線,四ツ谷駅付近のトイレ,35.6893872,139.7223354,,,,始発〜終電,OSMデータ
ca6b5836-6ef8-50b2-a8e6-8abbef181524,四ツ谷,JR中央線,四ツ谷駅付近のトイレ,35.6849718,139.723174,○,,,始発〜終電,OSMデータ
71728e9d-d310-5f7b-a607-422a03e77fe2,四ツ谷,JR中央線,四ツ谷駅付近のトイレ,35.6851385,139.7298699,○,,,始発〜終電,OSMデータ
bf484add-f9fc-5071-b604-15b0d8f09564,四ツ谷,JR中央線,四ツ谷駅付近のトイレ,35.6810858,139.7273607,,,,始発〜終電,OSMデータ
773bb6fe-70e9-5a24-8f11-989956e3810d,信濃町,JR中央線,信濃町駅付近のトイレ,35.6846652,139.7168483,,,,始発〜終電,OSMデータ
13d57308-3fbe-5088-8707-a931bb1a82e6,信濃町,JR中央線,信濃町駅付近のトイレ,35.6782277,139.7206214,,,,始発〜終電,OSMデータ
33143879-6c65-599a-be3e-a1bc7f792ec4,信濃町,JR中央線,信濃町駅付近のトイレ,35.6756437,139.7215252,○,,,始発〜終電,OSMデータ
b8c5024a-5abe-551d-9509-cef422ed0f34,信濃町,JR中央線,信濃町駅付近のトイレ,35.6783136,139.7168472,,,,始発〜終電,OSMデータ
4e19b191-8414-55b5-b7f9-97859cd306ab,信濃町,JR中央線,信濃町駅付近のトイレ,35.6869292,139.7199332,,,,始発〜終電,OSMデータ
3bc8eeed-f43c-5df3-9a3a-66ec529a1b54,信濃町,JR中央線,信濃町駅付近のトイレ,35.6846378,139.7152202,,,,始発〜終電,OSMデータ
a459dee8-f0ce-57c0-b7b4-7dd9e7278503,信濃町,JR中央線,信濃町駅付近のトイレ,35.6754664,139.7138824,,○,,始発〜終電,OSMデータ
af8f6a2b-974d-5f33-b6c6-b5363a31f962,信濃町,JR中央線,千駄ヶ谷駅前公衆便所,35.6807698,139.7120982,○,,○,始発〜終電,OSMデータ
d68156b1-ede6-5210-b4e6-58f3b4612c0f,千駄ケ谷,JR中央線,千駄ケ谷駅付近のトイレ,35.6847844,139.7132595,,,,始発〜終電,OSMデータ
966cd46b-1f26-5eae-acc2-2b665cf8b64b,千駄ケ谷,JR中央線,千駄ケ谷駅付近のトイレ,35.686835,139.712321,,,,始発〜終電,OSMデータ
fd6f4085-a7d8-592c-bfed-d3b181fc73f4,千駄ケ谷,JR中央線,千駄ケ谷駅付近のトイレ,35.6859534,139.7130809,,,,始発〜終電,OSMデータ
8324ea6f-0ad9-5efd-93ce-fc23b6721233,千駄ケ谷,JR中央線,鳩森児童遊園地,35.6780947,139.7090736,,,,始発〜終電,OSMデータ
9cfac7e9-319e-567c-b734-cacc1b2b037a,千駄ケ谷,JR中央線,千駄ケ谷駅付近のトイレ,35.6811938,139.7109366,,,,始発〜終電,OSMデータ
268aefc8-515f-5506-89e4-fd1265e0774a,千駄ケ谷,JR中央線,千駄ケ谷駅付近のトイレ,35.6753871,139.7131985,,○,,始発〜終電,OSMデータ
c460d9b2-572d-5d32-b37f-e1e3637c17e3,千駄ケ谷,JR中央線,千駄ケ谷駅付近のトイレ,35.6865013,139.7136036,○,,,始発〜終電,OSMデータ
b6d68293-ac79-5784-bd8f-6ba68dffef69,千駄ケ谷,JR中央線,千駄ケ谷駅付近のトイレ,35.6838438,139.7111965,,○,,始発〜終電,OSMデータ
67d23cff-27f5-560f-b25e-00b93abf6c47,千駄ケ谷,JR中央線,千駄ケ谷駅付近のトイレ,35.6834652,139.7119468,,○,,始発〜終電,OSMデータ
cb190dd9-60aa-53a9-90e1-e92c5776f619,千駄ケ谷,JR中央線,千駄ケ谷駅付近のトイレ,35.6869844,139.7103972,,,,始発〜終電,OSMデータ
c7627aef-c6a2-5d48-8e07-be994d3e1134,千駄ケ谷,JR中央線,千駄ケ谷駅付近のトイレ,35.6869212,139.7140404,,,,始発〜終電,OSMデータ
4776b763-6af5-5dd5-bd75-d34751b8f6fd,中野,JR中央線,中野駅付近のトイレ,35.7072478,139.6677764,,,,始発〜終電,OSMデータ
9f0b2ecb-1e22-550f-97bc-1b44d59bebc0,中野,JR中央線,中野駅付近のトイレ,35.7042813,139.6739704,,,,始発〜終電,OSMデータ
bfc08e28-9523-560d-aeca-b362a52db4eb,中野,JR中央線,中野駅付近のトイレ,35.7080782,139.6613194,,,,始発〜終電,OSMデータ
e0bc7067-a2aa-5ac5-be57-f248cd238bd2,中野,JR中央線,中野駅付近のトイレ,35.709071,139.6716323,,,,始発〜終電,OSMデータ
9ca51269-d14d-5a41-ae92-b2b3cb96e98d,中野,JR中央線,中野駅付近のトイレ,35.7096454,139.6681132,,,,始発〜終電,OSMデータ
1a285709-1033-5b39-9e74-19b659714f8e,中野,JR中央線,中野駅付近のトイレ,35.7084567,139.6615557,,,,始発〜終電,OSMデータ
fc8fba6d-62b6-593c-a98e-d6b6e436eaa1,中野,JR中央線,中野駅付近のトイレ,35.7039853,139.6712948,,,,始発〜終電,OSMデータ
2f547aaf-6283-5d7b-a34f-887bc6509d28,中野,JR中央線,北口トイレ（改札外） (0階),35.7061097,139.6660313,○,○,,始発〜終電,OSMデータ
e1d8bd4a-9d3a-5600-b9d9-a84cc1e5d7f5,中野,JR中央線,北口トイレ（改札内） (0階),35.7059732,139.6658499,○,○,,始発〜終電,OSMデータ
7053c072-cd62-53ed-8259-d818c549750e,中野,JR中央線,南口トイレ（改札内） (0階),35.7054806,139.665889,○,○,,始発〜終電,OSMデータ
55236617-831b-5bdb-a6e5-2f6948a9fa6a,中野,JR中央線,中野駅付近のトイレ,35.7063648,139.6602096,,,,始発〜終電,OSMデータ
f2a20317-2691-53b9-b6cd-ce4afcb2bbab,中野,JR中央線,中野駅付近のトイレ,35.701189,139.6702893,,,,始発〜終電,OSMデータ
00923410-6a50-5c04-9a73-022b2c951c5f,中野,JR中央線,中野駅付近のトイレ (0階),35.7082987,139.6579677,○,,,始発〜終電,OSMデータ
75685359-66f8-5949-903a-ca4c4f4e192b,中野,JR中央線,災害トイレ用マンホール,35.708127,139.6606331,,,,始発〜終電,OSMデータ
c148e740-e9c0-539d-a421-eabde1796f8d,高円寺,JR中央線,高円寺駅付近のトイレ,35.7029211,139.6485824,○,,,始発〜終電,OSMデータ
e38915ff-1013-5033-8bc3-a8200f2a298b,高円寺,JR中央線,高円寺駅付近のトイレ,35.7055801,139.6498073,,,,始発〜終電,OSMデータ
ef116a3a-d943-5ce4-81d4-777fa72ec774,高円寺,JR中央線,高円寺駅付近のトイレ,35.70196,139.65451,,,,始発〜終電,OSMデータ
d3678fd5-2c31-55bb-8a09-1203ffd4dbac,高円寺,JR中央線,高円寺駅付近のトイレ,35.7019939,139.6484122,,,,始発〜終電,OSMデータ
8e4536ca-404c-5492-9131-e73126c3f09b,高円寺,JR中央線,高円寺駅付近のトイレ (0階),35.7095219,139.6561516,○,,,始発〜終電,OSMデータ
f74a11f2-3598-546b-89fd-1afe8e228929,高円寺,JR中央線,高円寺駅付近のトイレ,35.7095455,139.6430192,,,,始発〜終電,OSMデータ
fc80d6c8-9147-5d8f-9eb2-ee25bbbd0152,高円寺,JR中央線,高円寺駅付近のトイレ,35.7073575,139.6489489,○,,,始発〜終電,OSMデータ
af61624b-7e41-582e-a899-033a9434d901,高円寺,JR中央線,高円寺駅付近のトイレ,35.7036765,139.6517189,,,,始発〜終電,OSMデータ
e60674a2-63e7-52f2-b8ef-598ca2bf0126,高円寺,JR中央線,東高円寺みんなのトイレ (公衆便所),35.6996691,139.6549883,○,,,始発〜終電,OSMデータ
c12c6318-8910-57d3-ad94-ce86a037b597,阿佐ケ谷,JR中央線,阿佐ケ谷駅付近のトイレ,35.7014291,139.6339777,,,,始発〜終電,OSMデータ
f5e65bf5-c924-5c56-af79-6097aee5b0d8,阿佐ケ谷,JR中央線,阿佐ケ谷駅付近のトイレ,35.7068406,139.6373608,,,,始発〜終電,OSMデータ
3e0a2e37-a3b9-54ab-a60f-b29928fe68fb,阿佐ケ谷,JR中央線,阿佐ケ谷駅付近のトイレ,35.7049192,139.6370313,○,,,始発〜終電,OSMデータ
cffa51a6-3bcb-5956-b7cb-8d08623fa9fa,阿佐ケ谷,JR中央線,阿佐ケ谷駅付近のトイレ (1階),35.7049365,139.6349866,,,,始発〜終電,OSMデータ
9acb4edb-a9aa-5ec3-b185-c5cb8792409a,阿佐ケ谷,JR中央線,阿佐ケ谷駅付近のトイレ,35.7042907,139.6362176,○,,,始発〜終電,OSMデータ
002f6b76-8b33-5682-a9ed-0790411c3d70,荻窪,JR中央線,荻窪駅付近のトイレ,35.700823,139.6178412,,,,始発〜終電,OSMデータ
05e0d717-6d1c-594f-bc72-ceebfb87a39a,荻窪,JR中央線,荻窪駅付近のトイレ (-1階),35.7043639,139.6208285,○,○,,始発〜終電,OSMデータ
ce25bea0-bcc5-5b6e-b554-95a3b9ad58a0,荻窪,JR中央線,荻窪駅付近のトイレ,35.7065839,139.6165615,,,,始発〜終電,OSMデータ
fabae111-4f6d-5770-8875-0862dc2b6f8c,荻窪,JR中央線,荻窪駅付近のトイレ,35.7065478,139.6165016,,,,始発〜終電,OSMデータ
36a856f6-34f3-596f-baf4-003409f23627,西荻窪,JR中央線,西荻窪駅付近のトイレ,35.7013654,139.6019762,,,,始発〜終電,OSMデータ
75009be4-d5e1-5a9a-95be-f36426c5036b,西荻窪,JR中央線,西荻窪駅付近のトイレ,35.7039592,139.6022079,,,,始発〜終電,OSMデータ
2f8e2eb4-35cb-5d73-8b44-9c1edcf12b65,西荻窪,JR中央線,西荻窪駅付近のトイレ,35.7010011,139.5969032,,,,始発〜終電,OSMデータ
99008d87-5e52-599e-a58c-da111eb64426,吉祥寺,JR中央線,吉祥寺駅付近のトイレ,35.6997773,139.5768945,,,,始発〜終電,OSMデータ
c6b7e164-5ba3-5f02-82fa-6f8e52b66643,吉祥寺,JR中央線,吉祥寺駅付近のトイレ,35.698482,139.5810609,○,○,,始発〜終電,OSMデータ
d51e7ed2-60ab-57dd-ae48-e36c78f84f9d,吉祥寺,JR中央線,吉祥寺駅付近のトイレ,35.698879,139.5780516,○,○,,始発〜終電,OSMデータ
153c8b41-857f-55a0-9778-550d8c986373,吉祥寺,JR中央線,吉祥寺駅付近のトイレ,35.7000926,139.578465,○,,,始発〜終電,OSMデータ
0ba1c0a2-57f6-5e23-a8fe-5930cb1b2089,吉祥寺,JR中央線,吉祥寺駅付近のトイレ,35.6974336,139.5833788,,,,始発〜終電,OSMデータ
ff37527b-e8b4-5aef-ad30-693db5beb99b,吉祥寺,JR中央線,吉祥寺駅付近のトイレ,35.6978455,139.5823028,○,○,,始発〜終電,OSMデータ
eeccbe7a-b965-571f-8f49-4e0093831dd2,吉祥寺,JR中央線,吉祥寺駅付近のトイレ,35.699522,139.571264,,,,始発〜終電,OSMデータ
149bc34b-a936-58e3-8210-2d0e49fd5865,吉祥寺,JR中央線,吉祥寺駅付近のトイレ,35.700673,139.573721,,,,始発〜終電,OSMデータ
314d46e3-2702-527d-ab4b-5bee4bb99e62,吉祥寺,JR中央線,吉祥寺駅付近のトイレ,35.7012839,139.5765716,,○,,始発〜終電,OSMデータ
a6620a56-f4e3-52b4-820b-00487d90dd5c,吉祥寺,JR中央線,吉祥寺駅付近のトイレ,35.6991539,139.575445,,,,始発〜終電,OSMデータ
83dcf7e2-a2ce-52a1-8363-bd9da6ddb9cf,吉祥寺,JR中央線,吉祥寺駅付近のトイレ,35.700362,139.5713466,,,,始発〜終電,OSMデータ
f1140de7-5dbd-5082-b513-e52434c9fe8c,吉祥寺,JR中央線,吉祥寺駅付近のトイレ,35.7008778,139.5720865,,,,始発〜終電,OSMデータ
857bb0b7-7b16-5ff4-a44c-4ab263de7e0f,吉祥寺,JR中央線,吉祥寺駅付近のトイレ,35.7032672,139.5800861,,,,始発〜終電,OSMデータ
284ff654-dc76-5035-83ed-6126f55b4075,三鷹,JR中央線,三鷹駅付近のトイレ,35.702943,139.561137,○,,,始発〜終電,OSMデータ
f72d9268-7fd0-5b12-915d-288770525548,三鷹,JR中央線,三鷹駅付近のトイレ,35.7025148,139.5613242,○,,,始発〜終電,OSMデータ
6378c225-31a6-5d77-a7e8-4199afdd3e40,三鷹,JR中央線,三鷹駅付近のトイレ,35.695466,139.560481,,,,始発〜終電,OSMデータ
1a1847a7-b807-5109-ae15-33d147407712,武蔵境,JR中央線,武蔵境駅付近のトイレ,35.7062346,139.5380412,,,,始発〜終電,OSMデータ
0ca361b6-45ee-5bcd-854f-1d4e5cae38f2,武蔵境,JR中央線,武蔵境駅付近のトイレ,35.7016787,139.5436082,,,,始発〜終電,OSMデータ
87ca97bf-d595-599f-8d9b-af88d871ac89,東小金井,JR中央線,東小金井駅付近のトイレ,35.7026981,139.5268477,,,,始発〜終電,OSMデータ
945f08cb-fb9d-58f9-bfd1-c6c969673dd2,東小金井,JR中央線,東小金井駅付近のトイレ,35.7015265,139.5231454,○,,,始発〜終電,OSMデータ
c5111329-d391-505a-8f0d-f9818f135ce7,東小金井,JR中央線,東小金井駅付近のトイレ,35.6981979,139.5219978,,,,始発〜終電,OSMデータ
1b7001d7-6539-55c3-b2c0-bf3b5cceb9b3,東小金井,JR中央線,東小金井駅付近のトイレ,35.6981759,139.5219793,,,,始発〜終電,OSMデータ
123724f9-fbf9-5e2f-ab83-1932d8986d98,武蔵小金井,JR中央線,武蔵小金井駅付近のトイレ,35.6991698,139.4990795,,,,始発〜終電,OSMデータ
f43546c1-057e-5494-9aa5-d8f32b72b8b8,武蔵小金井,JR中央線,武蔵小金井駅付近のトイレ,35.7003801,139.5069707,,,,始発〜終電,OSMデータ
677a2824-a99d-5395-90e4-68c4e0430a71,武蔵小金井,JR中央線,武蔵小金井駅付近のトイレ,35.7026601,139.5016143,,,,始発〜終電,OSMデータ
281bba0e-04d3-5cda-bf12-77276d4db53d,武蔵小金井,JR中央線,武蔵小金井駅付近のトイレ,35.6989618,139.5139191,,,,始発〜終電,OSMデータ
5d60c7c5-564a-5f3e-9e94-f9d107424084,武蔵小金井,JR中央線,武蔵小金井駅付近のトイレ,35.7031271,139.5065543,,,,始発〜終電,OSMデータ
5165297e-dfe9-517f-96e3-926a93f48fff,国分寺,JR中央線,国分寺駅付近のトイレ,35.6991504,139.4820302,,,,始発〜終電,OSMデータ
7f3fa372-730a-5539-901d-13a5510a72cc,国分寺,JR中央線,国分寺駅付近のトイレ,35.6985491,139.4815034,○,,,始発〜終電,OSMデータ
220bfa58-4770-5fca-a2b0-586b89d35cab,西国分寺,JR中央線,西国分寺駅付近のトイレ,35.6999257,139.4656385,,,,始発〜終電,OSMデータ
af86173c-b058-56cd-81d4-244e1fc20d58,西国分寺,JR中央線,西国分寺駅付近のトイレ,35.69699,139.464425,,,,始発〜終電,OSMデータ
e76dd673-4803-5b0c-bb04-fe96a07d2436,国立,JR中央線,国立駅トイレ(代表),35.6984353,139.44701,○,○,,始発〜終電,駅中心座標(詳細位置不明)
8653aae3-b2c8-53ac-8d63-b19d7b705f68,立川,JR中央線,立川駅付近のトイレ,35.6015882,139.7216271,,,,始発〜終電,OSMデータ
809cd5c1-6166-5956-a44f-1c3dc97926d3,立川,JR中央線,立川駅付近のトイレ,35.5941067,139.7104286,,,,始発〜終電,OSMデータ
19dbfdb1-b85f-522d-9f3d-c48286095482,立川,JR中央線,立川駅付近のトイレ,35.5999769,139.7087913,,,,始発〜終電,OSMデータ
2de5ea86-c91c-5921-8e8c-93085dece6cc,立川,JR中央線,立川駅付近のトイレ,35.5985445,139.7119024,,,,始発〜終電,OSMデータ
d30c4cbe-9c2f-56d8-a28e-071b97d58716,立川,JR中央線,立川駅付近のトイレ,35.5974993,139.7091976,,,,始発〜終電,OSMデータ
7fa36e26-76aa-5b2b-bb14-4cc02d2a7d95,立川,JR中央線,松原橋公衆便所,35.5955691,139.7120362,,,,始発〜終電,OSMデータ
40d95b63-21af-5551-b2ce-d9a5c7fc0423,立川,JR中央線,立川駅付近のトイレ,35.600404,139.7212137,,,,始発〜終電,OSMデータ
834ea1bc-ffd8-5228-9ae4-00141dce5a4d,立川,JR中央線,立川駅付近のトイレ,35.6002644,139.7205274,,,,始発〜終電,OSMデータ
11e9915b-1576-5dbd-a75d-1ef45b248f5a,立川,JR中央線,立川駅付近のトイレ,35.6026339,139.7231992,,,,始発〜終電,OSMデータ
92d3388b-fb38-547d-8a92-35139421aec6,立川,JR中央線,立川駅付近のトイレ,35.6025205,139.7239247,,,,始発〜終電,OSMデータ
caed2d53-a17d-5630-8136-4d95263c4004,立川,JR中央線,立川駅付近のトイレ,35.601959,139.7238134,,,,始発〜終電,OSMデータ
1ef507d1-debb-5265-811c-f215d85f48f1,立川,JR中央線,立川駅付近のトイレ,35.6010958,139.7186794,,,,始発〜終電,OSMデータ
0efd0508-6626-52c6-b351-1f70d6624f20,立川,JR中央線,立川駅付近のトイレ,35.5990037,139.7103506,,,,始発〜終電,OSMデータ
6916c581-63bb-5603-9462-cd161a2b76fc,立川,JR中央線,立川駅付近のトイレ,35.5959548,139.7156454,,,,始発〜終電,OSMデータ
dcd658bb-42a3-5943-b4f5-08886a18ebe7,立川,JR中央線,立川駅付近のトイレ,35.5945809,139.7221312,,,,始発〜終電,OSMデータ
65d777e1-9e70-5b17-b581-bb4c13efdee6,立川,JR中央線,立川駅付近のトイレ,35.5932585,139.7211972,○,,,始発〜終電,OSMデータ
46d344ae-df55-5052-a839-b7c6a0e40a4a,立川,JR中央線,立川駅付近のトイレ,35.594724,139.7157982,,,,始発〜終電,OSMデータ
e1e26394-cb3c-5e96-807b-62dacb823ad2,立川,JR中央線,立川駅付近のトイレ,35.59701,139.7239293,,,,始発〜終電,OSMデータ
e61e52e3-9a13-5c03-b879-1119137f67a8,立川,JR中央線,立川駅付近のトイレ,35.5926386,139.7154553,,,,始発〜終電,OSMデータ
6a998530-41b2-5ebe-9aa4-35eaf9adc421,立川,JR中央線,立川駅付近のトイレ,35.5924753,139.7215581,,,,始発〜終電,OSMデータ
25d8ae40-0742-5639-b6cf-0736eb905b7b,立川,JR中央線,立川駅付近のトイレ,35.6023171,139.7122229,,,,始発〜終電,OSMデータ
d6d50913-a7f4-53d1-aeb7-1e1428d5211f,立川,JR中央線,立川駅付近のトイレ,35.6046475,139.7163602,○,,,始発〜終電,OSMデータ
9b0cb723-632a-50d8-a223-cf079db49623,立川,JR中央線,立川駅付近のトイレ,35.6055895,139.7177018,○,,,始発〜終電,OSMデータ
956e8778-fbd0-5677-86ef-b1a2cade40ae,立川,JR中央線,立川駅付近のトイレ,35.603748,139.7182234,○,,,始発〜終電,OSMデータ
1feb782f-941a-5973-9466-47439893bfdb,日野,JR中央線,日野駅付近のトイレ,35.6792966,139.3935302,○,,,始発〜終電,OSMデータ
d4fab41f-55d2-5626-83be-4243ea9b2340,日野,JR中央線,日野駅付近のトイレ,35.6792005,139.394036,,,,始発〜終電,OSMデータ
8f9734c3-a3c0-58ad-969c-07b199360b32,豊田,JR中央線,豊田駅付近のトイレ,35.6659239,139.3785669,,,,始発〜終電,OSMデータ
a180177c-c3b7-587e-8834-e4a9825bceae,豊田,JR中央線,豊田駅付近のトイレ,35.6659704,139.3785428,○,,,始発〜終電,OSMデータ
99ebab5a-7065-5283-b07a-ec166cc47cb8,豊田,JR中央線,豊田駅付近のトイレ,35.6660151,139.3785145,,,,始発〜終電,OSMデータ
d0da704a-8230-51af-b992-3452c2e75f80,八王子,JR中央線,八王子駅付近のトイレ,35.6562105,139.3386468,○,○,,始発〜終電,OSMデータ
e112578a-9c92-543d-baf3-bacd4114be07,八王子,JR中央線,八王子駅付近のトイレ,35.655795,139.339179,,,,始発〜終電,OSMデータ
e8d39795-d89d-5375-a90b-5f39bdfb2fd6,八王子,JR中央線,八王子駅付近のトイレ,35.6586192,139.3420149,,,,始発〜終電,OSMデータ
982fbf69-d4d9-5a38-ac80-a486e1a20484,八王子,JR中央線,八王子駅付近のトイレ,35.6540999,139.338325,,○,,始発〜終電,OSMデータ
8a765018-8968-58d8-b4d8-6ef547f3ebaa,八王子,JR中央線,八王子駅付近のトイレ,35.662145,139.3419168,,,,始発〜終電,OSMデータ
1045dbbe-5581-5d08-bc60-1e802038ff90,八王子,JR中央線,八王子駅付近のトイレ,35.6571758,139.3441536,,,,始発〜終電,OSMデータ
e43e29a4-1e6d-5f11-8310-cd5669382c4d,八王子,JR中央線,八王子駅付近のトイレ,35.652881,139.33505,,,,始発〜終電,OSMデータ
7c534696-37fa-5a18-a242-168ba9b54a44,八王子,JR中央線,八王子駅付近のトイレ,35.6491869,139.3425616,,,,始発〜終電,OSMデータ
23fdb5af-1d67-54a3-8397-6ae110b5cb86,八王子,JR中央線,八王子駅付近のトイレ,35.6560608,139.3396987,○,,,始発〜終電,OSMデータ
d64ee2f4-7216-5997-ab41-e68aa69b6373,八王子,JR中央線,八王子駅付近のトイレ,35.6562178,139.3387143,○,,,始発〜終電,OSMデータ
56b6e471-0992-525a-9132-3d38ebd582a5,八王子,JR中央線,八王子駅付近のトイレ (-1階),35.6578163,139.343443,,,,始発〜終電,OSMデータ
3cb1770e-ef05-563a-89ec-fe2015fd5b3a,八王子,JR中央線,八王子駅付近のトイレ,35.6512524,139.3400768,,,,始発〜終電,OSMデータ
a83d1ef0-dffd-5226-a6c4-8327941e6972,八王子,JR中央線,八王子駅付近のトイレ,35.6609663,139.3358687,,,,始発〜終電,OSMデータ
e5f841d7-eb6a-54b4-82dc-97d29a48631c,八王子,JR中央線,八王子駅付近のトイレ,35.6586408,139.3421277,,,,始発〜終電,OSMデータ
9ac66a9a-321d-54f7-b6b3-81c7bd7b9161,西八王子,JR中央線,西八王子駅付近のトイレ,35.6617246,139.3089928,,,,始発〜終電,OSMデータ
40144ee1-a8fe-5b15-8f37-e02ac8d33dbe,高尾,JR中央線,高尾駅付近のトイレ,35.6481582,139.2848015,,,,始発〜終電,OSMデータ
cf1c8c73-6a39-5583-a94e-2b701f06229f,高尾,JR中央線,高尾駅付近のトイレ,35.6400191,139.2771797,,,,始発〜終電,OSMデータ
bac7d74a-6294-5544-b305-0d18c6864ea3,高尾,JR中央線,高尾駅付近のトイレ,35.6471177,139.2858673,,,,始発〜終電,OSMデータ
6a214ae4-ad59-558e-99fa-de754387226d,高尾,JR中央線,高尾駅付近のトイレ,35.6419994,139.2812549,,,,始発〜終電,OSMデータ
af165988-7842-5f7d-a6bb-9ab61c0d472b,高尾,JR中央線,高尾駅付近のトイレ,35.6462104,139.2793174,,,,始発〜終電,OSMデータ
29b7ee61-55da-53d3-a0b4-0e842d36604a,高尾,JR中央線,高尾駅付近のトイレ,35.6412332,139.2904381,,,,始発〜終電,OSMデータ
bdf9fbe8-1d5d-5b28-9b1d-41ed1c206b61,赤羽,JR京浜東北線,赤羽駅付近のトイレ,35.777349,139.724168,,,,始発〜終電,OSMデータ
69306013-00ef-59ef-98af-6cf397136303,赤羽,JR京浜東北線,赤羽駅東口公衆トイレ,35.7783342,139.721129,,,,始発〜終電,OSMデータ
a2b39351-9bb8-5a1d-a8eb-9e8c2462271d,赤羽,JR京浜東北線,赤羽駅付近のトイレ,35.7817163,139.7204711,,,,始発〜終電,OSMデータ
19c3dbea-55e3-530b-a35a-aacc06c8cb77,赤羽,JR京浜東北線,赤羽駅付近のトイレ,35.7732119,139.7225446,,,,始発〜終電,OSMデータ
eebf18ef-9d39-5cb3-b047-1dcad5c38c9a,赤羽,JR京浜東北線,赤羽駅付近のトイレ,35.7739146,139.7177018,,,,始発〜終電,OSMデータ
c91bcdd1-1a49-545a-a7a0-df7ae36b138a,赤羽,JR京浜東北線,赤羽駅付近のトイレ,35.7797258,139.7194975,,,,始発〜終電,OSMデータ
70df2942-4552-5bf1-a286-d70417c7b890,赤羽,JR京浜東北線,赤羽駅付近のトイレ,35.7780299,139.7254223,,,,始発〜終電,OSMデータ
d0c4bad4-4f11-5274-9a12-35384dab70c9,東十条,JR京浜東北線,東十条駅付近のトイレ,35.7628016,139.7280633,,,,始発〜終電,OSMデータ
10a3cb85-c697-5514-b1ee-cd2fe8f85b93,東十条,JR京浜東北線,東十条駅付近のトイレ,35.7574314,139.7291555,,,,始発〜終電,OSMデータ
dc68c045-d6ef-5cf7-a2ec-2a8a2a93a80d,東十条,JR京浜東北線,北区トイレ,35.7690761,139.72104,○,○,,始発〜終電,OSMデータ
b65fe639-cd38-5b38-90b6-34129a35056e,東十条,JR京浜東北線,東十条駅付近のトイレ,35.762762,139.7256775,,,,始発〜終電,OSMデータ
5e788b17-a712-5051-be8e-06ad8583ea06,東十条,JR京浜東北線,王子五丁目公衆トイレ,35.7655248,139.7354908,,,,始発〜終電,OSMデータ
318a13cf-6988-585c-82f2-c1f8fcc4ae6a,東十条,JR京浜東北線,東十条駅付近のトイレ,35.7654247,139.7265372,,,,始発〜終電,OSMデータ
0d37a4e7-9368-52db-ab18-2dafc7970ae5,東十条,JR京浜東北線,東十条駅付近のトイレ,35.7623582,139.7272983,,,,始発〜終電,OSMデータ
9eb5c2db-7317-541f-ac36-77aaad684042,東十条,JR京浜東北線,東十条駅付近のトイレ,35.7600227,139.7260975,,,,始発〜終電,OSMデータ
213b49bd-2f27-552b-b2f5-a80ed26bdff3,東十条,JR京浜東北線,東十条駅付近のトイレ,35.7677297,139.7207552,,,,始発〜終電,OSMデータ
680118d2-689d-5ab2-b35f-dfc80bff2001,東十条,JR京浜東北線,東十条駅付近のトイレ,35.7677631,139.7308044,,,,始発〜終電,OSMデータ
11a992c3-981c-57d4-8a92-8c5b23b65b5b,東十条,JR京浜東北線,東十条駅付近のトイレ,35.7604739,139.7309365,,,,始発〜終電,OSMデータ
a58ee009-f113-5c08-b1e6-a0d7e13ed761,東十条,JR京浜東北線,東十条駅付近のトイレ,35.7587887,139.7315874,,,,始発〜終電,OSMデータ
43949bde-3f0a-5654-9fc1-536fac3bfca1,東十条,JR京浜東北線,東十条駅付近のトイレ,35.7689494,139.7233232,,,,始発〜終電,OSMデータ
73bfd92c-827f-5237-a195-e04c544b2126,東十条,JR京浜東北線,東十条駅付近のトイレ,35.7594632,139.7324984,,,,始発〜終電,OSMデータ
10554971-c11d-505e-b58e-46bd7622c3af,東十条,JR京浜東北線,東十条駅付近のトイレ,35.7648993,139.7263269,,,,始発〜終電,OSMデータ
82cbf35a-8fb8-59eb-bf30-25a29479df3b,東十条,JR京浜東北線,東十条駅付近のトイレ,35.7582465,139.7323082,,,,始発〜終電,OSMデータ
5f87533a-c8db-5738-976c-c202449f56d4,東十条,JR京浜東北線,東十条駅付近のトイレ,35.7687073,139.7218041,,,,始発〜終電,OSMデータ
e9b9213d-37b2-5be0-b15e-0d44de753cf9,王子,JR京浜東北線,王子駅付近のトイレ,35.7522039,139.7355065,,,,始発〜終電,OSMデータ
b9af3b97-b9e8-52d6-b960-40727ea28514,王子,JR京浜東北線,王子駅付近のトイレ,35.7535201,139.7354341,,,,始発〜終電,OSMデータ
d14996f3-f299-50d8-91e2-093b5f4edee5,王子,JR京浜東北線,王子駅付近のトイレ,35.7538843,139.737099,,○,,始発〜終電,OSMデータ
60900744-2c0e-57a0-80de-504e02ff2b8e,王子,JR京浜東北線,王子駅付近のトイレ,35.7538782,139.7455693,○,,,始発〜終電,OSMデータ
335752b5-fac4-597c-80ea-2aa22a8defed,王子,JR京浜東北線,王子駅付近のトイレ,35.750196,139.7381838,,○,,始発〜終電,OSMデータ
4b8f5c86-df26-5fdd-85ef-d54858fae0b1,王子,JR京浜東北線,王子駅付近のトイレ,35.7514667,139.7371915,○,○,,始発〜終電,OSMデータ
91f7e74e-bdf8-5671-9922-78948679b0d4,王子,JR京浜東北線,王子駅付近のトイレ,35.7495112,139.7397019,○,○,,始発〜終電,OSMデータ
3c357c81-d87e-5b0c-94c4-1e21c312b812,王子,JR京浜東北線,王子駅付近のトイレ,35.7504665,139.739344,○,○,,始発〜終電,OSMデータ
882f2341-b28f-55a7-98b4-d2c77fda0544,王子,JR京浜東北線,王子駅付近のトイレ,35.7509174,139.735529,,,,始発〜終電,OSMデータ
e98d6c29-b738-5f61-8f2e-7819b456a294,王子,JR京浜東北線,王子駅付近のトイレ,35.759124,139.7423183,,,,始発〜終電,OSMデータ
ff7c19e6-c234-546e-a272-a8cf56e194fc,王子,JR京浜東北線,王子駅付近のトイレ,35.7516213,139.7390241,,,,始発〜終電,OSMデータ
d2f0c779-48ac-53e1-a53d-4362c650dc37,王子,JR京浜東北線,王子駅付近のトイレ,35.7532756,139.7374318,,,,始発〜終電,OSMデータ
043edb0b-91ed-50cb-b095-2cc9c9d15979,王子,JR京浜東北線,王子駅付近のトイレ,35.7568012,139.7426437,,,,始発〜終電,OSMデータ
a8e770a6-264f-5b86-a215-0b3f098dac4f,王子,JR京浜東北線,王子駅付近のトイレ,35.7559823,139.7390759,,,,始発〜終電,OSMデータ
03d93cb8-e439-507d-86c7-b338e78feca5,上中里,JR京浜東北線,上中里駅前公衆トイレ,35.7464589,139.7471626,○,,,始発〜終電,OSMデータ
fcbf7cc1-2a94-522e-81f4-a5435bb5d558,上中里,JR京浜東北線,上中里駅付近のトイレ,35.7491716,139.7512269,,,,始発〜終電,OSMデータ
47692946-086a-5057-b108-2ccbdb09fd4e,上中里,JR京浜東北線,上中里駅付近のトイレ,35.7467567,139.7548817,,,,始発〜終電,OSMデータ
24c6cc7e-e0eb-5dda-8cf1-30f5cf65f3f0,大井町,JR京浜東北線,大井町駅付近のトイレ,35.6042419,139.7274299,,,,始発〜終電,OSMデータ
f484f1f4-baca-5312-894a-b37090825e64,大井町,JR京浜東北線,大井町駅付近のトイレ,35.6052653,139.741365,,,,始発〜終電,OSMデータ
d7df897f-2352-59d2-8e5a-ec2ce26fc729,大井町,JR京浜東北線,大井町駅付近のトイレ,35.6020704,139.735583,,,,始発〜終電,OSMデータ
6abca94a-e7d6-520d-976e-32df6bad9d24,大井町,JR京浜東北線,大井町駅付近のトイレ,35.6046162,139.7322286,,,,始発〜終電,OSMデータ
9ea15eca-f157-5da5-8d43-ee65c177330a,大井町,JR京浜東北線,大井町駅付近のトイレ,35.605713,139.7346961,,,,始発〜終電,OSMデータ
c50ea246-2d50-5e0e-bbcc-1dca54400eb7,大井町,JR京浜東北線,大井町駅付近のトイレ,35.6038522,139.7403732,,,,始発〜終電,OSMデータ
481e35ea-90d6-5ed8-920e-4eeb15833029,大井町,JR京浜東北線,大井町駅付近のトイレ,35.606292,139.729228,,,,始発〜終電,OSMデータ
322da352-55b3-5147-af0b-ebd1be792a8e,大井町,JR京浜東北線,大井町駅付近のトイレ,35.6051778,139.7406708,,,,始発〜終電,OSMデータ
a6f75bd6-509d-579d-899e-155386b1a654,大井町,JR京浜東北線,大井町駅付近のトイレ,35.6094247,139.7288266,○,,,始発〜終電,OSMデータ
f8cbde2a-d869-574c-b8f2-f2b532528ad1,大井町,JR京浜東北線,大井町駅付近のトイレ,35.6113749,139.7390852,,,,始発〜終電,OSMデータ
39323e22-f41d-52b3-a011-b4408e27b02b,大井町,JR京浜東北線,大井町駅付近のトイレ,35.6070099,139.7397599,○,,,始発〜終電,OSMデータ
db1d510c-3786-58f8-bd92-8f6fc46e90d8,大井町,JR京浜東北線,大井町駅付近のトイレ,35.6083158,139.7368997,,,,始発〜終電,OSMデータ
70f8ae30-389f-579e-9729-643e886907fc,大井町,JR京浜東北線,大井町駅付近のトイレ (0階),35.6068783,139.7351629,○,○,,始発〜終電,OSMデータ
fa76da3f-865e-5b63-90f8-ad6f9fb71638,大井町,JR京浜東北線,西品川公園公衆便所,35.6128412,139.7309138,○,,,始発〜終電,OSMデータ
64a2b5fd-c13a-54c4-aa53-b8172360d4e9,大井町,JR京浜東北線,大井町駅付近のトイレ,35.6090021,139.7274166,,,,始発〜終電,OSMデータ
849986dd-8b33-5abb-a74b-93c211926346,大井町,JR京浜東北線,大井町駅付近のトイレ,35.6090076,139.7274699,,,,始発〜終電,OSMデータ
dee92b00-6e27-5c63-8163-094df1e40cea,大井町,JR京浜東北線,大井町駅付近のトイレ,35.6089664,139.7274426,,,,始発〜終電,OSMデータ
82ff39a8-bc5d-513c-9040-2790faac264e,大井町,JR京浜東北線,大井町駅付近のトイレ,35.611416,139.739019,,,,始発〜終電,OSMデータ
31c5f6f9-bc19-5a29-ad80-2e29fa66568f,大森,JR京浜東北線,大森駅付近のトイレ,35.5880723,139.7293339,,,,始発〜終電,OSMデータ
532c617e-a47c-597e-a4b3-86b2110f63c4,大森,JR京浜東北線,大森駅付近のトイレ,35.5883507,139.7336987,,,,始発〜終電,OSMデータ
b21c3ca8-f80c-5c06-bb68-8cf99dbbaf78,大森,JR京浜東北線,大森駅付近のトイレ,35.5892566,139.7269297,,,,始発〜終電,OSMデータ
e4db978a-f07d-5ac4-9ba9-bc1f97279bb5,大森,JR京浜東北線,大森駅付近のトイレ,35.5827445,139.7292787,,,,始発〜終電,OSMデータ
3ec4c97b-1c55-5d39-b025-707294909e20,大森,JR京浜東北線,大森駅付近のトイレ,35.5870137,139.7355222,,,,始発〜終電,OSMデータ
ea47db29-5c5c-5ee6-ad85-f087c5e6b92e,大森,JR京浜東北線,清花公園公衆便所,35.5854997,139.7337304,,,,始発〜終電,OSMデータ
6466030c-edf3-5cb1-a950-4b717e5ac41b,大森,JR京浜東北線,大森駅付近のトイレ,35.5833852,139.730284,,,,始発〜終電,OSMデータ
095bdfc2-64f5-5000-b9ff-1eca4850af3c,大森,JR京浜東北線,大森駅付近のトイレ,35.5937729,139.7315753,○,,,始発〜終電,OSMデータ
e2dc6cb7-27dc-5adb-bcff-d9b4459240b0,大森,JR京浜東北線,大森駅付近のトイレ,35.5939967,139.7289873,,,,始発〜終電,OSMデータ
00864ede-4d6b-5430-987c-943b2bc05bc3,大森,JR京浜東北線,大森駅付近のトイレ,35.5818727,139.7308246,,,,始発〜終電,OSMデータ
95efa416-db13-56b8-becb-5e6c58dca1d9,大森,JR京浜東北線,大森駅付近のトイレ,35.5863431,139.7306642,○,,,始発〜終電,OSMデータ
050cd866-7fc6-522f-90f6-7b07affa545f,大森,JR京浜東北線,大森駅付近のトイレ,35.5918497,139.7302688,,,,始発〜終電,OSMデータ
78fdd2a6-afc6-537c-b69c-15e0ef47f896,大森,JR京浜東北線,大森駅付近のトイレ,35.5897635,139.729271,,,,始発〜終電,OSMデータ
15bdcece-7c96-52c2-9095-284fabd17656,大森,JR京浜東北線,大森駅付近のトイレ,35.5844586,139.7251202,,,,始発〜終電,OSMデータ
a2be3485-2e2d-5bfe-b85f-922641558b3b,大森,JR京浜東北線,大森駅付近のトイレ,35.5874124,139.7248826,,,,始発〜終電,OSMデータ
fcdbe25c-a0cf-5571-a828-4016a6357229,大森,JR京浜東北線,大森駅付近のトイレ,35.5894272,139.730732,,,,始発〜終電,OSMデータ
3dc55a05-8091-5091-8c0c-26a3fc2858e2,大森,JR京浜東北線,大森駅付近のトイレ,35.5933113,139.7349787,,,,始発〜終電,OSMデータ
5902704d-e1e1-52ce-98d0-594b2d073644,大森,JR京浜東北線,大森駅付近のトイレ,35.5880355,139.7208374,,,,始発〜終電,OSMデータ
75dc015e-7992-5fad-8eb1-e55a256d6b36,大森,JR京浜東北線,大森駅付近のトイレ,35.5873232,139.721892,,,,始発〜終電,OSMデータ
68acfc72-3826-5165-b6d6-fea8038cd984,大森,JR京浜東北線,大森駅付近のトイレ,35.585798,139.7363968,,,,始発〜終電,OSMデータ
c0734031-227d-5faa-87f8-980a0c00bbd5,大森,JR京浜東北線,大森駅付近のトイレ,35.5847981,139.7231878,,,,始発〜終電,OSMデータ
d5eb9f44-cd11-5b34-afc6-8e22bd779a2b,大森,JR京浜東北線,大森駅付近のトイレ,35.5883301,139.7267452,,,,始発〜終電,OSMデータ
579e8dd1-9812-5bbd-86b6-70cc31c4d9bf,大森,JR京浜東北線,大森駅付近のトイレ,35.5836272,139.732084,,,,始発〜終電,OSMデータ
9646d283-5052-526f-97d0-7399af124b73,大森,JR京浜東北線,大森駅付近のトイレ,35.5848061,139.7300385,,,,始発〜終電,OSMデータ
b643d7de-59dd-5c37-98d6-bac383aee84c,大森,JR京浜東北線,大森駅付近のトイレ,35.5823489,139.7311081,,,,始発〜終電,OSMデータ
52b27a8c-b2d9-5412-a3cc-eb4b8f421003,大森,JR京浜東北線,大森駅付近のトイレ,35.5821341,139.7279235,,,,始発〜終電,OSMデータ
77a8fe2e-6879-5ec4-9f17-3e5260aec6ff,大森,JR京浜東北線,大森駅付近のトイレ,35.5886503,139.7279935,○,,,始発〜終電,OSMデータ
8b1db6c6-8ad8-5e9d-88e7-539de5c7a171,大森,JR京浜東北線,大森駅付近のトイレ (0階),35.5906443,139.7278278,,,,始発〜終電,OSMデータ
2c4145c3-7592-557a-a1d9-ac7c0d479d3d,大森,JR京浜東北線,大森駅付近のトイレ (2階),35.5878885,139.7316092,,,,始発〜終電,OSMデータ
7ad6fef6-58e3-5455-b49d-2d189db96848,大森,JR京浜東北線,大森駅付近のトイレ (0階),35.5882118,139.7274837,○,,,始発〜終電,OSMデータ
88c843ef-b87a-5402-a0b1-4285a8a2c3cb,大森,JR京浜東北線,大森駅付近のトイレ,35.5891847,139.7280332,,,,始発〜終電,OSMデータ
23b77a55-7ead-5ec5-8103-664876d359fe,大森,JR京浜東北線,大森駅付近のトイレ (-1階),35.5904451,139.7284781,,,,始発〜終電,OSMデータ
257a9686-118d-5103-b0a9-bad2cfd52389,大森,JR京浜東北線,大森駅付近のトイレ,35.5903673,139.7371751,○,,,始発〜終電,OSMデータ
e1af432e-29f5-5c50-aeba-15fcb32e6064,大森,JR京浜東北線,大森駅付近のトイレ,35.592503,139.7257442,,,,始発〜終電,OSMデータ
b4ba57ad-620b-595a-99c2-35fa9cac9a2f,蒲田,JR京浜東北線,蒲田駅付近のトイレ,35.5612069,139.7221344,,,,始発〜終電,OSMデータ
b6a666de-3883-5673-845e-1c029bb66cd9,蒲田,JR京浜東北線,蒲田西口駅前公衆便所せせらぎ,35.5629304,139.7160045,,,,始発〜終電,OSMデータ
8aba0339-c6ab-5458-9627-ef9052091dfd,蒲田,JR京浜東北線,蒲田駅付近のトイレ,35.5613381,139.7060024,,,,始発〜終電,OSMデータ
7bc454c4-9e35-5d4d-8fe6-04f5f366982d,蒲田,JR京浜東北線,蒲田駅付近のトイレ,35.566818,139.713059,,,,始発〜終電,OSMデータ
58b33589-8784-542f-babe-0c5f627804a9,蒲田,JR京浜東北線,蒲田駅付近のトイレ,35.5649649,139.7119916,,,,始発〜終電,OSMデータ
862fc146-dc4d-57e4-80e5-3ea7f878d7ba,蒲田,JR京浜東北線,蒲田交差公衆便所,35.5637772,139.7169233,○,,,始発〜終電,OSMデータ
2502da54-4dca-580f-9b0c-fcfa5596ec0b,蒲田,JR京浜東北線,蒲田駅付近のトイレ,35.5596022,139.7177776,○,,,始発〜終電,OSMデータ
d4afdf09-7547-5981-83e2-556b4ffc21a1,蒲田,JR京浜東北線,菖蒲橋際公衆便所,35.5626656,139.7210874,,,,始発〜終電,OSMデータ
7a6ac91c-ac38-5241-bd60-b46854b8f25d,蒲田,JR京浜東北線,蒲田駅付近のトイレ,35.5649325,139.708936,,,,始発〜終電,OSMデータ
ef1083f9-0949-57b5-a61d-68460dfb689b,蒲田,JR京浜東北線,蒲田駅付近のトイレ,35.5649283,139.7078631,,,,始発〜終電,OSMデータ
a5612aa3-81aa-5535-af39-a11ac0cb966e,蒲田,JR京浜東北線,蒲田駅付近のトイレ,35.5652344,139.7140804,,,,始発〜終電,OSMデータ
59a0c6f5-8152-5a1b-81a2-d862f024fac6,蒲田,JR京浜東北線,蒲田駅付近のトイレ,35.5578359,139.7106708,,,,始発〜終電,OSMデータ
b13c03b0-17ee-5535-84d6-15ee433b7505,蒲田,JR京浜東北線,蒲田駅付近のトイレ,35.5595078,139.7208249,○,,,始発〜終電,OSMデータ
fab24aa1-3f42-529b-8918-bf37cb8fb23d,蒲田,JR京浜東北線,蒲田駅付近のトイレ,35.5614557,139.7109427,○,,,始発〜終電,OSMデータ
503535cb-f281-5826-93da-69ee35409d6d,蒲田,JR京浜東北線,蒲田駅付近のトイレ,35.5582871,139.7158246,,,,始発〜終電,OSMデータ
8c8078b0-b827-5fa8-8e10-1c70d8054191,蒲田,JR京浜東北線,蒲田駅付近のトイレ,35.5576858,139.7164179,,,,始発〜終電,OSMデータ
0fb7dab5-a0ed-5ae1-9651-8eb0d1692f2c,蒲田,JR京浜東北線,蒲田駅付近のトイレ,35.5610947,139.7151379,○,,,始発〜終電,OSMデータ
d03e5d65-527a-5045-a2dc-adfed8221383,蒲田,JR京浜東北線,蒲田駅付近のトイレ,35.5672046,139.7209506,○,,,始発〜終電,OSMデータ
062dcd24-5fb0-54c6-87f5-5427c1157aa3,蒲田,JR京浜東北線,蒲田駅付近のトイレ,35.5581695,139.7206495,,,,始発〜終電,OSMデータ
fa2fabf6-8ac1-5ed5-aa67-6298a8212f56,浅草,東京メトロ銀座線,浅草駅付近のトイレ,35.7137278,139.7973588,○,,,始発〜終電,OSMデータ
f7a8fdda-3d4a-531c-be20-75d9dda09b89,浅草,東京メトロ銀座線,浅草駅付近のトイレ,35.711624,139.7917692,,,,始発〜終電,OSMデータ
39d8879d-7342-5ebc-8849-d1f4489a04a5,浅草,東京メトロ銀座線,浅草駅付近のトイレ,35.7143371,139.8054335,,,,始発〜終電,OSMデータ
0d969318-854d-5d2a-b530-631ad2598367,浅草,東京メトロ銀座線,浅草駅付近のトイレ,35.716702,139.803707,○,,,始発〜終電,OSMデータ
b433df21-39b4-5a13-9d09-4b575fecae5f,浅草,東京メトロ銀座線,浅草駅付近のトイレ,35.7130179,139.8044021,,,,始発〜終電,OSMデータ
2dc99707-18c5-51bf-8687-78b3062388d7,浅草,東京メトロ銀座線,枕橋際公衆便所,35.7116485,139.8021126,,,,始発〜終電,OSMデータ
e69334a9-88c5-5988-a170-b2867397da12,浅草,東京メトロ銀座線,言問橋際公衆便所,35.7134101,139.8051289,,,,始発〜終電,OSMデータ
861ab8a1-72ec-5589-99fc-d731bd9a7d40,浅草,東京メトロ銀座線,都営浅草駅,35.708591,139.7960201,○,,,始発〜終電,OSMデータ
07c534fd-9237-545c-9958-e16bb5cdcab0,浅草,東京メトロ銀座線,浅草駅付近のトイレ,35.7141129,139.7993585,○,,,始発〜終電,OSMデータ
3b1ad808-00cf-5bff-99b0-d5b5ec84bb01,浅草,東京メトロ銀座線,浅草駅付近のトイレ,35.714274,139.795147,○,,,始発〜終電,OSMデータ
0189767f-8708-5add-a865-4fba884614d1,浅草,東京メトロ銀座線,浅草駅付近のトイレ,35.7154838,139.7945983,○,,,始発〜終電,OSMデータ
002daa7c-8f03-59de-8e45-889368479f60,浅草,東京メトロ銀座線,浅草駅付近のトイレ,35.7122113,139.7966391,,,,始発〜終電,OSMデータ
c534abb3-488b-5bbd-adeb-97082380b0cf,浅草,東京メトロ銀座線,浅草駅付近のトイレ,35.7126322,139.7963606,,,,始発〜終電,OSMデータ
b1eadcf2-8efc-5a58-8534-34af6050452e,浅草,東京メトロ銀座線,浅草駅付近のトイレ,35.7046259,139.796403,○,,,始発〜終電,OSMデータ
b671cde4-c195-51b3-8b5b-35d208344c4c,浅草,東京メトロ銀座線,浅草駅付近のトイレ (-2階),35.7107812,139.7978609,○,○,,始発〜終電,OSMデータ
6000d29d-0116-5e64-bceb-7aa34bac8984,浅草,東京メトロ銀座線,浅草駅付近のトイレ,35.708765,139.7967591,,,,始発〜終電,OSMデータ
f3a3aaca-1c7e-58ed-8108-64dc1a75e4ce,浅草,東京メトロ銀座線,田原公園 トイレ,35.7096854,139.7930451,,,,始発〜終電,OSMデータ
34f87b29-12d0-5e87-b397-d7f9951c0c6b,浅草,東京メトロ銀座線,待乳山聖天公園 公衆トイレ,35.7173967,139.802684,,,,始発〜終電,OSMデータ
5f2dee58-2901-503d-9fd5-793b9ad7d737,浅草,東京メトロ銀座線,浅草駅付近のトイレ,35.7136493,139.7974228,,,,始発〜終電,OSMデータ
c05fd2a6-b104-5e49-926c-332d229e4c85,浅草,東京メトロ銀座線,浅草駅付近のトイレ,35.7170793,139.8031569,○,,,始発〜終電,OSMデータ
6208f176-b073-595a-b228-25274953dabe,浅草,東京メトロ銀座線,仲見世2号,35.7117438,139.7961874,,,,始発〜終電,OSMデータ
0e7c7ec4-d984-5457-bc42-1a1a9162d30b,浅草,東京メトロ銀座線,Fuji Park toilet,35.7185362,139.7974831,,,,始発〜終電,OSMデータ
159af3fb-0bf7-56d1-ba3e-8466fcacfce5,浅草,東京メトロ銀座線,浅草駅付近のトイレ,35.7156225,139.7970603,○,,,始発〜終電,OSMデータ
3a64db59-8e50-5987-aef0-f94108951d4c,浅草,東京メトロ銀座線,浅草駅付近のトイレ,35.7145122,139.8022808,○,○,,始発〜終電,OSMデータ
004b1a00-6ac5-557a-a182-f24f5fffd3c2,浅草,東京メトロ銀座線,浅草駅付近のトイレ,35.7114098,139.8038261,,,,始発〜終電,OSMデータ
44aaf679-caa6-5c2c-b4fc-bf76fdc0ab88,田原町,東京メトロ銀座線,蔵前四丁目 公衆トイレ (1階),35.7061749,139.7890447,,,,始発〜終電,OSMデータ
5a1719e5-5ed9-591a-a918-c8801f9bff9e,田原町,東京メトロ銀座線,厩橋際 公衆トイレ,35.7045996,139.7942213,,,,始発〜終電,OSMデータ
fe63156b-9a31-563f-ad71-ebcf1abbfd44,田原町,東京メトロ銀座線,小島二丁目交番裏公衆トイレ,35.7065559,139.7848709,,,,始発〜終電,OSMデータ
101e388e-be9c-505f-9ab2-72f432050924,田原町,東京メトロ銀座線,Kojima Park toilet,35.7055552,139.7842415,○,,,始発〜終電,OSMデータ
2c779714-b65d-54c7-809c-d2a4ee33cf1c,田原町,東京メトロ銀座線,田原町駅付近のトイレ,35.7166551,139.7900101,○,,,始発〜終電,OSMデータ
f1cd186c-e948-557b-a12a-cdd03565fec2,田原町,東京メトロ銀座線,田原町駅付近のトイレ,35.7119329,139.7871457,,,,始発〜終電,OSMデータ
def47a34-3e3c-582f-9574-a8f043b170db,田原町,東京メトロ銀座線,田原町駅付近のトイレ,35.7037557,139.789033,,,,始発〜終電,OSMデータ
cebfcb59-5d8b-55f9-b5f0-d1841b227d40,三越前,東京メトロ銀座線,三越前駅付近のトイレ,35.6843483,139.774895,○,,,始発〜終電,OSMデータ
70820d04-2b51-5b88-b292-3305651a789e,三越前,東京メトロ銀座線,三越前駅付近のトイレ,35.68469,139.777186,○,,,始発〜終電,OSMデータ
eb451812-8ffa-5a9c-a54d-142b8de50df4,三越前,東京メトロ銀座線,三越前駅付近のトイレ,35.6863808,139.779314,○,,,始発〜終電,OSMデータ
509e5a85-56ba-5630-804a-139aca97d638,三越前,東京メトロ銀座線,三越前駅付近のトイレ,35.686651,139.7740766,,,,始発〜終電,OSMデータ
f640347f-fcc1-5333-87e4-bd724688bd85,三越前,東京メトロ銀座線,三越前駅付近のトイレ,35.6792417,139.7759168,,,,始発〜終電,OSMデータ
e0c9e121-fde3-5d4b-8102-feb97b22b692,三越前,東京メトロ銀座線,三越前駅付近のトイレ (1階),35.6860505,139.7744514,,○,,始発〜終電,OSMデータ
7bf02d1b-2629-5a80-9440-fab7df1362c8,三越前,東京メトロ銀座線,三越前駅付近のトイレ (0階),35.6860504,139.7744509,○,○,,始発〜終電,OSMデータ
8bfe355a-938d-59f6-91a9-237cb7a9de3a,三越前,東京メトロ銀座線,海運橋際公衆便所,35.6822245,139.7771282,,,,始発〜終電,OSMデータ
40a100bb-5951-5fdf-99e5-ed0e1eb42e27,日本橋,東京メトロ銀座線,日本橋駅付近のトイレ,35.6789173,139.7817192,○,,,始発〜終電,OSMデータ
0ae0a9dc-27f4-5c9d-83b2-fec4a021b596,日本橋,東京メトロ銀座線,日本橋駅付近のトイレ,35.6778658,139.7799156,○,○,,始発〜終電,OSMデータ
9ddf8b5e-bd2f-5408-b5ce-9e7307c3f9eb,日本橋,東京メトロ銀座線,亀島橋際公衆便所,35.6761816,139.7791779,○,○,,始発〜終電,OSMデータ
08a974c4-2777-51ef-a215-bc8013642027,日本橋,東京メトロ銀座線,日本橋駅付近のトイレ,35.6807322,139.7808367,○,,,始発〜終電,OSMデータ
b155310a-f771-51d8-b8b1-9d334e71e5c9,日本橋,東京メトロ銀座線,日本橋駅付近のトイレ (0階),35.6790787,139.7830653,○,○,,始発〜終電,OSMデータ
66abb856-de07-55fa-8e32-646bca453470,日本橋,東京メトロ銀座線,日本橋駅付近のトイレ,35.6761877,139.7791852,○,,,始発〜終電,OSMデータ
84c9512a-2641-5e43-980b-dda954c5cb12,日本橋,東京メトロ銀座線,日本橋駅付近のトイレ,35.6837146,139.7800469,,,,始発〜終電,OSMデータ
c9808e73-404b-5b17-a851-f2830128febc,京橋,東京メトロ銀座線,京橋駅付近のトイレ,35.6704883,139.7708419,,,,始発〜終電,OSMデータ
2fecff8f-afe9-5f7e-bb7d-04de8c5f7c9d,京橋,東京メトロ銀座線,だれでもトイレ,35.6735755,139.7769911,○,,,始発〜終電,OSMデータ
1ac8e9ec-083a-5623-9271-9de4af0d6688,京橋,東京メトロ銀座線,京橋駅付近のトイレ,35.6744012,139.771567,○,,,始発〜終電,OSMデータ
43f02893-88f2-555d-83dc-313d4fccf1e2,虎ノ門,東京メトロ銀座線,虎ノ門駅付近のトイレ,35.6649797,139.7486284,,,,始発〜終電,OSMデータ
3fcd6b87-cd08-5487-9f37-7781ff54355f,虎ノ門,東京メトロ銀座線,虎ノ門駅付近のトイレ,35.6649814,139.7486083,,,,始発〜終電,OSMデータ
f0dda56e-3300-5f9f-b34d-0083f40725ce,虎ノ門,東京メトロ銀座線,虎ノ門駅付近のトイレ,35.6719733,139.747588,,,,始発〜終電,OSMデータ
95c390da-cdf5-591d-8daa-fa0272c1a4af,虎ノ門,東京メトロ銀座線,虎ノ門駅付近のトイレ,35.6697045,139.7485183,,,,始発〜終電,OSMデータ
6d6d2af4-e8bc-5cb2-bba1-d907cfb6a88e,虎ノ門,東京メトロ銀座線,虎ノ門駅付近のトイレ (-1階),35.6728833,139.7508774,,○,,始発〜終電,OSMデータ
63889287-0afd-55d3-99cb-b218023a30f9,虎ノ門,東京メトロ銀座線,虎ノ門駅付近のトイレ (-1階),35.6747153,139.7514683,,,,始発〜終電,OSMデータ
d7d94c67-d082-5cca-8295-0ead6b586582,虎ノ門,東京メトロ銀座線,虎ノ門駅付近のトイレ,35.6743086,139.7452672,,,,始発〜終電,OSMデータ
3f61d32d-d7b6-595f-a390-bd9e27b1e7eb,虎ノ門,東京メトロ銀座線,虎ノ門駅付近のトイレ,35.6736784,139.742097,,,,始発〜終電,OSMデータ
0dfe81fa-5154-54fe-af7f-6b4f51ad101d,虎ノ門,東京メトロ銀座線,虎ノ門駅付近のトイレ,35.6732567,139.7414397,,,,始発〜終電,OSMデータ
a4f94fec-265d-5cf7-a5c4-66783438af43,虎ノ門,東京メトロ銀座線,虎ノ門駅付近のトイレ,35.6714575,139.7421877,,,,始発〜終電,OSMデータ
ce63f576-6496-5333-998d-9418bbe3ac7f,虎ノ門,東京メトロ銀座線,虎ノ門駅付近のトイレ (-1階),35.6701776,139.7502677,○,○,,始発〜終電,OSMデータ
4f7ed9f9-d19d-529d-8826-ddebd52beed5,虎ノ門,東京メトロ銀座線,虎ノ門駅付近のトイレ (1階),35.6650535,139.7441906,,,,始発〜終電,OSMデータ
1f5b73af-fbdf-52fd-8e18-487658ac4134,虎ノ門,東京メトロ銀座線,虎ノ門駅付近のトイレ,35.664428,139.7474972,,,,始発〜終電,OSMデータ
2e0cc5a1-93ac-5324-989f-cd54a956dc20,虎ノ門,東京メトロ銀座線,虎ノ門駅付近のトイレ (-2階),35.6672556,139.7477851,,,,始発〜終電,OSMデータ
3e451907-71bb-5a9c-8f65-1a210fdb5b36,虎ノ門,東京メトロ銀座線,虎ノ門駅付近のトイレ,35.6673634,139.7484409,,,,始発〜終電,OSMデータ
cacf1c2c-b9f3-5d7e-9602-dabb77aa76f9,虎ノ門,東京メトロ銀座線,虎ノ門駅付近のトイレ (-1階),35.667355,139.7479603,,,,始発〜終電,OSMデータ
8a0e3fc9-287b-5e92-be9b-55831366f868,溜池山王,東京メトロ銀座線,溜池山王駅付近のトイレ,35.6709847,139.7335303,,,,始発〜終電,OSMデータ
ad06d6d6-e2aa-59e5-93f8-2350361a3b85,溜池山王,東京メトロ銀座線,溜池山王駅付近のトイレ,35.6658829,139.7361476,,,,始発〜終電,OSMデータ
abe1191d-7b6e-517c-a415-36d4863c3621,溜池山王,東京メトロ銀座線,溜池山王駅付近のトイレ,35.6710206,139.7373974,,,,始発〜終電,OSMデータ
28cd1a65-3ded-5d8f-88ab-d63b7defd5ba,溜池山王,東京メトロ銀座線,溜池山王駅付近のトイレ,35.6678917,139.7365231,,,,始発〜終電,OSMデータ
bfd6708a-e2f4-591a-ba88-646026f9cb86,溜池山王,東京メトロ銀座線,溜池山王駅付近のトイレ,35.6750048,139.7400323,,,,始発〜終電,OSMデータ
9fe15f16-0bf7-5289-ba01-dadbee5fe16a,溜池山王,東京メトロ銀座線,溜池山王駅付近のトイレ,35.6741118,139.7399522,,,,始発〜終電,OSMデータ
355f2b18-929a-5acf-917f-e0da0ccc184c,溜池山王,東京メトロ銀座線,溜池山王駅付近のトイレ (-2階),35.6776538,139.7405407,,○,,始発〜終電,OSMデータ
c3dc1cc2-466d-5cf7-8ac3-645d85e62e34,溜池山王,東京メトロ銀座線,溜池山王駅付近のトイレ (-2階),35.665207,139.738906,,,,始発〜終電,OSMデータ
d7b0f209-689f-50f8-a548-984511acd68f,溜池山王,東京メトロ銀座線,溜池山王駅付近のトイレ (0階),35.6645304,139.7397833,,,,始発〜終電,OSMデータ
03dd6fdb-0939-51e1-a075-20dbcf923214,溜池山王,東京メトロ銀座線,溜池山王駅付近のトイレ,35.6732515,139.7346657,,,,始発〜終電,OSMデータ
bb807125-23ae-58b8-abdc-ee350cb1b730,溜池山王,東京メトロ銀座線,溜池山王駅付近のトイレ (0階),35.6731559,139.7361529,○,,,始発〜終電,OSMデータ
ca09463a-4e85-5883-8fc9-5140f2ef4611,溜池山王,東京メトロ銀座線,溜池山王駅付近のトイレ (-1階),35.6729086,139.7367106,○,,,始発〜終電,OSMデータ
c726331a-a4d0-58cc-97ec-8e44d382d0d4,溜池山王,東京メトロ銀座線,溜池山王駅付近のトイレ (-1階),35.6730142,139.7363692,○,,,始発〜終電,OSMデータ
ab70b7fd-6425-59fe-ae51-20497ce34e51,溜池山王,東京メトロ銀座線,溜池山王駅付近のトイレ (1階),35.6725552,139.7365716,,,,始発〜終電,OSMデータ
d149c0ff-e8eb-594f-bc91-9b64acc86391,溜池山王,東京メトロ銀座線,溜池山王駅付近のトイレ (1階),35.6730835,139.7362645,○,,,始発〜終電,OSMデータ
3a96f1a5-2624-5679-8f25-f19434039c1b,溜池山王,東京メトロ銀座線,溜池山王駅付近のトイレ (1階),35.6726413,139.7366698,,,,始発〜終電,OSMデータ
026dddcc-9529-5083-950f-122011b2c439,溜池山王,東京メトロ銀座線,溜池山王駅付近のトイレ (1階),35.6730071,139.7362403,○,,,始発〜終電,OSMデータ
5efeeb0d-38a1-5756-bc7d-48b015018e31,赤坂見附,東京メトロ銀座線,赤坂見附駅付近のトイレ,35.6809171,139.7357351,,,,始発〜終電,OSMデータ
a7c4e5e6-75e8-5124-8a00-b21931b4fdc9,赤坂見附,東京メトロ銀座線,赤坂見附駅付近のトイレ (-1階),35.6777812,139.7368208,○,○,,始発〜終電,OSMデータ
3e48c5b9-2775-56a9-aa17-338adc54f605,赤坂見附,東京メトロ銀座線,赤坂見附駅付近のトイレ,35.6740798,139.7289001,,,,始発〜終電,OSMデータ
e5cc4a28-9f96-544d-866d-b588938f6851,青山一丁目,東京メトロ銀座線,青山一丁目駅付近のトイレ,35.6685369,139.7210245,,,,始発〜終電,OSMデータ
c8d715c6-fc77-5228-a3c6-a9c0a61f3a65,青山一丁目,東京メトロ銀座線,港区立ラグビー場前公衆便所,35.6724796,139.7168962,○,,,始発〜終電,OSMデータ
5e85191d-8363-5432-8eff-4c27415f8270,青山一丁目,東京メトロ銀座線,青山一丁目駅付近のトイレ,35.6709966,139.7246264,,,,始発〜終電,OSMデータ
0576a268-93f3-516c-bd46-4adb54dbca78,青山一丁目,東京メトロ銀座線,青山一丁目駅付近のトイレ,35.6685668,139.7303917,,,,始発〜終電,OSMデータ
150522f0-67b6-5bd8-9189-b108633e672f,青山一丁目,東京メトロ銀座線,青山一丁目駅付近のトイレ,35.6685637,139.7206727,,,,始発〜終電,OSMデータ
ea633b77-9a65-5251-ae02-1c5786ce50a9,青山一丁目,東京メトロ銀座線,青山一丁目駅付近のトイレ,35.6695796,139.7194138,,,,始発〜終電,OSMデータ
c2c8c588-c886-5a09-8492-e692fe046dc8,青山一丁目,東京メトロ銀座線,青山一丁目駅付近のトイレ,35.6681269,139.7276647,,,,始発〜終電,OSMデータ
56c8620a-b286-50ca-86e4-f1b0cf752eb4,外苑前,東京メトロ銀座線,外苑前駅付近のトイレ,35.6651088,139.7120725,,,,始発〜終電,OSMデータ
cfb8bb7d-16e7-564e-858c-34f2a2741214,外苑前,東京メトロ銀座線,外苑前駅付近のトイレ,35.664863,139.7226137,○,,,始発〜終電,OSMデータ
1d6d6487-56d4-5b30-b05d-c0b9ea75ef66,外苑前,東京メトロ銀座線,外苑前駅付近のトイレ (-2階),35.6649107,139.7123205,,○,,始発〜終電,OSMデータ
c42dc4de-880d-57ca-a76d-9086125ec6a7,外苑前,東京メトロ銀座線,外苑前駅付近のトイレ (-1階),35.6656747,139.7113949,,,,始発〜終電,OSMデータ
0c28280c-a5c6-53fd-a8fc-7eb6c77e298c,新大塚,東京メトロ丸ノ内線,猫又橋際公衆便所,35.7240516,139.7378008,,,,始発〜終電,OSMデータ
1bea7071-aa88-5308-9a01-876b119a4bcb,新大塚,東京メトロ丸ノ内線,新大塚駅付近のトイレ,35.723541,139.7226215,○,,,始発〜終電,OSMデータ
7161601f-b759-5d2c-ab1c-71b365a63851,新大塚,東京メトロ丸ノ内線,新大塚駅付近のトイレ,35.7205524,139.7353737,,,,始発〜終電,OSMデータ
22a633c1-1b42-5b70-be2a-087674fb847c,新大塚,東京メトロ丸ノ内線,新大塚駅付近のトイレ,35.7204135,139.7353164,○,○,,始発〜終電,OSMデータ
d54048c3-30b5-5e9f-9be2-53459b24bf70,新大塚,東京メトロ丸ノ内線,新大塚駅付近のトイレ,35.7192987,139.7295026,,,,始発〜終電,OSMデータ
2caf7159-c7f9-5e56-86ce-f5c7029d34a1,新大塚,東京メトロ丸ノ内線,新大塚駅付近のトイレ,35.7205406,139.7353599,,,,始発〜終電,OSMデータ
76e79e06-daf9-59c9-9137-1d4e1337046a,新大塚,東京メトロ丸ノ内線,新大塚駅付近のトイレ,35.7271219,139.7219868,,,,始発〜終電,OSMデータ
6edae48e-ab1c-5cc9-aa23-27581dcbd4e0,新大塚,東京メトロ丸ノ内線,新大塚駅付近のトイレ,35.7213714,139.7254741,,,,始発〜終電,OSMデータ
c7c08147-1ef7-5fe1-a53c-a50197018486,新大塚,東京メトロ丸ノ内線,新大塚駅付近のトイレ,35.7202893,139.7270613,,,,始発〜終電,OSMデータ
7647ccf9-1efd-5010-bb2b-742aa6c46848,茗荷谷,東京メトロ丸ノ内線,茗荷谷駅付近のトイレ,35.7163027,139.7415356,,,,始発〜終電,OSMデータ
1b364272-8a83-5f44-9b12-3fd3a4d5f328,茗荷谷,東京メトロ丸ノ内線,茗荷谷駅付近のトイレ,35.7183482,139.7310528,,,,始発〜終電,OSMデータ
1d8ea199-3da0-598c-af37-92ac6a5eafc2,茗荷谷,東京メトロ丸ノ内線,茗荷谷駅付近のトイレ,35.7175601,139.7294287,,,,始発〜終電,OSMデータ
8f3dd5e1-16fd-5f72-b5cb-e4b8c94ec6bb,茗荷谷,東京メトロ丸ノ内線,茗荷谷駅付近のトイレ,35.7119275,139.7373684,,,,始発〜終電,OSMデータ
480dfbb7-0e31-5bbb-9cbe-7ab8073e4596,茗荷谷,東京メトロ丸ノ内線,茗荷谷駅付近のトイレ,35.7193253,139.7362889,,,,始発〜終電,OSMデータ
6d5702ee-f1cc-59f7-848c-5eb6dd7a9a55,茗荷谷,東京メトロ丸ノ内線,茗荷谷駅付近のトイレ,35.7138818,139.7363462,,,,始発〜終電,OSMデータ
27c89209-c309-59bc-b8e0-d351ea107c43,茗荷谷,東京メトロ丸ノ内線,茗荷谷駅付近のトイレ,35.717456,139.7332154,,○,,始発〜終電,OSMデータ
8f0031ef-6e22-512f-90b0-906f79571836,茗荷谷,東京メトロ丸ノ内線,茗荷谷駅付近のトイレ,35.7178375,139.7450351,,,,始発〜終電,OSMデータ
af1ec7d2-ddbe-5f53-8195-725ce3af3ccd,茗荷谷,東京メトロ丸ノ内線,茗荷谷駅付近のトイレ,35.7158307,139.7435945,,,,始発〜終電,OSMデータ
e1a90764-56fd-58dc-92c3-d7c10e0e9497,茗荷谷,東京メトロ丸ノ内線,茗荷谷駅付近のトイレ,35.7155902,139.744126,,,,始発〜終電,OSMデータ
996d367f-c26d-5106-a333-db10b253c60f,茗荷谷,東京メトロ丸ノ内線,茗荷谷駅付近のトイレ,35.720304,139.7424209,○,,,始発〜終電,OSMデータ
e895f71e-0796-5b41-950c-d42e97b474f3,茗荷谷,東京メトロ丸ノ内線,茗荷谷駅付近のトイレ,35.7199606,139.7389428,,,,始発〜終電,OSMデータ
69887a61-c7f6-5619-9935-814e465e6f65,後楽園,東京メトロ丸ノ内線,後楽園駅付近のトイレ,35.7095162,139.7480124,○,,,始発〜終電,OSMデータ
f43451b7-49cd-56e6-a3e5-c3e6d3b7acea,後楽園,東京メトロ丸ノ内線,後楽園駅付近のトイレ,35.7134197,139.7507237,,,,始発〜終電,OSMデータ
f9286f1a-4fcf-5007-83a3-fdc58e9b344a,後楽園,東京メトロ丸ノ内線,後楽園駅付近のトイレ (-5階),35.7086669,139.7517696,,○,,始発〜終電,OSMデータ
70c4c9e0-3eef-5bd2-8aa2-15a442f79d25,本郷三丁目,東京メトロ丸ノ内線,本郷三丁目駅付近のトイレ,35.710763,139.7605462,○,,,始発〜終電,OSMデータ
a500df9e-e768-5772-a7d4-16cdc3ea7c36,大手町,東京メトロ丸ノ内線,大手町駅付近のトイレ,35.6866431,139.756446,○,,,始発〜終電,OSMデータ
b0f730c0-b74d-551a-a7e5-195a1d58c35a,大手町,東京メトロ丸ノ内線,大手町駅付近のトイレ,35.6890292,139.7579129,,,,始発〜終電,OSMデータ
5f8a507d-2b9f-5dc7-9bf7-a8295bafc66c,大手町,東京メトロ丸ノ内線,大手町駅付近のトイレ (2階),35.6909746,139.7579778,,,,始発〜終電,OSMデータ
1a69876b-9d06-5156-a3bb-8f589b9da3b5,大手町,東京メトロ丸ノ内線,大手町駅付近のトイレ (-1階),35.6907198,139.7579172,,,,始発〜終電,OSMデータ
aaae461a-418e-593c-bc32-07775b540580,大手町,東京メトロ丸ノ内線,大手町駅付近のトイレ,35.6866033,139.7580433,○,,,始発〜終電,OSMデータ
0153d68f-190e-589a-be9c-6848d1502a0b,大手町,東京メトロ丸ノ内線,大手町駅付近のトイレ,35.6914442,139.7586584,,,,始発〜終電,OSMデータ
2269967d-7ecc-5293-abfd-9e13045b5e26,四谷三丁目,東京メトロ丸ノ内線,四谷三丁目駅トイレ(代表),35.6877469,139.7201721,○,○,,始発〜終電,駅中心座標(詳細位置不明)
5985d0b6-5c90-5023-bbe1-39516ced5c4d,新宿御苑前,東京メトロ丸ノ内線,新宿御苑前駅付近のトイレ,35.690642,139.7113538,,,,始発〜終電,OSMデータ
56b6a074-ff69-5655-876b-9b84102c5580,新宿御苑前,東京メトロ丸ノ内線,新宿御苑前駅付近のトイレ,35.693088,139.7140856,○,,,始発〜終電,OSMデータ
3abf170b-6f98-57de-83ab-482b88efd705,新宿御苑前,東京メトロ丸ノ内線,新宿御苑前駅付近のトイレ,35.6889942,139.7132831,○,○,,始発〜終電,OSMデータ
6e7d76ff-4cb4-5250-9154-8f5ba3123636,新宿御苑前,東京メトロ丸ノ内線,新宿御苑前駅付近のトイレ,35.6902327,139.7092399,,,,始発〜終電,OSMデータ
d135ba0b-60eb-50ba-a371-3d1cf7c2caaa,新宿御苑前,東京メトロ丸ノ内線,新宿御苑前駅付近のトイレ,35.6881224,139.7160473,,,,始発〜終電,OSMデータ
86997eaa-d034-521e-b006-426d3443e0ed,新宿御苑前,東京メトロ丸ノ内線,新宿御苑前駅付近のトイレ,35.6904588,139.7159291,,,,始発〜終電,OSMデータ
aa2549f1-c4ef-5c6e-9624-039205e5c69f,新宿三丁目,東京メトロ丸ノ内線,新宿三丁目駅付近のトイレ,35.6959874,139.7109821,,,,始発〜終電,OSMデータ
7f6fa92c-c5a1-5371-bf6e-030d31b540d5,西新宿,東京メトロ丸ノ内線,西新宿駅付近のトイレ,35.6937113,139.6867153,,,,始発〜終電,OSMデータ
52d49855-72b2-5c9d-9f7f-a804841cad2d,西新宿,東京メトロ丸ノ内線,西新宿駅付近のトイレ,35.6985631,139.6909248,,,,始発〜終電,OSMデータ
28230405-4da0-57f4-ab33-f70d8640911f,西新宿,東京メトロ丸ノ内線,西新宿駅付近のトイレ,35.6971414,139.6888128,,,,始発〜終電,OSMデータ
1a59cd95-aa49-5e95-9ab4-cba36bcec2ff,西新宿,東京メトロ丸ノ内線,水の広場リンレイトイレ,35.6903487,139.6897496,○,,,始発〜終電,OSMデータ
4d15561e-d229-5c1a-a987-67a0ce257d6a,西新宿,東京メトロ丸ノ内線,西新宿駅付近のトイレ,35.6915407,139.6895665,,,,始発〜終電,OSMデータ
805ba2e8-39e7-5bb8-899b-73de6708894e,西新宿,東京メトロ丸ノ内線,西新宿駅付近のトイレ,35.6893524,139.6888664,,,,始発〜終電,OSMデータ
bf388edc-af87-5154-b36a-0c15b0cdaeb3,西新宿,東京メトロ丸ノ内線,西新宿駅付近のトイレ,35.6909807,139.6881192,,,,始発〜終電,OSMデータ
d0d5ff6f-ec29-5b9d-b3d4-3af2fb125b3e,中野坂上,東京メトロ丸ノ内線,中野坂上駅付近のトイレ (-1階),35.69695,139.6808851,,,,始発〜終電,OSMデータ
a78707f3-c919-5637-8ecd-71042e038942,中野坂上,東京メトロ丸ノ内線,中野坂上駅付近のトイレ,35.7036276,139.6862937,,,,始発〜終電,OSMデータ
6aba67c6-7a3f-5533-af1a-061c67141257,中野坂上,東京メトロ丸ノ内線,中野坂上駅付近のトイレ (-3階),35.6970027,139.6808249,,,,始発〜終電,OSMデータ
1dcec2ab-8e86-5245-bf18-685b09ac1d23,中野坂上,東京メトロ丸ノ内線,中野坂上駅付近のトイレ,35.69422,139.6826173,,,,始発〜終電,OSMデータ
6472cc02-fc0c-567a-8186-128973f7b640,中野坂上,東京メトロ丸ノ内線,中野坂上駅付近のトイレ,35.6941376,139.6777475,○,,,始発〜終電,OSMデータ
a6f6bbf8-db94-5109-907e-578af2e3ede9,新中野,東京メトロ丸ノ内線,新中野駅付近のトイレ,35.697,139.66725,,,,始発〜終電,OSMデータ
ef43b7ee-67b7-504b-9058-b6049f70dab9,新中野,東京メトロ丸ノ内線,新中野駅付近のトイレ,35.6917661,139.6691609,,,,始発〜終電,OSMデータ
20f003d8-41ba-57c8-90f8-5ac4b6e82f12,新中野,東京メトロ丸ノ内線,新中野駅付近のトイレ,35.6931983,139.6745259,,,,始発〜終電,OSMデータ
14b66fb1-4a12-5326-a219-fde039aefaa2,新中野,東京メトロ丸ノ内線,新中野駅付近のトイレ,35.6920305,139.6706588,,,,始発〜終電,OSMデータ
0c3e9eff-be69-5de1-b83d-6354690b2ced,東高円寺,東京メトロ丸ノ内線,東高円寺駅付近のトイレ,35.6948324,139.654079,,,,始発〜終電,OSMデータ
75ee3eee-d773-58a5-a1bf-c9804c346b0a,東高円寺,東京メトロ丸ノ内線,東高円寺駅付近のトイレ,35.6956577,139.6539927,,,,始発〜終電,OSMデータ
55253bc7-d89c-5d19-9049-ad4a2eafcc0f,東高円寺,東京メトロ丸ノ内線,東高円寺駅付近のトイレ,35.6976737,139.6560443,,,,始発〜終電,OSMデータ
dd8be904-e398-5b0c-bc88-5fdb72b9200f,東高円寺,東京メトロ丸ノ内線,東高円寺駅付近のトイレ,35.6967483,139.6563899,,,,始発〜終電,OSMデータ
a5af42c2-ac03-53fc-9fcd-fdc6f0bc04dd,東高円寺,東京メトロ丸ノ内線,東高円寺駅付近のトイレ,35.6978449,139.6576607,,,,始発〜終電,OSMデータ
a59a95a6-dbe4-56e2-ab0a-43254c782687,新高円寺,東京メトロ丸ノ内線,新高円寺駅付近のトイレ,35.6990738,139.6454091,,,,始発〜終電,OSMデータ
49838b70-6e46-58d7-b26d-0b49f324069c,新高円寺,東京メトロ丸ノ内線,妙法寺境内公衆便所,35.6918302,139.6516984,,,,始発〜終電,OSMデータ
7f2550f9-9a63-5b3d-a8a5-6ae4939caaa8,南阿佐ケ谷,東京メトロ丸ノ内線,南阿佐ケ谷駅付近のトイレ,35.6924918,139.6332829,○,,,始発〜終電,OSMデータ
6655076e-bd9d-536f-a681-b125cf35dc7d,南阿佐ケ谷,東京メトロ丸ノ内線,南阿佐ケ谷駅付近のトイレ,35.6983124,139.629209,,,,始発〜終電,OSMデータ
f2b45255-a0bd-5303-bd92-c85fd61de6f0,南阿佐ケ谷,東京メトロ丸ノ内線,南阿佐ケ谷駅付近のトイレ,35.6925733,139.6346672,,,,始発〜終電,OSMデータ
792666c3-2ab5-5901-a433-1974b65c4a5e,南阿佐ケ谷,東京メトロ丸ノ内線,南阿佐ケ谷駅付近のトイレ,35.6957837,139.6356852,,,,始発〜終電,OSMデータ
a572667d-95c4-58dc-9053-52d1b1fd57ba,北千住,東京メトロ日比谷線,北千住駅付近のトイレ,35.7566824,139.8056739,,,,始発〜終電,OSMデータ
58566e95-764d-5365-adee-0f4565da3662,北千住,東京メトロ日比谷線,千住旭公園 公衆トイレ,35.7504819,139.8090733,,,,始発〜終電,OSMデータ
14bdd773-5b9d-5671-a3ed-c0cbb1e93175,北千住,東京メトロ日比谷線,北千住駅付近のトイレ,35.7539498,139.8100425,,,,始発〜終電,OSMデータ
58c08f5a-7065-5c3a-9e28-4bc6f5479944,北千住,東京メトロ日比谷線,北千住駅付近のトイレ,35.7513324,139.8127665,,,,始発〜終電,OSMデータ
50f4fd5c-01a8-5ce9-b7e5-984a94774829,北千住,東京メトロ日比谷線,北千住駅付近のトイレ,35.7506189,139.8057208,,,,始発〜終電,OSMデータ
25c79243-9b69-5390-b3d9-6f3d03aadcf7,北千住,東京メトロ日比谷線,北千住駅付近のトイレ,35.7525039,139.804708,,,,始発〜終電,OSMデータ
5d6bec9e-2981-54ce-a5bb-c4e567cc582c,北千住,東京メトロ日比谷線,北千住駅付近のトイレ,35.7436384,139.8015787,○,,,始発〜終電,OSMデータ
73eb7125-3a72-5839-b45b-c9474ecc1e3d,北千住,東京メトロ日比谷線,北千住駅付近のトイレ,35.7470181,139.7997852,,,,始発〜終電,OSMデータ
53da7cbd-9df7-557f-8224-04c976fb0b16,北千住,東京メトロ日比谷線,北千住駅付近のトイレ,35.7516942,139.796153,,,,始発〜終電,OSMデータ
77475d4a-e0ad-5fa5-9f5e-383848de26a6,北千住,東京メトロ日比谷線,北千住駅付近のトイレ,35.7525068,139.8047001,,,,始発〜終電,OSMデータ
de082aea-71aa-586a-b50a-34daf6f61b20,南千住,東京メトロ日比谷線,南千住駅付近のトイレ,35.735816,139.801769,,,,始発〜終電,OSMデータ
5081cdd4-3469-5520-b0f5-9c403c1327b2,南千住,東京メトロ日比谷線,三ノ輪二丁目公衆トイレ,35.7303249,139.7923844,,,,始発〜終電,OSMデータ
06eee099-a70e-50c5-a9d5-16177c10ae53,南千住,東京メトロ日比谷線,南千住駅付近のトイレ,35.7346445,139.7950856,,,,始発〜終電,OSMデータ
5069ef89-518d-5325-a966-9fec61fbcf19,南千住,東京メトロ日比谷線,南千住駅付近のトイレ,35.7360352,139.8047909,,,,始発〜終電,OSMデータ
336f0abd-867f-59b5-84f0-841f27c627e4,南千住,東京メトロ日比谷線,南千住駅付近のトイレ,35.7329,139.7999951,,,,始発〜終電,OSMデータ
617c6de7-86bb-52f4-86ad-b6d34b48d0b5,南千住,東京メトロ日比谷線,南千住駅付近のトイレ,35.7316807,139.7983489,,,,始発〜終電,OSMデータ
4f617ee4-b7c1-5900-9b43-e39b4aeefd2a,南千住,東京メトロ日比谷線,南千住駅付近のトイレ,35.7368506,139.7962765,,,,始発〜終電,OSMデータ
391779d8-21f7-5417-85bc-885939163ab7,南千住,東京メトロ日比谷線,南千住駅付近のトイレ,35.7336648,139.7904433,,,,始発〜終電,OSMデータ
a90aed0b-eeb8-5aac-8984-ff39d5773798,南千住,東京メトロ日比谷線,南千住駅付近のトイレ,35.7334123,139.7923394,,,,始発〜終電,OSMデータ
6e987912-3379-5b53-9f65-86f98889055b,南千住,東京メトロ日比谷線,南千住駅付近のトイレ,35.7321213,139.7917672,,,,始発〜終電,OSMデータ
c5165b70-a4bb-5d98-a261-cd3d83569471,南千住,東京メトロ日比谷線,南千住駅付近のトイレ,35.7285336,139.7928646,○,,,始発〜終電,OSMデータ
2d2d85b2-34b1-5db2-aa72-14a68ad24827,南千住,東京メトロ日比谷線,Kiyokawa-Nichome Toilet,35.7272189,139.8027915,,,,始発〜終電,OSMデータ
3e96769b-a651-5060-b2be-10251823f6a5,南千住,東京メトロ日比谷線,南千住駅付近のトイレ,35.738343,139.7952959,,,,始発〜終電,OSMデータ
0f6c6ec6-ab97-591a-9486-b90fcbb117fa,三ノ輪,東京メトロ日比谷線,三ノ輪駅付近のトイレ,35.7256594,139.7855461,,,,始発〜終電,OSMデータ
f027ef80-fd81-5545-819a-746d739365b8,三ノ輪,東京メトロ日比谷線,三ノ輪駅付近のトイレ,35.7329882,139.7861056,,,,始発〜終電,OSMデータ
de972ad8-c5fa-56eb-b31c-8e3c956f63d6,三ノ輪,東京メトロ日比谷線,三ノ輪駅付近のトイレ,35.730434,139.7892603,,,,始発〜終電,OSMデータ
fab46044-b9e9-5a16-91bf-9aaba646783d,三ノ輪,東京メトロ日比谷線,三ノ輪交番裏公衆トイレ,35.7283671,139.7905769,,,,始発〜終電,OSMデータ
d0662d0b-08a9-50e0-bb8e-4e123af49700,三ノ輪,東京メトロ日比谷線,三ノ輪駅付近のトイレ,35.7248159,139.7953948,,,,始発〜終電,OSMデータ
b36a42b6-0648-53ea-9ed7-796fa18e7a38,三ノ輪,東京メトロ日比谷線,三ノ輪駅付近のトイレ,35.7255995,139.7925736,,,,始発〜終電,OSMデータ
559280ef-e5c2-5b2f-b559-5487687d5045,入谷,東京メトロ日比谷線,入谷駅付近のトイレ,35.7223161,139.7915713,,,,始発〜終電,OSMデータ
410ce654-3442-5fc9-a30b-5703eccefe15,入谷,東京メトロ日比谷線,入谷駅付近のトイレ,35.7206559,139.7913766,,,,始発〜終電,OSMデータ
b171e653-a449-5eda-9eff-198a3e85d005,小伝馬町,東京メトロ日比谷線,小伝馬町駅付近のトイレ,35.6880877,139.784562,,,,始発〜終電,OSMデータ
e34739af-9044-519e-b08c-87543c6fd98d,小伝馬町,東京メトロ日比谷線,小伝馬町駅付近のトイレ,35.6920837,139.784311,,,,始発〜終電,OSMデータ
54bdcddd-7f76-5cec-85c9-1e604f79146a,人形町,東京メトロ日比谷線,浜町緑道内公衆便所,35.6864652,139.7860935,○,,,始発〜終電,OSMデータ
f52e5537-946b-5679-8d60-6264febf6681,人形町,東京メトロ日比谷線,菖蒲橋際公衆便所,35.6836388,139.7896822,,,,始発〜終電,OSMデータ
bfd59194-ed25-50b9-9a4f-19dc997c6fa0,人形町,東京メトロ日比谷線,人形町駅付近のトイレ,35.6824746,139.7890974,,○,,始発〜終電,OSMデータ
47619d8b-37f5-5dd7-9cfb-4df931033fed,人形町,東京メトロ日比谷線,人形町駅付近のトイレ,35.6824126,139.789176,○,,,始発〜終電,OSMデータ
c2eecfd7-bcbe-5d1a-927e-315bc68aea4e,人形町,東京メトロ日比谷線,人形町駅付近のトイレ (1階),35.6818848,139.7874941,○,,,始発〜終電,OSMデータ
cd092070-b041-5da2-afb9-e4be55025ce8,人形町,東京メトロ日比谷線,人形町駅付近のトイレ,35.680813,139.7851254,,,,始発〜終電,OSMデータ
e9f3ac2e-7e5e-5edf-bd4c-e01735bb4862,人形町,東京メトロ日比谷線,人形町駅付近のトイレ,35.6828398,139.7872832,,,,始発〜終電,OSMデータ
360d75d0-0701-54d5-acb3-3902f517f82a,人形町,東京メトロ日比谷線,人形町駅付近のトイレ,35.6884283,139.7884077,,,,始発〜終電,OSMデータ
85ad500e-b339-5b43-802a-07c19409b63b,茅場町,東京メトロ日比谷線,茅場町駅付近のトイレ,35.6776397,139.787104,,,,始発〜終電,OSMデータ
2091c15c-782c-5b9a-a837-d2dd73c823c5,茅場町,東京メトロ日比谷線,茅場町駅付近のトイレ,35.6763444,139.7849325,○,,,始発〜終電,OSMデータ
8fe23ce4-b367-5167-80d4-c13c5fd1d9ca,茅場町,東京メトロ日比谷線,茅場町駅付近のトイレ,35.6747974,139.7803358,,,,始発〜終電,OSMデータ
5f70d82a-6cfc-526f-81d5-44fc4fe362f6,茅場町,東京メトロ日比谷線,茅場町駅付近のトイレ,35.6764163,139.7827357,○,,,始発〜終電,OSMデータ
bbaa2ab3-2330-50a0-84cf-78c3310b78fa,茅場町,東京メトロ日比谷線,茅場町駅付近のトイレ,35.6755558,139.7861637,○,,,始発〜終電,OSMデータ
6c836865-d2fe-5c76-8046-82085f39d5e6,茅場町,東京メトロ日比谷線,茅場町駅付近のトイレ,35.6748085,139.7803353,,,,始発〜終電,OSMデータ
c8ff0d4b-a38b-5c23-9b3d-acae8ea494a5,八丁堀,東京メトロ日比谷線,八丁堀駅付近のトイレ,35.6718635,139.7793935,,,,始発〜終電,OSMデータ
67de95b1-46c4-5936-a248-0c6f8021cd50,八丁堀,東京メトロ日比谷線,八丁堀駅付近のトイレ,35.6678452,139.7745483,○,,,始発〜終電,OSMデータ
0d09da35-d8ff-5e70-84f4-6ce6e3752dc2,八丁堀,東京メトロ日比谷線,八丁堀駅付近のトイレ,35.6683613,139.7801301,,,,始発〜終電,OSMデータ
0b80e5cb-35b6-53c9-bb30-67d8dd6d9428,八丁堀,東京メトロ日比谷線,八丁堀駅付近のトイレ,35.6696054,139.7755154,,,,始発〜終電,OSMデータ
6064b673-11e3-52dc-bfdb-431dfa79ef42,築地,東京メトロ日比谷線,門跡橋東公衆便所,35.6653534,139.772148,○,○,,始発〜終電,OSMデータ
39b5bfbc-f6be-59e6-9977-24e704109a12,築地,東京メトロ日比谷線,勝どき橋西詰公衆便所,35.6633345,139.773639,,,,始発〜終電,OSMデータ
49976e17-2387-5b51-8315-f45d1a777f94,築地,東京メトロ日比谷線,築地駅付近のトイレ,35.6663227,139.773418,,,,始発〜終電,OSMデータ
e2e08f40-6fe9-51ac-8514-97599cc9d64e,築地,東京メトロ日比谷線,築地駅付近のトイレ,35.664136,139.7748563,,,,始発〜終電,OSMデータ
09f87240-8161-5d68-a4df-8f1d75f2abed,築地,東京メトロ日比谷線,中央市場脇公衆便所,35.6650899,139.7691524,,,,始発〜終電,OSMデータ
613c15e5-c573-54a9-b4aa-2e29fa92be82,築地,東京メトロ日比谷線,築地駅付近のトイレ,35.6659935,139.7687383,,,,始発〜終電,OSMデータ
210138a8-735d-5aeb-8a5e-056f3ef975df,築地,東京メトロ日比谷線,築地駅付近のトイレ,35.6666849,139.7759076,○,,,始発〜終電,OSMデータ
7a043310-2fa8-58e7-b782-641cb901aca8,神谷町,東京メトロ日比谷線,神谷町駅付近のトイレ,35.6580393,139.739002,,,,始発〜終電,OSMデータ
4cb26a53-eab2-59c6-b84a-b63564c8845c,神谷町,東京メトロ日比谷線,神谷町駅付近のトイレ,35.6611536,139.74273,,,,始発〜終電,OSMデータ
cebd2bfb-5a4f-5e0b-a2d1-1abc78af2a35,神谷町,東京メトロ日比谷線,神谷町駅付近のトイレ,35.659777,139.747426,,,,始発〜終電,OSMデータ
e63bf56a-ae7f-537e-a5d9-839687f70fa3,神谷町,東京メトロ日比谷線,永坂上公衆便所,35.6608165,139.7373274,,,,始発〜終電,OSMデータ
98ac733e-0069-5777-8c70-326e42077527,神谷町,東京メトロ日比谷線,神谷町駅付近のトイレ,35.6571643,139.748556,,,,始発〜終電,OSMデータ
4ccbce9c-a5d9-5527-a06d-4a893a498690,神谷町,東京メトロ日比谷線,神谷町駅付近のトイレ,35.6601379,139.7499131,○,,,始発〜終電,OSMデータ
41366ccc-799c-5d18-b707-dd8f8b8cac6c,六本木,東京メトロ日比谷線,六本木駅付近のトイレ,35.6587302,139.729083,,,,始発〜終電,OSMデータ
173940ee-849c-5fc3-b2b7-b62fda98009b,六本木,東京メトロ日比谷線,六本木駅付近のトイレ,35.6642477,139.7248618,,,,始発〜終電,OSMデータ
5c0be4a6-a181-55df-85d6-1240b55f779b,六本木,東京メトロ日比谷線,六本木駅付近のトイレ,35.66268,139.735088,,,,始発〜終電,OSMデータ
3030e989-d752-5c40-8dcb-927317bd0cae,六本木,東京メトロ日比谷線,六本木駅付近のトイレ,35.6649375,139.7269079,,,,始発〜終電,OSMデータ
7f5c4f63-7584-5fbe-a0a5-4ae1752d1144,六本木,東京メトロ日比谷線,六本木駅付近のトイレ,35.6632999,139.7297724,,,,始発〜終電,OSMデータ
6df1773f-79e3-5c7d-be4c-87bc41c56bf1,六本木,東京メトロ日比谷線,六本木駅付近のトイレ,35.6669574,139.733189,○,,,始発〜終電,OSMデータ
bce875f8-b78e-599b-9ebc-3f89e6c3c68a,六本木,東京メトロ日比谷線,六本木駅付近のトイレ,35.6624138,139.7346566,,,,始発〜終電,OSMデータ
3adeadda-1835-5c62-866e-3eb4afa1888c,六本木,東京メトロ日比谷線,六本木駅付近のトイレ (0階),35.6640203,139.7272236,,,,始発〜終電,OSMデータ
ff396253-24ab-5da2-bb44-8ea454cd2979,六本木,東京メトロ日比谷線,六本木駅付近のトイレ,35.6644556,139.7338746,,,,始発〜終電,OSMデータ
1aefd631-b496-5650-9b5b-340514811714,六本木,東京メトロ日比谷線,六本木駅付近のトイレ (0階),35.6635929,139.7272137,,,,始発〜終電,OSMデータ
62fe30a7-0821-5d05-8268-239cf0742173,六本木,東京メトロ日比谷線,六本木駅付近のトイレ,35.6602309,139.7300032,,,,始発〜終電,OSMデータ
e832cab8-1329-5d4e-9232-f25a098518cb,六本木,東京メトロ日比谷線,六本木駅付近のトイレ (1階),35.6606075,139.7284388,,,,始発〜終電,OSMデータ
cb24c9ee-9d57-5768-9810-0ab29e815351,六本木,東京メトロ日比谷線,六本木駅付近のトイレ (1階),35.6603334,139.7293503,○,,,始発〜終電,OSMデータ
6fe9ca3f-f3b6-5bd7-b176-27d5ba168746,六本木,東京メトロ日比谷線,六本木駅付近のトイレ (1階),35.6595605,139.7286177,,,,始発〜終電,OSMデータ
e0956857-d6c7-565d-88ea-e52070ca4dec,六本木,東京メトロ日比谷線,六本木駅付近のトイレ (1階),35.6602284,139.7294318,○,,,始発〜終電,OSMデータ
dac1891f-a4b7-57c8-94d2-d030eaf383bc,六本木,東京メトロ日比谷線,六本木駅付近のトイレ,35.6621802,139.7330032,,,,始発〜終電,OSMデータ
17c223d2-47de-5e39-901c-b505ac0a0aaf,広尾,東京メトロ日比谷線,仙台坂上公衆便所,35.651827,139.730603,,,,始発〜終電,OSMデータ
a373c404-6cf8-507a-ae91-0f66f437d724,広尾,東京メトロ日比谷線,広尾駅付近のトイレ,35.6513933,139.7245333,,○,,始発〜終電,OSMデータ
98b11632-c5c9-55c6-bd1d-87b8558b6ef4,広尾,東京メトロ日比谷線,広尾駅付近のトイレ,35.6512537,139.7263943,,,,始発〜終電,OSMデータ
724638c1-0427-53de-a7a7-31191eb237f8,広尾,東京メトロ日比谷線,広尾駅付近のトイレ,35.6566065,139.7239413,,,,始発〜終電,OSMデータ
577537fc-d0e6-5c56-ae39-4605d5ce6ed5,広尾,東京メトロ日比谷線,広尾駅付近のトイレ,35.6495669,139.720698,○,,,始発〜終電,OSMデータ
2292d754-505b-5ade-9e02-5d5a86a31c55,広尾,東京メトロ日比谷線,広尾駅付近のトイレ,35.6518261,139.7201479,,,,始発〜終電,OSMデータ
702d5fe5-4c09-5a2a-ad51-dcca29733e96,広尾,東京メトロ日比谷線,広尾駅付近のトイレ,35.6518196,139.7199639,,,,始発〜終電,OSMデータ
0a57284c-dab9-5bbc-ad5c-f055799d96db,広尾,東京メトロ日比谷線,広尾公園,35.64807,139.7220046,,,,始発〜終電,OSMデータ
4a13cfd5-1019-5375-9c2e-77ad50991491,広尾,東京メトロ日比谷線,広尾児童遊園地,35.6495666,139.7206953,○,○,,始発〜終電,OSMデータ
4d32f5db-8467-534c-a8d3-060da4c538a9,広尾,東京メトロ日比谷線,豊沢児童遊園地,35.6468719,139.7192588,,,,始発〜終電,OSMデータ
0f36bcbb-86a6-56e2-97f8-90033ad33830,広尾,東京メトロ日比谷線,広尾駅付近のトイレ,35.6533634,139.7261395,,,,始発〜終電,OSMデータ
36607163-741f-51f6-b7ef-2a8d4574f619,広尾,東京メトロ日比谷線,広尾駅付近のトイレ,35.6546715,139.7300704,○,○,,始発〜終電,OSMデータ
7127fc98-4085-55e3-bd04-616177cfa251,広尾,東京メトロ日比谷線,広尾北公園,35.6563663,139.7198818,○,,○,始発〜終電,OSMデータ
e74c7717-31c7-5ea6-8042-be7c1e29b61f,広尾,東京メトロ日比谷線,広尾駅付近のトイレ,35.6533147,139.7211257,,○,,始発〜終電,OSMデータ
90c4b041-d4d9-594c-b7f3-41d0df79ff4f,広尾,東京メトロ日比谷線,臨川四季の森,35.6486239,139.7189848,○,,○,始発〜終電,OSMデータ
2661387d-3569-524a-b630-0c053e279b74,中目黒,東京メトロ日比谷線,中目黒駅付近のトイレ,35.6415128,139.7021545,,,,始発〜終電,OSMデータ
3781c17a-a407-5ebf-b1ab-96b6d6a3fdd2,中目黒,東京メトロ日比谷線,Public Restrooms,35.650734,139.69642,,,,始発〜終電,OSMデータ
51acc2fd-6ad7-50e9-96c8-d5e2cae097ad,中目黒,東京メトロ日比谷線,中目黒駅付近のトイレ,35.6430422,139.6978829,○,,,始発〜終電,OSMデータ
0bbc5b49-547a-576e-b74f-4f63c88d7e8d,中目黒,東京メトロ日比谷線,中目黒駅付近のトイレ (0階),35.6446294,139.699487,○,,,始発〜終電,OSMデータ
4e906fd7-c4e2-5533-bb98-4842d1d1a66e,中目黒,東京メトロ日比谷線,中目黒駅付近のトイレ (0階),35.6439696,139.6987684,,,,始発〜終電,OSMデータ
48a34f0b-5fb9-50f0-9009-eb4900da48ed,中目黒,東京メトロ日比谷線,中目黒駅付近のトイレ (0階),35.6439547,139.6987453,,,,始発〜終電,OSMデータ
eaf3a299-36d7-5ebf-bcf0-04af14fc5a76,中目黒,東京メトロ日比谷線,中目黒駅付近のトイレ,35.6422323,139.6910862,,,,始発〜終電,OSMデータ
dd799c2d-0f37-53b3-9f9a-122034f67dbd,祐天寺,東急東横線,祐天寺駅付近のトイレ,35.6374902,139.6911849,,,,始発〜終電,OSMデータ
a91ea4e9-0329-5179-9d44-6ec254002517,祐天寺,東急東横線,祐天寺駅付近のトイレ,35.6324829,139.6967688,,,,始発〜終電,OSMデータ
576ec3bb-6d9d-5a71-8b55-f61e5376f3d9,祐天寺,東急東横線,祐天寺駅付近のトイレ,35.6305565,139.6916676,,,,始発〜終電,OSMデータ
829e7c54-6e70-5dbd-83c1-30275cf2f911,学芸大学,東急東横線,学芸大学駅付近のトイレ,35.6243482,139.6921476,○,,,始発〜終電,OSMデータ
64b8d05e-8cb0-5612-8da9-b7a6f5c6e6d8,学芸大学,東急東横線,学芸大学駅付近のトイレ,35.6232071,139.6866391,,,,始発〜終電,OSMデータ
0a95c185-9348-51c9-a8e7-483ff96bdb66,学芸大学,東急東横線,学芸大学駅付近のトイレ,35.6239613,139.6802268,,,,始発〜終電,OSMデータ
9c86ab54-7226-5c5f-9a39-71d463b8ae52,学芸大学,東急東横線,学芸大学駅付近のトイレ,35.6304906,139.6906329,,,,始発〜終電,OSMデータ
7bd9fbfe-fa29-54bf-b757-f2dec1673c1b,学芸大学,東急東横線,学芸大学駅付近のトイレ,35.632894,139.6798342,,,,始発〜終電,OSMデータ
352ad5f5-ea50-59a3-aa64-4a840f9ac520,学芸大学,東急東横線,学芸大学駅付近のトイレ,35.6261888,139.6816985,,,,始発〜終電,OSMデータ
15b92ea6-ab77-5711-8931-93657266ccba,学芸大学,東急東横線,学芸大学駅付近のトイレ,35.625199,139.6828894,,,,始発〜終電,OSMデータ
ad7ae63d-8402-5665-ad47-84714f288cee,学芸大学,東急東横線,学芸大学駅付近のトイレ,35.627419,139.6807907,,,,始発〜終電,OSMデータ
f7b46cac-e416-545a-a4d9-909c1ebf5de7,学芸大学,東急東横線,学芸大学駅付近のトイレ,35.6286665,139.6851373,,○,,始発〜終電,OSMデータ
a0fcdb58-066e-5432-8b4c-57934cca12b2,学芸大学,東急東横線,学芸大学駅付近のトイレ (0階),35.6288758,139.6853666,,,,始発〜終電,OSMデータ
4b343473-3805-5d6d-b9e3-348cab6758a9,都立大学,東急東横線,都立大学駅付近のトイレ,35.6164463,139.678694,,,,始発〜終電,OSMデータ
047ead4c-41a6-5a34-b34b-5aec95ff3d3d,都立大学,東急東横線,都立大学駅付近のトイレ,35.618067,139.6844023,,,,始発〜終電,OSMデータ
e7f11c8c-fb90-545b-9bfc-4cd1dae299c1,都立大学,東急東横線,都立大学駅付近のトイレ,35.6132752,139.6822421,,,,始発〜終電,OSMデータ
facaebce-e130-5c3c-bad9-09e865f051c4,都立大学,東急東横線,都立大学駅公衆便所 (0階),35.6172719,139.6758739,,,,始発〜終電,OSMデータ
98d3d4ac-60f3-5a55-9773-ab8a24bd329d,都立大学,東急東横線,都立大学駅付近のトイレ,35.6214833,139.67286,,,,始発〜終電,OSMデータ
d874282c-77cf-51d4-ab10-129b18bbadc5,自由が丘,東急東横線,自由が丘駅付近のトイレ,35.610004,139.6691641,○,,,始発〜終電,OSMデータ
a4153026-2fab-550b-b7c5-40510eed2790,自由が丘,東急東横線,自由が丘駅付近のトイレ,35.6074816,139.6686047,○,,,始発〜終電,OSMデータ
9db2ee1c-554a-5c59-bd8e-26a95562b8d9,自由が丘,東急東横線,自由が丘駅付近のトイレ,35.6078157,139.671657,○,,,始発〜終電,OSMデータ
5ccd914d-27ee-567a-acbc-e3b9205e1cf5,自由が丘,東急東横線,自由が丘駅付近のトイレ,35.6102696,139.6672293,○,○,,始発〜終電,OSMデータ
9784b99f-f3aa-5627-bb85-ab88845564db,自由が丘,東急東横線,自由が丘駅付近のトイレ (0階),35.6076565,139.6693709,○,,,始発〜終電,OSMデータ
48dbe6c5-4943-589c-87f8-a9043a4d42c6,田園調布,東急東横線,田園調布駅付近のトイレ,35.5933655,139.6716539,,,,始発〜終電,OSMデータ
1511ba69-4b9e-5021-9aaf-5db2e7f52d91,田園調布,東急東横線,田園調布駅付近のトイレ,35.5939395,139.6641779,,,,始発〜終電,OSMデータ
50c72d4f-188f-5623-a110-bb9dbfbc2dff,田園調布,東急東横線,田園調布駅付近のトイレ,35.5974123,139.6671693,○,,,始発〜終電,OSMデータ
588f8c31-e0ea-5d96-8a21-fc0a5933dd17,多摩川,東急東横線,多摩川駅付近のトイレ,35.5899736,139.6698104,○,,,始発〜終電,OSMデータ
876e57be-e91d-5065-9a89-9196fff4bd99,多摩川,東急東横線,多摩川駅付近のトイレ,35.5903008,139.6689789,○,,,始発〜終電,OSMデータ
bf9c5c22-de90-59fe-9239-bb3d2229da1d,多摩川,東急東横線,多摩川駅付近のトイレ,35.5828227,139.6752923,,,,始発〜終電,OSMデータ
73ffb9ea-7e34-58b4-b8b3-b50df5763312,多摩川,東急東横線,多摩川駅付近のトイレ,35.5910554,139.6757068,,,,始発〜終電,OSMデータ
7f7331d4-68c0-5cb8-a06e-bb26627fd39a,多摩川,東急東横線,多摩川駅付近のトイレ,35.5827736,139.6714728,,,,始発〜終電,OSMデータ
6a5ffde9-6947-5686-a1c3-ae8ce1faa227,多摩川,東急東横線,多摩川駅付近のトイレ,35.5901591,139.6668842,○,,,始発〜終電,OSMデータ
dddb379e-dc54-5660-b48a-0ca8fdd00cb5,多摩川,東急東横線,多摩川駅付近のトイレ,35.5899943,139.6665659,○,,,始発〜終電,OSMデータ
6f55bca9-961f-57cc-b0a4-7cb7f869f2b6,多摩川,東急東横線,多摩川駅付近のトイレ,35.5888127,139.6670871,○,,,始発〜終電,OSMデータ
dcf84566-c472-5253-aaa3-e223c1d8cd7d,多摩川,東急東横線,多摩川駅付近のトイレ,35.5882447,139.6689402,○,,,始発〜終電,OSMデータ
2f4f1244-7d4d-5cd6-83f2-67f4e69d498b,多摩川,東急東横線,多摩川駅付近のトイレ,35.587432,139.6617784,,,,始発〜終電,OSMデータ
989292f8-f76e-51d3-a066-32647b933f41,多摩川,東急東横線,多摩川駅付近のトイレ,35.5802023,139.6688576,,,,始発〜終電,OSMデータ
23845fd0-02a2-525b-b49b-98f3b4936911,多摩川,東急東横線,多摩川駅付近のトイレ,35.5829125,139.6674672,,,,始発〜終電,OSMデータ
fb55ed87-bce5-5996-b0f8-d58da05c1912,多摩川,東急東横線,多摩川駅付近のトイレ,35.5845756,139.6659244,,,,始発〜終電,OSMデータ
031ed9b3-280b-5ab8-be81-a27b90398918,多摩川,東急東横線,多摩川駅付近のトイレ,35.5851166,139.665669,,,,始発〜終電,OSMデータ
59842838-15a0-51b2-b500-847010f809d4,多摩川,東急東横線,多摩川駅付近のトイレ,35.5860487,139.664297,,,,始発〜終電,OSMデータ
9fabb769-6db3-5788-a549-3dc1cf646cf8,多摩川,東急東横線,多摩川駅付近のトイレ,35.5803377,139.6725712,,,,始発〜終電,OSMデータ
684a8475-bae5-5a93-a3cb-d3cd8a854852,南新宿,小田急小田原線,西参道公衆便所,35.6838494,139.6914837,,○,,始発〜終電,OSMデータ
86797ac7-b724-5191-ae6e-61f6e7623ffc,南新宿,小田急小田原線,代々木ポニー公園,35.6789317,139.6948423,○,,,始発〜終電,OSMデータ
7dccb6c4-09ad-5aa8-8523-2f8e908851c7,参宮橋,小田急小田原線,玉川上水旧水路初台緑道,35.680618,139.686807,,,,始発〜終電,OSMデータ
738ec994-a5c2-5549-8fc2-1bc78ffef94b,参宮橋,小田急小田原線,初台児童遊園地,35.6773962,139.6856208,,,,始発〜終電,OSMデータ
beba5202-0307-53fb-b801-b80a8f19e7b2,代々木八幡,小田急小田原線,富ヶ谷三本杉公園,35.6665761,139.6871593,○,,,始発〜終電,OSMデータ
c0caa00a-96a3-55c3-bd9c-cadce40a062d,代々木八幡,小田急小田原線,富ヶ谷公園,35.6632822,139.6868366,,,,始発〜終電,OSMデータ
b23efea4-1511-5216-b031-d84cc6e7f43a,代々木八幡,小田急小田原線,代々木八幡駅付近のトイレ (-1階),35.669269,139.6889959,,,,始発〜終電,OSMデータ
f0689ed9-fe6c-59c8-8de5-afc59de5a881,代々木八幡,小田急小田原線,代々木八幡駅付近のトイレ (-1階),35.6689729,139.6910854,,○,,始発〜終電,OSMデータ
d57bf254-69d2-5194-ba7f-e4b2ec938ed3,代々木八幡,小田急小田原線,代々木八幡駅付近のトイレ,35.6670149,139.6922496,,,,始発〜終電,OSMデータ
eca6fae0-9662-5f29-b2d3-243236d5ab0b,代々木八幡,小田急小田原線,代々木八幡駅付近のトイレ,35.6726237,139.6936744,,,,始発〜終電,OSMデータ
79db68a0-e388-5a0a-afee-44509f316451,代々木八幡,小田急小田原線,はるのおがわコミュニティパーク 透明トイレ,35.6722054,139.6910791,○,○,○,始発〜終電,OSMデータ
ca423075-d9be-5b6e-9232-469bfe8bf8ba,代々木八幡,小田急小田原線,代々木八幡駅付近のトイレ,35.6734891,139.6843315,,,,始発〜終電,OSMデータ
5ab5e472-6538-59fa-b0f3-4a1aab7d0d2c,代々木八幡,小田急小田原線,代々木八幡駅付近のトイレ,35.6698819,139.6929958,○,,,始発〜終電,OSMデータ
09ea3465-6832-5808-98b7-370021d45e51,代々木八幡,小田急小田原線,代々木八幡駅付近のトイレ,35.6712456,139.6929736,,,,始発〜終電,OSMデータ
c116a64d-0229-5d55-b9b4-104a1c318d6a,代々木八幡,小田急小田原線,上原二丁目児童遊園地,35.6662994,139.6839911,,,,始発〜終電,OSMデータ
7606988c-7c84-5a46-ac29-252f69736151,代々木八幡,小田急小田原線,代々木深町小公園 透明トイレ,35.6693949,139.6906937,○,○,○,始発〜終電,OSMデータ
7e28e0f7-61c4-5d87-885d-d30a1249fa4c,代々木八幡,小田急小田原線,代々木八幡公衆便所,35.6714521,139.688015,,○,,始発〜終電,OSMデータ
b12cc4fd-52f7-5715-8b57-80d0b4858a11,代々木上原,小田急小田原線,代々木上原駅付近のトイレ,35.6730207,139.6787233,,,,始発〜終電,OSMデータ
b44f6314-bd2d-58ad-be43-d8e8c7f2f206,代々木上原,小田急小田原線,代々木上原駅付近のトイレ,35.6716272,139.6748744,○,,,始発〜終電,OSMデータ
b3e7311d-04c9-5ab8-89f3-423901359056,代々木上原,小田急小田原線,上原公園,35.6667054,139.6785695,,,,始発〜終電,OSMデータ
d7904b7e-5709-5042-bf01-672870ebb5d2,代々木上原,小田急小田原線,代々木上原駅付近のトイレ (0階),35.6623527,139.6807042,,,,始発〜終電,OSMデータ
42c28d64-7c4f-5e50-965d-2af96a1353b8,代々木上原,小田急小田原線,代々木上原駅付近のトイレ (0階),35.6622165,139.6801101,,,,始発〜終電,OSMデータ
91208ad0-e2e2-5c4b-9e46-70c74728cfda,代々木上原,小田急小田原線,代々木上原駅付近のトイレ (0階),35.6622699,139.6801366,,,,始発〜終電,OSMデータ
c4ce5638-fbb3-5874-ab66-af534acd79db,代々木上原,小田急小田原線,大山児童遊園地,35.6670938,139.6754681,,,,始発〜終電,OSMデータ
bad558a1-0692-545c-8422-97b14c74d8da,代々木上原,小田急小田原線,代々木上原駅付近のトイレ,35.6707749,139.6726003,,,,始発〜終電,OSMデータ
2041664a-e7e6-5470-aed1-f0ec8013bfb0,代々木上原,小田急小田原線,代々木上原駅付近のトイレ,35.6626792,139.6802896,○,○,,始発〜終電,OSMデータ
305a4b57-b46b-5db1-9715-f5010fb96b42,東北沢,小田急小田原線,東北沢駅付近のトイレ,35.6614055,139.6673419,,,,始発〜終電,OSMデータ
35e4fcc2-baf0-5a63-bec3-6912871a93f9,下北沢,小田急小田原線,下北沢駅付近のトイレ,35.657116,139.6601522,,,,始発〜終電,OSMデータ
30b7ff9a-ed80-5272-8b58-cf2e2156698a,下北沢,小田急小田原線,下北沢駅付近のトイレ (-2階),35.6609602,139.6665792,,,,始発〜終電,OSMデータ
b5b60dc9-fab7-5148-ad71-07daa30409f7,下北沢,小田急小田原線,下北沢駅付近のトイレ (-2階),35.6609295,139.6665505,,,,始発〜終電,OSMデータ
969d9be0-1ecc-5217-a69c-3d1530464165,下北沢,小田急小田原線,下北沢駅付近のトイレ (0階),35.6611001,139.6666905,○,○,,始発〜終電,OSMデータ
b069215a-c133-5ccf-b280-168af72d3991,下北沢,小田急小田原線,下北沢駅付近のトイレ (0階),35.6610889,139.6666748,○,,,始発〜終電,OSMデータ
15ebc8b8-d242-5472-8ce9-52fa56387c81,下北沢,小田急小田原線,下北沢駅付近のトイレ,35.6617306,139.6632586,,,,始発〜終電,OSMデータ
6fc2dd60-b88d-5b21-8fab-4e99325e3cf3,世田谷代田,小田急小田原線,世田谷代田駅付近のトイレ,35.6588061,139.6561373,○,,,始発〜終電,OSMデータ
987ac558-d1c6-5517-b5ff-0394603cf1f6,世田谷代田,小田急小田原線,羽根木公園トイレ,35.6588167,139.6561428,○,,,始発〜終電,OSMデータ
1b3eadcb-2a55-5cc5-8d3a-c87ef266b2a5,世田谷代田,小田急小田原線,世田谷代田駅付近のトイレ,35.6525223,139.6606073,,,,始発〜終電,OSMデータ
bd902dce-5838-5405-80d3-0585370ca55d,世田谷代田,小田急小田原線,世田谷代田駅付近のトイレ,35.6580734,139.6548285,○,,,始発〜終電,OSMデータ
302a3108-0298-5ff8-b275-ad63e7903a25,梅ヶ丘,小田急小田原線,梅丘公衆便所,35.6557102,139.6522426,○,,,始発〜終電,OSMデータ
aec1dfe8-0e7d-5e90-bb2e-ab2dfadf93f0,豪徳寺,小田急小田原線,豪徳寺駅付近のトイレ,35.6529821,139.6415054,,,,始発〜終電,OSMデータ
7dd4651f-a493-5d9b-99c1-be4858a72208,豪徳寺,小田急小田原線,豪徳寺駅付近のトイレ,35.6581947,139.6433829,,,,始発〜終電,OSMデータ
53469a42-79a7-5107-8f51-87c8176c07de,豪徳寺,小田急小田原線,豪徳寺駅付近のトイレ,35.6478268,139.6477951,,,,始発〜終電,OSMデータ
14ecb4a5-4aef-585d-b0bb-d339ecca466c,経堂,小田急小田原線,経堂駅付近のトイレ,35.6545981,139.6371419,,,,始発〜終電,OSMデータ
fd6e0c2c-611c-5c4b-86e2-177af82348ee,経堂,小田急小田原線,経堂駅付近のトイレ,35.6535981,139.6361566,,,,始発〜終電,OSMデータ
a3bd1889-b5dd-5ca4-995d-c35ee1eb7bbc,経堂,小田急小田原線,経堂駅付近のトイレ,35.6487212,139.6300535,,,,始発〜終電,OSMデータ
77aebe31-9f63-52bb-9076-408643e2fce4,千歳船橋,小田急小田原線,千歳船橋駅付近のトイレ,35.6442386,139.613608,,,,始発〜終電,OSMデータ
d9c788fa-9cfe-527a-bde5-4648b7919535,千歳船橋,小田急小田原線,千歳船橋駅付近のトイレ,35.6464805,139.6166026,,,,始発〜終電,OSMデータ
c2449cdb-b2cf-5055-980e-404c594d3a34,祖師ヶ谷大蔵,小田急小田原線,祖師ヶ谷大蔵駅トイレ(代表),35.6432581,139.6091446,○,○,,始発〜終電,駅中心座標(詳細位置不明)
bce41775-183c-5771-9140-ffb1ef9455aa,成城学園前,小田急小田原線,成城学園前駅付近のトイレ,35.6354762,139.5997561,,,,始発〜終電,OSMデータ
e1cf65e4-8f21-5c50-ba67-ce0551dcdf81,成城学園前,小田急小田原線,成城学園前駅付近のトイレ,35.6343677,139.599055,,,,始発〜終電,OSMデータ
eff1a26b-1d73-5ac2-ac8b-972bcc09a9a0,成城学園前,小田急小田原線,成城学園前駅付近のトイレ,35.6426234,139.6025212,,,,始発〜終電,OSMデータ
